{"type":"FeatureCollection","features":[{"type":"Feature","id":"inao-denom-373","properties":{"id":"inao-denom-373","name":"Bourgogne Montrecul","tier":"regional","kind":"appellation","appellationId":138,"denominationId":373,"sourceName":"Bourgogne Montrecul ou Montre-Cul ou En Montre-Cul","communes":["21231"],"areaHa":15.99},"geometry":{"type":"MultiPolygon","coordinates":[[[[5.006614,47.304296],[5.006591,47.303908],[5.006594,47.303837],[5.006567,47.303701],[5.006427,47.303583],[5.005425,47.30273],[5.004644,47.302953],[5.004474,47.303017],[5.004195,47.303109],[5.004038,47.303152],[5.00396,47.303169],[5.003861,47.303177],[5.003643,47.303165],[5.003615,47.30315],[5.003503,47.30304],[5.003458,47.303],[5.003429,47.303014],[5.003347,47.303153],[5.003349,47.303226],[5.003136,47.303299],[5.002855,47.303435],[5.002778,47.303465],[5.002742,47.303486],[5.002943,47.303527],[5.002854,47.3038],[5.002568,47.303789],[5.002523,47.303982],[5.002504,47.30404],[5.002503,47.304044],[5.002293,47.304759],[5.002141,47.305435],[5.002952,47.304817],[5.003542,47.304522],[5.003745,47.304521],[5.003963,47.304524],[5.004123,47.304555],[5.004116,47.304646],[5.004498,47.304692],[5.004818,47.304711],[5.004925,47.304725],[5.00525,47.304736],[5.005551,47.304745],[5.005906,47.304763],[5.006109,47.304767],[5.006181,47.304758],[5.00623,47.304737],[5.006437,47.304579],[5.006622,47.304419],[5.006614,47.304296]]],[[[5.006914,47.306445],[5.00691,47.30633],[5.006806,47.306253],[5.00631,47.306281],[5.006332,47.306018],[5.006354,47.305931],[5.006366,47.305883],[5.006397,47.305884],[5.00636,47.306023],[5.006345,47.306168],[5.006447,47.3062],[5.006584,47.30622],[5.006746,47.306221],[5.006796,47.306226],[5.006804,47.306088],[5.006807,47.306026],[5.006808,47.305937],[5.006818,47.305838],[5.00682,47.305783],[5.006819,47.305722],[5.006829,47.305633],[5.006842,47.305483],[5.006861,47.305398],[5.006687,47.305359],[5.006686,47.305326],[5.006686,47.305171],[5.006686,47.305089],[5.006686,47.305009],[5.006686,47.304936],[5.006687,47.304864],[5.006684,47.304763],[5.006683,47.304718],[5.00668,47.304573],[5.006678,47.304435],[5.006654,47.304439],[5.006218,47.30478],[5.00594,47.304788],[5.0059,47.30479],[5.005507,47.304769],[5.005132,47.304759],[5.00502,47.304753],[5.004899,47.304749],[5.004673,47.30473],[5.004473,47.304721],[5.003972,47.304666],[5.003973,47.304558],[5.00354,47.304553],[5.002973,47.304851],[5.002538,47.305182],[5.002126,47.305494],[5.001954,47.306168],[5.002009,47.306355],[5.002149,47.306354],[5.00218,47.3063],[5.002249,47.306299],[5.002943,47.306295],[5.002943,47.306802],[5.002968,47.307187],[5.003186,47.307193],[5.00352,47.307204],[5.003524,47.307309],[5.003269,47.3073],[5.003251,47.307398],[5.003242,47.30744],[5.003232,47.307489],[5.003208,47.307604],[5.004099,47.307708],[5.004093,47.307749],[5.005712,47.307778],[5.006549,47.307776],[5.006894,47.307769],[5.006899,47.307743],[5.006879,47.307434],[5.006862,47.307237],[5.006898,47.306811],[5.006907,47.306713],[5.006913,47.306668],[5.006922,47.30663],[5.006923,47.306528],[5.006914,47.306445]]]]}},{"type":"Feature","id":"commune-21231","properties":{"id":"commune-21231","name":"Dijon","kind":"commune","tier":"commune"},"geometry":{"type":"MultiPolygon","coordinates":[[[[4.968893,47.327612],[4.968928,47.327729],[4.969099,47.328294],[4.969266,47.32824],[4.969444,47.328204],[4.96939,47.327809],[4.969895,47.328502],[4.969905,47.328576],[4.970063,47.328781],[4.970251,47.328746],[4.97017,47.32862],[4.970417,47.328574],[4.970756,47.328738],[4.970819,47.328768],[4.971025,47.328856],[4.97125,47.328952],[4.971477,47.329049],[4.971563,47.329077],[4.97196,47.329058],[4.972787,47.329138],[4.973084,47.329081],[4.973443,47.329166],[4.973992,47.329259],[4.974117,47.329298],[4.974253,47.329334],[4.974458,47.329388],[4.974619,47.329437],[4.974843,47.329486],[4.975028,47.329524],[4.975315,47.329581],[4.975501,47.329628],[4.975616,47.329656],[4.975726,47.329694],[4.976019,47.329798],[4.976294,47.329898],[4.976315,47.329853],[4.977195,47.32878],[4.977196,47.328777],[4.977333,47.328683],[4.977307,47.328664],[4.985769,47.326715],[4.986001,47.327099],[4.986042,47.327168],[4.986273,47.327551],[4.986298,47.327599],[4.986334,47.327664],[4.988857,47.327319],[4.98898,47.327393],[4.988987,47.327412],[4.988999,47.327444],[4.989024,47.327531],[4.989032,47.327558],[4.989042,47.327591],[4.989042,47.327592],[4.989077,47.327703],[4.989147,47.327715],[4.989206,47.327729],[4.989258,47.327743],[4.989313,47.327762],[4.989354,47.32778],[4.989392,47.327801],[4.98943,47.327825],[4.989463,47.327849],[4.989488,47.32787],[4.989509,47.32789],[4.98953,47.327914],[4.989549,47.327938],[4.989576,47.327991],[4.989643,47.328115],[4.989688,47.328187],[4.98971,47.328214],[4.989756,47.32826],[4.989806,47.328301],[4.989877,47.32835],[4.989953,47.328395],[4.990025,47.328429],[4.990108,47.328462],[4.990193,47.328493],[4.990254,47.328512],[4.990279,47.32852],[4.990375,47.328548],[4.990466,47.328571],[4.990501,47.328579],[4.990582,47.328598],[4.990727,47.328628],[4.990765,47.328637],[4.990801,47.328649],[4.990853,47.328671],[4.990902,47.328697],[4.990928,47.328715],[4.99098,47.328752],[4.991015,47.32878],[4.991059,47.328821],[4.991094,47.328862],[4.991126,47.328909],[4.99115,47.328957],[4.99119,47.32906],[4.991222,47.32916],[4.991312,47.329538],[4.991342,47.329597],[4.991356,47.329618],[4.991373,47.329634],[4.9916,47.329751],[4.991811,47.329863],[4.992057,47.329998],[4.992219,47.330033],[4.992478,47.330063],[4.99264,47.330066],[4.992932,47.330089],[4.993156,47.330127],[4.993391,47.330171],[4.99357,47.330229],[4.99377,47.330314],[4.993754,47.330412],[4.993788,47.330431],[4.993819,47.330447],[4.994124,47.330615],[4.994311,47.33072],[4.994952,47.33049],[4.995189,47.330401],[4.995702,47.3302],[4.995943,47.330147],[4.996333,47.330068],[4.996879,47.330003],[4.997712,47.329949],[4.998741,47.329873],[4.999046,47.32984],[4.999236,47.329803],[4.999452,47.329761],[4.999736,47.329705],[5.000372,47.329566],[5.000871,47.32943],[5.001408,47.329252],[5.001776,47.329115],[5.002155,47.328901],[5.002657,47.328581],[5.002888,47.32843],[5.00305,47.328333],[5.003635,47.328048],[5.00505,47.32751],[5.005571,47.327306],[5.005958,47.327146],[5.006147,47.327061],[5.00628,47.32698],[5.00635,47.326932],[5.006453,47.326848],[5.00654,47.326771],[5.006763,47.326526],[5.007209,47.325995],[5.007356,47.325835],[5.007666,47.32554],[5.00767,47.325534],[5.008103,47.325153],[5.008192,47.325036],[5.008324,47.324843],[5.008511,47.324498],[5.008686,47.324109],[5.00885,47.323792],[5.008912,47.323676],[5.008936,47.323638],[5.008964,47.323593],[5.009179,47.323443],[5.009672,47.323067],[5.009744,47.323013],[5.009818,47.322965],[5.010053,47.322827],[5.010261,47.32274],[5.010462,47.322665],[5.010703,47.322629],[5.010876,47.32261],[5.010938,47.322605],[5.011128,47.322598],[5.01116,47.322596],[5.011217,47.32259],[5.01146,47.322572],[5.011563,47.322754],[5.011678,47.322943],[5.011763,47.323076],[5.011778,47.323099],[5.011822,47.32317],[5.011845,47.323211],[5.011943,47.3234],[5.012042,47.323546],[5.012092,47.32363],[5.012165,47.323729],[5.01227,47.323873],[5.012366,47.324003],[5.012398,47.324061],[5.012399,47.324133],[5.012395,47.324182],[5.012352,47.324241],[5.012275,47.324502],[5.012267,47.324593],[5.01228,47.324631],[5.012301,47.324669],[5.012317,47.324697],[5.012386,47.324816],[5.012442,47.324913],[5.0125,47.325046],[5.0125,47.325122],[5.012581,47.325402],[5.012588,47.325498],[5.012594,47.325585],[5.0126,47.32567],[5.012608,47.325776],[5.012609,47.325778],[5.012618,47.325882],[5.01266,47.326165],[5.012675,47.326301],[5.012679,47.32636],[5.012676,47.326521],[5.012635,47.326656],[5.012596,47.326768],[5.012599,47.326875],[5.012645,47.32703],[5.012793,47.327229],[5.012809,47.32725],[5.013162,47.327815],[5.013177,47.327837],[5.013204,47.327903],[5.013398,47.328381],[5.013368,47.328543],[5.013341,47.328673],[5.013316,47.328809],[5.013288,47.328942],[5.013267,47.329055],[5.013275,47.329145],[5.01331,47.329357],[5.013316,47.329394],[5.013345,47.329488],[5.013402,47.329636],[5.013411,47.329659],[5.013461,47.329764],[5.01423,47.331328],[5.014447,47.331747],[5.014582,47.331993],[5.014895,47.33251],[5.014984,47.332655],[5.015311,47.3332],[5.015435,47.333404],[5.015778,47.333983],[5.015517,47.334207],[5.015383,47.334316],[5.01508,47.334568],[5.015306,47.334914],[5.015437,47.335122],[5.015453,47.335149],[5.015477,47.335196],[5.015633,47.335498],[5.015676,47.335589],[5.015689,47.335616],[5.015738,47.335718],[5.015756,47.33576],[5.015796,47.335859],[5.015959,47.336279],[5.016003,47.33639],[5.016115,47.336667],[5.016171,47.33681],[5.016179,47.33683],[5.016218,47.336931],[5.016238,47.336978],[5.016253,47.337011],[5.016326,47.337158],[5.016478,47.337464],[5.0166,47.337715],[5.016616,47.337748],[5.016739,47.338019],[5.016817,47.338233],[5.016885,47.338417],[5.016905,47.338473],[5.01696,47.338624],[5.017056,47.338877],[5.017074,47.339049],[5.017114,47.339325],[5.017589,47.338987],[5.018094,47.338361],[5.018258,47.338184],[5.018475,47.337997],[5.019458,47.337369],[5.019566,47.337314],[5.019655,47.337276],[5.020342,47.337033],[5.020488,47.33698],[5.02163,47.336584],[5.022138,47.336448],[5.022934,47.336243],[5.022975,47.336198],[5.023042,47.336155],[5.023263,47.336043],[5.023585,47.335882],[5.023616,47.335872],[5.023681,47.335855],[5.024382,47.335136],[5.024438,47.335078],[5.024541,47.334964],[5.024778,47.334703],[5.024812,47.334676],[5.024899,47.334612],[5.025082,47.334488],[5.025209,47.334418],[5.025341,47.334365],[5.02543,47.334332],[5.025594,47.334272],[5.025728,47.334216],[5.025891,47.334139],[5.025929,47.334118],[5.026054,47.334049],[5.026279,47.333899],[5.026411,47.33381],[5.026469,47.333771],[5.026552,47.333709],[5.026594,47.333675],[5.026629,47.333642],[5.026662,47.333605],[5.026706,47.333497],[5.02672,47.333453],[5.027022,47.333413],[5.027283,47.333381],[5.027572,47.333343],[5.027605,47.33334],[5.027809,47.333583],[5.027965,47.333822],[5.028011,47.333895],[5.028073,47.33399],[5.028147,47.334118],[5.028218,47.334239],[5.028281,47.334347],[5.028418,47.33452],[5.02859,47.334736],[5.028635,47.3348],[5.02865,47.334833],[5.028699,47.334968],[5.028746,47.335102],[5.028792,47.33523],[5.02881,47.335274],[5.029024,47.335624],[5.029064,47.335688],[5.029151,47.335822],[5.030808,47.335644],[5.031092,47.335614],[5.031287,47.335594],[5.03152,47.33557],[5.031765,47.335546],[5.032301,47.335491],[5.032365,47.335484],[5.032741,47.33545],[5.032777,47.335447],[5.033289,47.335404],[5.033775,47.335364],[5.033969,47.335347],[5.033982,47.33538],[5.033985,47.335408],[5.033975,47.335428],[5.033834,47.335665],[5.033746,47.335803],[5.03369,47.33586],[5.033566,47.335968],[5.033366,47.336188],[5.033279,47.336288],[5.033036,47.336556],[5.033137,47.336573],[5.033885,47.336548],[5.034002,47.336549],[5.034127,47.336549],[5.034283,47.33655],[5.034495,47.336548],[5.03467,47.336542],[5.034827,47.336518],[5.035172,47.336439],[5.035443,47.336386],[5.035933,47.336295],[5.036301,47.336239],[5.036369,47.336229],[5.036572,47.336198],[5.036813,47.336161],[5.036943,47.336143],[5.037125,47.336113],[5.037483,47.336095],[5.037856,47.336071],[5.038061,47.33605],[5.038142,47.336039],[5.038318,47.336015],[5.038685,47.335965],[5.038693,47.335964],[5.039013,47.335943],[5.039075,47.335935],[5.039367,47.335904],[5.039599,47.335897],[5.039617,47.335978],[5.039636,47.336041],[5.039652,47.336095],[5.039654,47.336101],[5.039776,47.336503],[5.039761,47.336601],[5.039728,47.336827],[5.039727,47.336829],[5.039692,47.33701],[5.039686,47.337036],[5.039677,47.337082],[5.039649,47.337226],[5.03963,47.337322],[5.039614,47.337403],[5.039611,47.337416],[5.039592,47.337514],[5.03958,47.337574],[5.039491,47.338027],[5.039478,47.338115],[5.039468,47.338137],[5.039407,47.338273],[5.039372,47.338353],[5.039345,47.338414],[5.03933,47.338448],[5.039324,47.338464],[5.03932,47.338472],[5.039275,47.338549],[5.039268,47.338559],[5.039222,47.33862],[5.039206,47.338641],[5.039135,47.338727],[5.039099,47.338767],[5.039082,47.338787],[5.039041,47.338835],[5.038918,47.338979],[5.038913,47.338984],[5.038804,47.3394],[5.038677,47.339881],[5.038621,47.340055],[5.038605,47.340108],[5.038511,47.340411],[5.038455,47.340593],[5.038417,47.340847],[5.038391,47.341066],[5.038359,47.341287],[5.038338,47.341473],[5.038333,47.341505],[5.038309,47.341627],[5.038281,47.341726],[5.038217,47.341898],[5.038205,47.341924],[5.03817,47.341992],[5.038145,47.342032],[5.038124,47.34206],[5.038081,47.342119],[5.038028,47.342178],[5.037883,47.342323],[5.037855,47.342369],[5.037809,47.342646],[5.037782,47.342824],[5.037726,47.343187],[5.037721,47.343223],[5.037694,47.343368],[5.037686,47.343415],[5.037667,47.343476],[5.037613,47.343612],[5.037567,47.343686],[5.037525,47.343746],[5.037428,47.343869],[5.0373,47.34404],[5.037059,47.344355],[5.036888,47.34457],[5.036795,47.344699],[5.036718,47.344806],[5.036585,47.344994],[5.036459,47.345162],[5.036287,47.3454],[5.036115,47.345637],[5.036038,47.345744],[5.036018,47.345767],[5.035767,47.346056],[5.03575,47.346075],[5.035549,47.34629],[5.035507,47.34634],[5.035438,47.34643],[5.035402,47.346487],[5.035393,47.346501],[5.035379,47.346531],[5.035333,47.346659],[5.035241,47.346927],[5.035213,47.347015],[5.035203,47.347047],[5.035143,47.347188],[5.035038,47.347479],[5.034953,47.347745],[5.034823,47.348308],[5.034811,47.348403],[5.034799,47.348546],[5.034744,47.349236],[5.034767,47.349857],[5.034767,47.349875],[5.034766,47.349897],[5.034719,47.350223],[5.03463,47.35052],[5.034383,47.350932],[5.034301,47.351212],[5.034562,47.352533],[5.034574,47.352625],[5.034756,47.354028],[5.034935,47.354045],[5.035099,47.354063],[5.035483,47.354105],[5.035549,47.354113],[5.036005,47.354164],[5.036163,47.354176],[5.036219,47.354181],[5.0366,47.354226],[5.03679,47.354259],[5.036876,47.354268],[5.038444,47.354451],[5.038958,47.354511],[5.03991,47.354621],[5.040473,47.354687],[5.040607,47.354694],[5.040555,47.35485],[5.040524,47.354938],[5.040258,47.355623],[5.04009,47.356079],[5.04004,47.356213],[5.039718,47.357063],[5.039524,47.357546],[5.03949,47.357638],[5.039275,47.358202],[5.039122,47.35862],[5.038938,47.359102],[5.038864,47.359288],[5.038655,47.359831],[5.038633,47.359892],[5.038332,47.360673],[5.038213,47.360978],[5.038014,47.361496],[5.037919,47.361758],[5.037808,47.36235],[5.037758,47.362594],[5.037753,47.362619],[5.037465,47.363877],[5.03738,47.364224],[5.037379,47.364228],[5.037303,47.364569],[5.037244,47.364828],[5.037232,47.36487],[5.037073,47.36556],[5.037048,47.365628],[5.036997,47.365764],[5.036969,47.365839],[5.03673,47.367228],[5.036706,47.367366],[5.036703,47.367387],[5.036668,47.367589],[5.036468,47.368769],[5.036436,47.368958],[5.036411,47.369106],[5.036656,47.369189],[5.038233,47.369726],[5.038599,47.36985],[5.038698,47.369882],[5.038391,47.370377],[5.037636,47.371604],[5.037763,47.371615],[5.037935,47.371631],[5.03843,47.371679],[5.038723,47.371708],[5.038775,47.371715],[5.0394,47.371834],[5.040158,47.371979],[5.040273,47.372],[5.04102,47.372137],[5.041407,47.372203],[5.041502,47.372212],[5.04175,47.372214],[5.041909,47.372211],[5.042056,47.372208],[5.042434,47.372204],[5.04264,47.372221],[5.042722,47.372265],[5.042915,47.372415],[5.043058,47.372482],[5.043355,47.372751],[5.043677,47.372948],[5.044055,47.373116],[5.045158,47.373517],[5.045461,47.373642],[5.045757,47.373768],[5.045867,47.373819],[5.045968,47.373879],[5.046088,47.373978],[5.04617,47.374064],[5.046235,47.374153],[5.04628,47.374242],[5.046342,47.374406],[5.046907,47.374522],[5.047924,47.374704],[5.048044,47.37472],[5.048249,47.374736],[5.048918,47.374749],[5.049344,47.374762],[5.049987,47.374788],[5.050625,47.376191],[5.051257,47.377459],[5.051346,47.377374],[5.052055,47.376516],[5.052196,47.376344],[5.052236,47.376296],[5.052273,47.376252],[5.052381,47.376121],[5.052432,47.376059],[5.052531,47.375939],[5.052574,47.375887],[5.052659,47.375788],[5.052688,47.375752],[5.052745,47.375683],[5.052823,47.375589],[5.05286,47.375543],[5.052909,47.375484],[5.052978,47.3754],[5.05304,47.375324],[5.053102,47.37525],[5.053137,47.375207],[5.053166,47.375172],[5.053193,47.375139],[5.053248,47.375072],[5.053315,47.37499],[5.053515,47.374747],[5.05361,47.374632],[5.053906,47.374273],[5.054,47.374157],[5.054155,47.373969],[5.054557,47.373481],[5.05464,47.37338],[5.054747,47.37325],[5.054895,47.37307],[5.054988,47.372956],[5.055219,47.372676],[5.055318,47.372556],[5.055438,47.37241],[5.055571,47.372248],[5.055627,47.37218],[5.055669,47.372135],[5.054557,47.370715],[5.054518,47.370647],[5.053899,47.369412],[5.053617,47.368769],[5.053437,47.368062],[5.05338,47.367865],[5.05348,47.367426],[5.05333,47.367018],[5.053129,47.36663],[5.053087,47.366531],[5.052758,47.365774],[5.052548,47.365347],[5.0523,47.364796],[5.051994,47.364187],[5.05274,47.363983],[5.053211,47.363794],[5.054635,47.363178],[5.054911,47.363114],[5.055625,47.362862],[5.055648,47.362854],[5.055497,47.362406],[5.055418,47.36223],[5.055274,47.362031],[5.055292,47.362028],[5.056957,47.361432],[5.057172,47.361348],[5.057419,47.361252],[5.057724,47.361133],[5.058517,47.360827],[5.058562,47.360814],[5.059255,47.360234],[5.060166,47.359468],[5.060513,47.359216],[5.06067,47.359071],[5.060946,47.358887],[5.060962,47.358881],[5.060985,47.358868],[5.061014,47.358844],[5.061076,47.358804],[5.061313,47.358667],[5.061351,47.358645],[5.061424,47.358603],[5.061705,47.358461],[5.061788,47.358419],[5.061993,47.358324],[5.062079,47.35829],[5.062259,47.358226],[5.063103,47.357799],[5.063108,47.357798],[5.063124,47.357794],[5.063156,47.35779],[5.063368,47.357639],[5.063592,47.357488],[5.063825,47.357314],[5.064284,47.356984],[5.064291,47.356987],[5.064408,47.356917],[5.064653,47.356775],[5.06478,47.356693],[5.065462,47.356367],[5.065584,47.356282],[5.06586,47.356135],[5.066295,47.355928],[5.066969,47.355605],[5.067096,47.355533],[5.067475,47.355311],[5.067854,47.355106],[5.06819,47.354961],[5.067724,47.354495],[5.067434,47.354188],[5.067682,47.354099],[5.067825,47.35405],[5.068628,47.353689],[5.068678,47.353662],[5.068681,47.35366],[5.068779,47.353599],[5.068826,47.353568],[5.068854,47.353544],[5.068875,47.353523],[5.068946,47.35345],[5.069148,47.353221],[5.069345,47.35298],[5.06935,47.352973],[5.069602,47.352668],[5.069654,47.352596],[5.069768,47.352424],[5.069918,47.352198],[5.06992,47.352188],[5.070076,47.352019],[5.070138,47.351949],[5.070266,47.351881],[5.070422,47.35175],[5.070465,47.351814],[5.071018,47.351633],[5.071717,47.351411],[5.072912,47.351024],[5.072952,47.35101],[5.073543,47.351363],[5.074993,47.352199],[5.075095,47.352231],[5.075272,47.35222],[5.076604,47.352061],[5.078588,47.351827],[5.080622,47.351581],[5.082263,47.351371],[5.082258,47.351355],[5.082259,47.350872],[5.082309,47.350188],[5.082323,47.350004],[5.082176,47.349848],[5.081724,47.349368],[5.081459,47.349086],[5.081236,47.348849],[5.081184,47.348794],[5.080595,47.34825],[5.080482,47.348145],[5.080457,47.348123],[5.080365,47.348091],[5.080358,47.348088],[5.080318,47.348062],[5.080144,47.347035],[5.080071,47.346609],[5.080035,47.346605],[5.080019,47.346603],[5.079234,47.346513],[5.079189,47.346508],[5.079135,47.346494],[5.079039,47.346469],[5.078961,47.346449],[5.078725,47.346386],[5.078313,47.346231],[5.078062,47.346073],[5.077944,47.345902],[5.07751,47.345929],[5.07714,47.345953],[5.077074,47.345957],[5.07675,47.345978],[5.076633,47.345725],[5.076471,47.345374],[5.076378,47.345168],[5.076199,47.344774],[5.076163,47.344695],[5.076062,47.344461],[5.076034,47.344397],[5.076006,47.344333],[5.075952,47.344207],[5.075848,47.34402],[5.075769,47.343887],[5.075632,47.343906],[5.075495,47.343925],[5.075232,47.34396],[5.075181,47.34384],[5.075068,47.343568],[5.074987,47.343244],[5.075009,47.342847],[5.074836,47.342847],[5.074316,47.342848],[5.074178,47.342849],[5.073906,47.342849],[5.073766,47.342849],[5.073584,47.34285],[5.073369,47.34287],[5.073248,47.342881],[5.073219,47.342884],[5.073045,47.342888],[5.072913,47.342892],[5.07274,47.342966],[5.072595,47.343029],[5.072384,47.34312],[5.072133,47.343166],[5.07204,47.343183],[5.071911,47.343227],[5.071825,47.343257],[5.071719,47.343294],[5.071668,47.343312],[5.07153,47.343367],[5.071527,47.343368],[5.071452,47.343399],[5.071399,47.34342],[5.071291,47.343462],[5.071106,47.343536],[5.070968,47.343591],[5.070824,47.343648],[5.070606,47.343735],[5.070584,47.343744],[5.070279,47.343864],[5.070049,47.343955],[5.069781,47.344061],[5.069539,47.344157],[5.069091,47.344343],[5.069075,47.344346],[5.068812,47.344304],[5.068586,47.344251],[5.068675,47.34263],[5.068676,47.342624],[5.068716,47.342068],[5.068744,47.341696],[5.068751,47.341563],[5.068763,47.341421],[5.068786,47.341225],[5.068811,47.341082],[5.068853,47.340868],[5.068979,47.34035],[5.069063,47.340114],[5.069077,47.340076],[5.069147,47.33988],[5.06929,47.33955],[5.069343,47.339452],[5.069454,47.339283],[5.070115,47.338321],[5.071402,47.336441],[5.071573,47.336221],[5.0716,47.336186],[5.071952,47.335743],[5.072179,47.335464],[5.072369,47.335223],[5.072592,47.334938],[5.072699,47.334812],[5.073569,47.333716],[5.07364,47.333627],[5.073744,47.333495],[5.073856,47.333354],[5.074016,47.333153],[5.074041,47.333118],[5.074171,47.332955],[5.074253,47.332852],[5.074346,47.332739],[5.07445,47.332607],[5.074623,47.332372],[5.074717,47.332239],[5.0748,47.332116],[5.074873,47.332003],[5.074951,47.331878],[5.075019,47.331764],[5.075092,47.331638],[5.075154,47.331522],[5.075221,47.331395],[5.075284,47.331266],[5.075334,47.331161],[5.075381,47.331055],[5.075418,47.33097],[5.075432,47.330936],[5.075475,47.33083],[5.075484,47.330806],[5.075711,47.330179],[5.075739,47.330102],[5.075785,47.329995],[5.075613,47.329964],[5.075121,47.329873],[5.075092,47.329868],[5.074865,47.329825],[5.074805,47.329814],[5.073627,47.329582],[5.07357,47.329571],[5.07327,47.329512],[5.073203,47.329499],[5.073136,47.329487],[5.072159,47.329313],[5.071767,47.329243],[5.071696,47.32923],[5.071425,47.329181],[5.071285,47.329156],[5.070904,47.329087],[5.070554,47.328957],[5.070405,47.32845],[5.070644,47.328277],[5.072061,47.327193],[5.07348,47.326119],[5.073988,47.325745],[5.07394,47.325589],[5.073941,47.325521],[5.073983,47.325427],[5.073885,47.324993],[5.073841,47.324789],[5.073627,47.323823],[5.07313,47.322416],[5.07309,47.322303],[5.073127,47.322227],[5.073052,47.321722],[5.073056,47.321593],[5.073066,47.321471],[5.073091,47.321255],[5.073112,47.321063],[5.073116,47.32093],[5.073117,47.320904],[5.073117,47.320769],[5.073144,47.320681],[5.073296,47.320681],[5.073429,47.320675],[5.073763,47.320654],[5.073963,47.320641],[5.074023,47.320637],[5.074141,47.320625],[5.074181,47.320621],[5.074544,47.320564],[5.074632,47.320549],[5.074734,47.320528],[5.074902,47.320488],[5.074974,47.320468],[5.075056,47.32045],[5.075098,47.320438],[5.075237,47.320429],[5.07543,47.320415],[5.075639,47.320425],[5.075897,47.320441],[5.076179,47.320462],[5.076632,47.320511],[5.076865,47.320554],[5.076962,47.320574],[5.077162,47.320613],[5.077281,47.320635],[5.077435,47.320662],[5.077579,47.320684],[5.077659,47.320696],[5.077843,47.320716],[5.077923,47.32072],[5.078026,47.320721],[5.07813,47.320721],[5.078209,47.320713],[5.078348,47.3207],[5.078422,47.320691],[5.078541,47.320673],[5.078643,47.320655],[5.078834,47.32062],[5.07938,47.320512],[5.079518,47.320486],[5.079549,47.320482],[5.079732,47.320459],[5.080251,47.320405],[5.080367,47.320396],[5.080534,47.320394],[5.080774,47.320392],[5.080883,47.320391],[5.081165,47.320391],[5.081314,47.320392],[5.081584,47.320393],[5.081724,47.320394],[5.082317,47.320397],[5.082424,47.320397],[5.082741,47.320399],[5.082993,47.320397],[5.083198,47.320385],[5.083868,47.320441],[5.084093,47.32046],[5.084821,47.32053],[5.085556,47.320589],[5.085602,47.320591],[5.08597,47.3206],[5.085987,47.320601],[5.086505,47.320649],[5.086516,47.320649],[5.086803,47.320636],[5.086947,47.320663],[5.087158,47.320686],[5.087162,47.320645],[5.087172,47.320545],[5.087237,47.320494],[5.08731,47.320353],[5.087451,47.320243],[5.087754,47.31993],[5.087957,47.319782],[5.087987,47.319757],[5.088059,47.31969],[5.08816,47.319384],[5.088199,47.319376],[5.088226,47.319317],[5.088281,47.319082],[5.088278,47.318997],[5.088448,47.318666],[5.08837,47.318585],[5.088396,47.318517],[5.088289,47.318529],[5.088177,47.318535],[5.088124,47.318545],[5.087495,47.318546],[5.087396,47.318559],[5.087406,47.318504],[5.087416,47.31845],[5.087501,47.31807],[5.087724,47.317067],[5.087733,47.317039],[5.08775,47.316961],[5.088023,47.315529],[5.088037,47.315223],[5.08801,47.314832],[5.087989,47.314539],[5.087977,47.314372],[5.087734,47.314418],[5.087331,47.314486],[5.086829,47.314574],[5.086501,47.314637],[5.085747,47.314595],[5.085707,47.314593],[5.085196,47.314532],[5.08515,47.314525],[5.084986,47.314495],[5.084545,47.314401],[5.082979,47.314282],[5.082903,47.31428],[5.082233,47.314297],[5.082288,47.314182],[5.082298,47.314164],[5.082927,47.313026],[5.083008,47.312881],[5.083657,47.311711],[5.083742,47.311557],[5.083751,47.311541],[5.083796,47.311476],[5.083866,47.311375],[5.084,47.311181],[5.084188,47.310909],[5.084304,47.310742],[5.084374,47.31064],[5.085354,47.31063],[5.085352,47.310384],[5.085413,47.310385],[5.085419,47.310094],[5.085444,47.310094],[5.085443,47.310078],[5.085465,47.310072],[5.085483,47.310065],[5.085495,47.310053],[5.085502,47.310044],[5.085505,47.310035],[5.085505,47.310027],[5.085506,47.310018],[5.085501,47.310007],[5.085494,47.309997],[5.085488,47.309992],[5.085478,47.309985],[5.085463,47.309979],[5.085444,47.309974],[5.085443,47.309957],[5.085419,47.309957],[5.085417,47.309664],[5.085358,47.309661],[5.085365,47.308801],[5.085366,47.308792],[5.085366,47.308578],[5.085365,47.308579],[5.085365,47.308563],[5.085366,47.308551],[5.085371,47.308483],[5.085486,47.308464],[5.085897,47.308397],[5.085992,47.308381],[5.086403,47.308313],[5.086995,47.308204],[5.08736,47.308127],[5.087572,47.30808],[5.087861,47.308009],[5.087923,47.307987],[5.088121,47.307906],[5.088222,47.307862],[5.088246,47.307851],[5.088279,47.307833],[5.088425,47.307747],[5.088578,47.307761],[5.088606,47.307758],[5.088917,47.307703],[5.089312,47.30763],[5.089726,47.307537],[5.089956,47.307492],[5.090323,47.30738],[5.090823,47.307248],[5.090966,47.30721],[5.090961,47.307196],[5.091188,47.307178],[5.091585,47.307142],[5.091659,47.307133],[5.093256,47.306922],[5.093318,47.30695],[5.093359,47.306971],[5.093399,47.306981],[5.093469,47.306976],[5.094384,47.306767],[5.095616,47.306458],[5.097125,47.306127],[5.096965,47.305797],[5.098431,47.305541],[5.098953,47.305477],[5.101907,47.304986],[5.101949,47.304982],[5.101976,47.304983],[5.102078,47.304999],[5.10207,47.304985],[5.102057,47.304964],[5.102008,47.304907],[5.10196,47.304851],[5.101869,47.304747],[5.101331,47.30464],[5.100036,47.3044],[5.099932,47.304372],[5.099708,47.30428],[5.098185,47.303465],[5.098107,47.303425],[5.097915,47.303333],[5.097116,47.301865],[5.094322,47.299112],[5.094242,47.299032],[5.093772,47.298568],[5.093742,47.298538],[5.093715,47.298511],[5.093347,47.298147],[5.093316,47.298116],[5.091428,47.296247],[5.089314,47.293101],[5.08926,47.293012],[5.089314,47.292891],[5.089484,47.291313],[5.089519,47.290903],[5.089614,47.29004],[5.089681,47.28949],[5.08994,47.287127],[5.089956,47.286994],[5.08996,47.286959],[5.089988,47.286714],[5.090043,47.286247],[5.088833,47.286853],[5.087959,47.287291],[5.08754,47.287502],[5.084523,47.289014],[5.083953,47.2893],[5.083818,47.289362],[5.083418,47.289565],[5.083078,47.289738],[5.082635,47.289962],[5.081801,47.290369],[5.081677,47.29044],[5.081527,47.290288],[5.081166,47.289907],[5.080504,47.28918],[5.080449,47.289123],[5.080226,47.289227],[5.080059,47.289305],[5.079871,47.289392],[5.079772,47.289437],[5.079613,47.289507],[5.079593,47.28952],[5.079573,47.289543],[5.079384,47.289802],[5.078823,47.290036],[5.078568,47.290148],[5.078447,47.290205],[5.078279,47.29035],[5.07813,47.290491],[5.078077,47.290544],[5.077904,47.290657],[5.077818,47.29071],[5.077703,47.29078],[5.077446,47.291161],[5.077388,47.29119],[5.077122,47.29129],[5.076696,47.291445],[5.075992,47.29181],[5.075797,47.291912],[5.075689,47.29197],[5.075333,47.292161],[5.075261,47.292202],[5.074688,47.292553],[5.07465,47.292585],[5.074616,47.292599],[5.073862,47.293101],[5.073327,47.293454],[5.071843,47.294443],[5.071319,47.294784],[5.070869,47.295088],[5.070806,47.295146],[5.07001,47.29564],[5.069612,47.295915],[5.069537,47.295973],[5.069471,47.296038],[5.06906,47.296568],[5.068779,47.296974],[5.068731,47.29721],[5.068646,47.297238],[5.068593,47.297172],[5.068532,47.297205],[5.068048,47.297444],[5.067973,47.297481],[5.067774,47.29758],[5.066728,47.298095],[5.066706,47.298108],[5.0666,47.298184],[5.06556,47.298863],[5.065289,47.299041],[5.065235,47.299072],[5.064848,47.299291],[5.064642,47.299407],[5.064603,47.299434],[5.064598,47.299437],[5.064593,47.29944],[5.064453,47.299553],[5.064418,47.299582],[5.064172,47.299809],[5.063878,47.300089],[5.063479,47.300457],[5.063403,47.300528],[5.063385,47.300544],[5.063341,47.300579],[5.063144,47.300735],[5.063034,47.300828],[5.062838,47.300997],[5.062649,47.301146],[5.06263,47.301162],[5.062156,47.301024],[5.061798,47.300912],[5.061448,47.300802],[5.061257,47.300742],[5.061178,47.300717],[5.060743,47.300578],[5.060295,47.300435],[5.059697,47.300242],[5.059667,47.300232],[5.059527,47.300189],[5.059487,47.300177],[5.059207,47.30009],[5.059153,47.300073],[5.058766,47.299951],[5.058626,47.299907],[5.058622,47.299906],[5.058618,47.299905],[5.058579,47.299893],[5.058013,47.299718],[5.057759,47.299641],[5.057362,47.299526],[5.057022,47.299452],[5.056925,47.299431],[5.056541,47.299365],[5.056501,47.299358],[5.056111,47.299309],[5.055935,47.299043],[5.055896,47.29938],[5.055693,47.299385],[5.055671,47.2995],[5.055534,47.299931],[5.054943,47.301829],[5.054919,47.301902],[5.054845,47.301929],[5.054862,47.301951],[5.054549,47.302057],[5.053941,47.302307],[5.053737,47.3024],[5.053595,47.302464],[5.053356,47.302579],[5.052445,47.303038],[5.052347,47.303058],[5.05213,47.303134],[5.051828,47.303236],[5.051621,47.303301],[5.051156,47.303446],[5.05101,47.303491],[5.050102,47.303767],[5.049968,47.303799],[5.050291,47.302649],[5.050551,47.301739],[5.050569,47.301694],[5.050604,47.301623],[5.050646,47.301546],[5.050692,47.301473],[5.050782,47.301373],[5.051211,47.300913],[5.051259,47.300859],[5.051515,47.30058],[5.051786,47.300286],[5.051689,47.300225],[5.050179,47.299061],[5.049538,47.298567],[5.045947,47.295794],[5.045792,47.295676],[5.045767,47.295687],[5.044722,47.296315],[5.04424,47.296607],[5.043902,47.296812],[5.043773,47.296891],[5.043695,47.296938],[5.043693,47.296939],[5.043613,47.296999],[5.043508,47.297082],[5.043489,47.297095],[5.042971,47.297385],[5.042405,47.297694],[5.042128,47.297855],[5.041985,47.297941],[5.04198,47.297945],[5.041921,47.298009],[5.041865,47.298078],[5.041825,47.298134],[5.041721,47.298225],[5.041692,47.298251],[5.040378,47.299051],[5.040326,47.29908],[5.04029,47.299098],[5.040263,47.299078],[5.039547,47.298531],[5.039368,47.298393],[5.039131,47.298556],[5.038945,47.29868],[5.038705,47.29864],[5.038689,47.29864],[5.038446,47.298658],[5.038315,47.298639],[5.03831,47.29864],[5.038031,47.298592],[5.037412,47.298432],[5.037119,47.298342],[5.036983,47.298316],[5.036814,47.298283],[5.036765,47.298277],[5.036665,47.298265],[5.036572,47.298258],[5.036485,47.298269],[5.036453,47.298281],[5.036385,47.298307],[5.036346,47.298334],[5.036331,47.298385],[5.036325,47.298401],[5.036278,47.298471],[5.036265,47.29849],[5.036234,47.298562],[5.036245,47.298594],[5.036277,47.298679],[5.036292,47.298727],[5.0363,47.298756],[5.036315,47.29884],[5.036334,47.298972],[5.036294,47.299069],[5.036214,47.299166],[5.03564,47.299085],[5.03553,47.299068],[5.035265,47.299022],[5.035196,47.299],[5.034995,47.298934],[5.034954,47.298918],[5.034811,47.298861],[5.034533,47.298733],[5.034516,47.298723],[5.034495,47.298711],[5.034446,47.298682],[5.034417,47.298666],[5.033956,47.298397],[5.033726,47.298267],[5.033713,47.29826],[5.033687,47.298252],[5.033429,47.298177],[5.033169,47.298126],[5.032374,47.297969],[5.031748,47.297887],[5.031405,47.297842],[5.031366,47.297835],[5.031162,47.297799],[5.031139,47.297795],[5.031007,47.297757],[5.030824,47.297703],[5.029338,47.297079],[5.029094,47.296959],[5.028708,47.296768],[5.028569,47.296704],[5.027624,47.29752],[5.027605,47.297534],[5.027548,47.297579],[5.027427,47.297674],[5.026874,47.298102],[5.026832,47.298134],[5.026773,47.298181],[5.026671,47.298261],[5.026634,47.29829],[5.026605,47.298314],[5.026543,47.298371],[5.026379,47.298523],[5.026304,47.298584],[5.026217,47.298655],[5.025738,47.299047],[5.025672,47.299126],[5.02562,47.299187],[5.025501,47.299329],[5.025517,47.299358],[5.025471,47.299332],[5.02545,47.299245],[5.025401,47.299059],[5.025298,47.298637],[5.025143,47.29804],[5.025115,47.29793],[5.024889,47.297055],[5.02486,47.296946],[5.024719,47.296397],[5.024683,47.296255],[5.024653,47.29628],[5.024609,47.296316],[5.024591,47.29633],[5.024517,47.296392],[5.024506,47.2964],[5.024435,47.296458],[5.024265,47.296598],[5.024261,47.296601],[5.024173,47.296673],[5.024165,47.29668],[5.024061,47.296765],[5.023938,47.296859],[5.023883,47.296904],[5.02363,47.29711],[5.023447,47.297258],[5.023233,47.297425],[5.023104,47.297541],[5.02292,47.297697],[5.022921,47.297701],[5.022879,47.297725],[5.022603,47.297959],[5.022262,47.298171],[5.021919,47.298387],[5.021743,47.298501],[5.021397,47.29872],[5.021302,47.298762],[5.021127,47.298836],[5.020975,47.298901],[5.020822,47.298965],[5.020856,47.299004],[5.020977,47.299142],[5.021163,47.299353],[5.02118,47.299373],[5.021175,47.299374],[5.021193,47.299394],[5.021206,47.299409],[5.021373,47.299596],[5.02124,47.299647],[5.021639,47.300131],[5.021825,47.300238],[5.022083,47.300506],[5.022153,47.300579],[5.02218,47.300608],[5.022323,47.300758],[5.022467,47.30091],[5.022499,47.300944],[5.022518,47.300964],[5.02254,47.300987],[5.022567,47.301015],[5.022612,47.301062],[5.022712,47.301167],[5.02291,47.301373],[5.023058,47.301527],[5.023077,47.301547],[5.023078,47.301549],[5.022786,47.3018],[5.022498,47.301893],[5.0218,47.302118],[5.021768,47.302065],[5.021747,47.30203],[5.02166,47.301872],[5.02165,47.301856],[5.021532,47.301646],[5.021472,47.301539],[5.021354,47.301329],[5.021301,47.301236],[5.021245,47.301137],[5.021187,47.301034],[5.021069,47.300824],[5.021012,47.300724],[5.020953,47.300622],[5.02092,47.300568],[5.020755,47.300275],[5.02074,47.300249],[5.020701,47.300176],[5.020667,47.300115],[5.020638,47.300063],[5.020617,47.300025],[5.020588,47.299974],[5.020546,47.2999],[5.020523,47.29986],[5.020447,47.299723],[5.020422,47.29968],[5.020363,47.299575],[5.020038,47.299659],[5.019995,47.29967],[5.019966,47.299679],[5.019865,47.299706],[5.019888,47.299742],[5.019567,47.299853],[5.019508,47.299874],[5.019308,47.299938],[5.019224,47.299842],[5.019066,47.299906],[5.019017,47.299926],[5.018938,47.299948],[5.018735,47.300002],[5.018664,47.300022],[5.018658,47.300025],[5.018506,47.300102],[5.018339,47.300165],[5.018339,47.300166],[5.018173,47.300244],[5.018085,47.300287],[5.017986,47.300314],[5.017977,47.300319],[5.017731,47.300443],[5.017704,47.300419],[5.017172,47.300701],[5.017101,47.300747],[5.017679,47.301224],[5.017612,47.30125],[5.017164,47.301398],[5.017163,47.301399],[5.017068,47.301432],[5.016961,47.30147],[5.016858,47.301506],[5.016754,47.301542],[5.016629,47.301585],[5.016484,47.301634],[5.01646,47.301642],[5.016255,47.301708],[5.016226,47.301717],[5.016195,47.301729],[5.015789,47.301835],[5.015762,47.301843],[5.015331,47.301918],[5.015293,47.301924],[5.015276,47.301925],[5.01526,47.301927],[5.013884,47.302112],[5.0134,47.302176],[5.01256,47.302287],[5.01236,47.302314],[5.012185,47.302337],[5.01197,47.302366],[5.0118,47.302388],[5.011625,47.302411],[5.011421,47.302438],[5.011246,47.302461],[5.011068,47.302485],[5.010896,47.302507],[5.010694,47.302534],[5.010517,47.302558],[5.010319,47.302584],[5.010138,47.302603],[5.009518,47.302691],[5.009459,47.302632],[5.009276,47.302651],[5.008587,47.301864],[5.008462,47.301914],[5.008154,47.302002],[5.007933,47.302057],[5.007782,47.302096],[5.007467,47.302175],[5.007017,47.302296],[5.006961,47.30204],[5.006838,47.301976],[5.006755,47.301932],[5.006645,47.301874],[5.00671,47.30184],[5.006802,47.301792],[5.006923,47.301728],[5.006807,47.30163],[5.00677,47.301599],[5.006698,47.301538],[5.006679,47.301476],[5.006624,47.301426],[5.006517,47.301332],[5.006408,47.301235],[5.006293,47.301133],[5.006186,47.301039],[5.006068,47.300933],[5.005961,47.300838],[5.00586,47.300748],[5.005745,47.300647],[5.00574,47.300642],[5.005647,47.300558],[5.005554,47.300475],[5.005457,47.300388],[5.005377,47.300316],[5.005114,47.300082],[5.004986,47.299964],[5.00494,47.299919],[5.004812,47.299796],[5.004763,47.299749],[5.004706,47.299692],[5.004614,47.299603],[5.00461,47.299601],[5.003117,47.299897],[5.002161,47.300043],[5.001815,47.30009],[5.001798,47.300092],[5.001709,47.300105],[5.001265,47.300186],[5.001252,47.300188],[5.001197,47.300199],[5.001123,47.300215],[5.000905,47.30026],[5.000678,47.300307],[5.000654,47.300312],[5.000443,47.300355],[5.000323,47.300379],[5.00031,47.300381],[4.994263,47.301374],[4.993817,47.301392],[4.993769,47.301399],[4.993666,47.301404],[4.992012,47.301503],[4.991789,47.301516],[4.991541,47.301526],[4.991447,47.30153],[4.990568,47.301567],[4.990437,47.301573],[4.990302,47.301578],[4.990254,47.30158],[4.990141,47.301584],[4.990089,47.301586],[4.989505,47.30161],[4.98945,47.301612],[4.989216,47.301621],[4.989166,47.301623],[4.988923,47.301633],[4.988875,47.301635],[4.988022,47.30167],[4.987441,47.301693],[4.987397,47.301694],[4.987343,47.301696],[4.987125,47.301712],[4.986801,47.301735],[4.986343,47.301769],[4.986279,47.301773],[4.986223,47.301777],[4.985839,47.301805],[4.985837,47.301806],[4.985297,47.301852],[4.985259,47.301855],[4.984849,47.30189],[4.984379,47.301931],[4.983967,47.301966],[4.98337,47.302017],[4.982825,47.302064],[4.981918,47.302141],[4.981881,47.302145],[4.981833,47.302168],[4.981769,47.302201],[4.981483,47.302356],[4.980565,47.302853],[4.980505,47.30288],[4.97994,47.30319],[4.979934,47.303193],[4.979346,47.303508],[4.978612,47.303906],[4.977973,47.304253],[4.977881,47.304306],[4.977755,47.304372],[4.976734,47.304942],[4.976723,47.304948],[4.972455,47.307317],[4.972382,47.307358],[4.972377,47.30736],[4.971831,47.307663],[4.971538,47.307825],[4.971192,47.308016],[4.971072,47.308156],[4.970843,47.308424],[4.969086,47.31048],[4.968959,47.310629],[4.968642,47.311009],[4.96857,47.311087],[4.967889,47.311876],[4.967862,47.311912],[4.967654,47.312164],[4.967539,47.314071],[4.967455,47.31545],[4.967451,47.315521],[4.967444,47.315638],[4.967432,47.315845],[4.967408,47.31624],[4.970213,47.317898],[4.97044,47.318032],[4.970484,47.318058],[4.970531,47.318086],[4.970623,47.31814],[4.970736,47.318207],[4.971227,47.318497],[4.971638,47.31874],[4.971658,47.318756],[4.97192,47.318973],[4.97195,47.318999],[4.973294,47.320115],[4.97318,47.320117],[4.973109,47.320114],[4.972933,47.320096],[4.972927,47.320086],[4.972724,47.320063],[4.972723,47.320074],[4.972039,47.320003],[4.970941,47.31991],[4.970322,47.319804],[4.970249,47.319932],[4.969836,47.320651],[4.969991,47.320679],[4.969919,47.320804],[4.969749,47.320766],[4.969628,47.321001],[4.969433,47.320973],[4.969416,47.321006],[4.969378,47.321084],[4.969358,47.321124],[4.969259,47.321325],[4.96776,47.321124],[4.967046,47.321028],[4.967045,47.321028],[4.966807,47.321005],[4.966569,47.320988],[4.966559,47.320987],[4.965973,47.320954],[4.965827,47.320948],[4.9655,47.320936],[4.965371,47.320957],[4.965203,47.320983],[4.96506,47.321006],[4.964949,47.321024],[4.964922,47.321028],[4.96481,47.321039],[4.964641,47.321056],[4.964479,47.321072],[4.964478,47.321072],[4.964331,47.321081],[4.963917,47.321107],[4.963957,47.32126],[4.963626,47.321234],[4.963548,47.321228],[4.963241,47.32246],[4.963392,47.322478],[4.963335,47.322868],[4.962731,47.322697],[4.962863,47.323248],[4.963062,47.323988],[4.963062,47.32399],[4.963111,47.324165],[4.96332,47.324892],[4.963142,47.324901],[4.962892,47.32491],[4.962612,47.324922],[4.962578,47.324924],[4.962443,47.324935],[4.962447,47.324945],[4.962457,47.324982],[4.962567,47.325579],[4.963491,47.325454],[4.963496,47.325454],[4.963687,47.325479],[4.963776,47.325598],[4.963776,47.325599],[4.963821,47.325682],[4.963883,47.325855],[4.963884,47.325857],[4.963944,47.326026],[4.964027,47.326058],[4.964319,47.326175],[4.964803,47.326368],[4.964835,47.326381],[4.964969,47.326435],[4.96515,47.326508],[4.965296,47.326567],[4.965453,47.326631],[4.965454,47.326631],[4.965572,47.32667],[4.966132,47.326852],[4.966249,47.32689],[4.966375,47.326931],[4.966462,47.32696],[4.966476,47.326964],[4.966326,47.327178],[4.967085,47.3273],[4.967547,47.327279],[4.96755,47.327279],[4.96784,47.327236],[4.967919,47.327459],[4.967953,47.327555],[4.968001,47.32769],[4.968159,47.327681],[4.968373,47.327668],[4.968607,47.327653],[4.968893,47.327612]]]]}}]}
