{"type":"FeatureCollection","features":[{"type":"Feature","id":"inao-denom-371","properties":{"id":"inao-denom-371","name":"Bourgogne La Chapelle Notre-Dame","tier":"regional","kind":"appellation","appellationId":138,"denominationId":371,"sourceName":"Bourgogne La Chapelle Notre-Dame","communes":["21606"],"areaHa":4.45},"geometry":{"type":"MultiPolygon","coordinates":[[[[4.873242,47.066941],[4.873188,47.066889],[4.873035,47.066749],[4.872889,47.066615],[4.8727,47.066449],[4.872487,47.06625],[4.872354,47.066125],[4.872336,47.066108],[4.872301,47.066074],[4.872261,47.066035],[4.872207,47.065983],[4.87208,47.065856],[4.872017,47.065792],[4.871961,47.065735],[4.87191,47.065685],[4.871675,47.065786],[4.871513,47.065856],[4.871451,47.065882],[4.871314,47.065942],[4.871012,47.066075],[4.870783,47.066178],[4.870444,47.066331],[4.870188,47.066456],[4.870256,47.066506],[4.870316,47.066549],[4.870337,47.066566],[4.869936,47.066761],[4.870145,47.066972],[4.870358,47.067181],[4.870476,47.067299],[4.870595,47.067417],[4.870712,47.067532],[4.870755,47.067581],[4.870998,47.067507],[4.871263,47.067438],[4.871551,47.067377],[4.871618,47.067368],[4.871667,47.067366],[4.871793,47.067355],[4.871987,47.067341],[4.872558,47.067297],[4.87338,47.067087],[4.873242,47.066941]]],[[[4.872991,47.069579],[4.87292,47.069489],[4.872874,47.069429],[4.872728,47.069239],[4.872628,47.069108],[4.872578,47.069046],[4.872846,47.068956],[4.872803,47.068883],[4.872654,47.068638],[4.872459,47.068316],[4.872571,47.06828],[4.872521,47.068231],[4.872459,47.068164],[4.872138,47.067872],[4.871991,47.067828],[4.871958,47.0678],[4.871911,47.06774],[4.871906,47.067705],[4.871857,47.067405],[4.871482,47.067462],[4.871286,47.067491],[4.871164,47.067517],[4.870793,47.067625],[4.87102,47.067854],[4.87116,47.067996],[4.871313,47.068148],[4.871516,47.068355],[4.8718,47.068639],[4.87208,47.068924],[4.872192,47.06904],[4.872553,47.069412],[4.872712,47.069572],[4.872867,47.069734],[4.872888,47.069758],[4.872939,47.069738],[4.873073,47.069687],[4.872991,47.069579]]]]}},{"type":"Feature","id":"commune-21606","properties":{"id":"commune-21606","name":"Ladoix-Serrigny","kind":"commune","tier":"commune"},"geometry":{"type":"MultiPolygon","coordinates":[[[[4.895465,47.04097],[4.895423,47.041034],[4.895398,47.041072],[4.895134,47.04128],[4.895062,47.041471],[4.895113,47.041557],[4.895105,47.041728],[4.895057,47.041827],[4.89504,47.042006],[4.895013,47.042186],[4.894982,47.042332],[4.894857,47.042582],[4.894732,47.042713],[4.89454,47.042936],[4.894328,47.043115],[4.894173,47.043209],[4.894095,47.043245],[4.894008,47.043246],[4.893835,47.043421],[4.893654,47.043592],[4.893463,47.043758],[4.893369,47.043835],[4.893145,47.044026],[4.89297,47.044152],[4.892803,47.044284],[4.892655,47.044411],[4.892471,47.044586],[4.891938,47.045056],[4.891753,47.045234],[4.891628,47.045354],[4.891591,47.04539],[4.891475,47.045502],[4.891376,47.045596],[4.891246,47.045731],[4.890732,47.046268],[4.890652,47.046348],[4.890006,47.046885],[4.888841,47.047503],[4.88794,47.047988],[4.887043,47.048714],[4.886152,47.049745],[4.884858,47.051239],[4.884854,47.051775],[4.884873,47.051814],[4.885109,47.052134],[4.885308,47.052305],[4.885287,47.052322],[4.884874,47.052622],[4.884494,47.052801],[4.884481,47.052857],[4.883977,47.052679],[4.88385,47.052785],[4.88365,47.052952],[4.883334,47.053218],[4.883081,47.053431],[4.882752,47.053712],[4.882728,47.053706],[4.882473,47.053903],[4.882757,47.054015],[4.882338,47.05457],[4.882006,47.054846],[4.881984,47.054878],[4.881933,47.054925],[4.881879,47.054975],[4.881804,47.055046],[4.881214,47.05554],[4.880908,47.055721],[4.880717,47.055817],[4.880409,47.055971],[4.880274,47.056105],[4.880264,47.056216],[4.880137,47.056416],[4.880019,47.056617],[4.879911,47.056817],[4.8795,47.057229],[4.879246,47.057461],[4.879188,47.057414],[4.879156,47.057439],[4.879138,47.057454],[4.878166,47.058234],[4.877874,47.058368],[4.877588,47.058508],[4.877393,47.058607],[4.877084,47.058866],[4.87664,47.059093],[4.876473,47.059137],[4.876083,47.059144],[4.87539,47.059185],[4.874696,47.059219],[4.874453,47.05923],[4.874225,47.059206],[4.873705,47.059762],[4.872782,47.060143],[4.872063,47.060435],[4.870415,47.061049],[4.870733,47.061485],[4.870747,47.061505],[4.869895,47.061794],[4.869898,47.061813],[4.869944,47.061923],[4.870261,47.062338],[4.869327,47.062586],[4.86928,47.062598],[4.869218,47.062614],[4.869163,47.062629],[4.869089,47.062648],[4.868107,47.062889],[4.867924,47.062935],[4.867898,47.062941],[4.867447,47.063067],[4.866837,47.063243],[4.866601,47.06331],[4.866444,47.063368],[4.86799,47.064881],[4.869453,47.066455],[4.870665,47.06763],[4.871636,47.068607],[4.872871,47.069874],[4.873245,47.070245],[4.873663,47.070673],[4.873699,47.070695],[4.873706,47.070705],[4.874177,47.071195],[4.874091,47.071235],[4.87402,47.071269],[4.873964,47.071282],[4.873743,47.071308],[4.873377,47.071333],[4.872935,47.071339],[4.872465,47.071311],[4.872463,47.071342],[4.872534,47.071425],[4.872575,47.071468],[4.872677,47.071553],[4.872777,47.071636],[4.872873,47.071717],[4.872939,47.071771],[4.873038,47.071855],[4.873106,47.071922],[4.873194,47.07201],[4.873247,47.072064],[4.873326,47.072155],[4.873414,47.072256],[4.873423,47.072256],[4.87341,47.072262],[4.873487,47.072352],[4.8735,47.072346],[4.873511,47.072361],[4.873547,47.072413],[4.873588,47.072463],[4.873662,47.072523],[4.873747,47.072597],[4.87383,47.072673],[4.874046,47.072941],[4.874349,47.073155],[4.874372,47.073151],[4.874735,47.072968],[4.874745,47.072968],[4.874755,47.072967],[4.874756,47.072977],[4.874792,47.072978],[4.874794,47.072968],[4.875147,47.072982],[4.875311,47.073139],[4.87573,47.07295],[4.87574,47.072946],[4.875895,47.073308],[4.875394,47.073549],[4.87492,47.073796],[4.874551,47.073977],[4.874151,47.073963],[4.873877,47.074028],[4.873499,47.074135],[4.873248,47.074251],[4.873061,47.07436],[4.87281,47.074535],[4.872821,47.074587],[4.872797,47.074578],[4.872775,47.074603],[4.872699,47.074648],[4.872548,47.074735],[4.872402,47.074819],[4.872258,47.074904],[4.872124,47.074975],[4.87196,47.075049],[4.871734,47.075137],[4.871511,47.075223],[4.871427,47.075261],[4.871349,47.075308],[4.871248,47.075372],[4.871151,47.075442],[4.871051,47.075531],[4.870971,47.075605],[4.870882,47.075673],[4.870784,47.075749],[4.870751,47.075791],[4.87069,47.075904],[4.870677,47.075943],[4.870672,47.075972],[4.870671,47.076036],[4.870696,47.07609],[4.870744,47.076176],[4.870796,47.076263],[4.870835,47.076318],[4.870877,47.076355],[4.87095,47.0764],[4.871065,47.076471],[4.871102,47.076499],[4.871124,47.076524],[4.87115,47.076573],[4.871146,47.07661],[4.871137,47.076618],[4.87106,47.076704],[4.870962,47.076784],[4.870875,47.076843],[4.870761,47.07692],[4.870627,47.076995],[4.870428,47.077069],[4.870367,47.077104],[4.870327,47.077134],[4.870285,47.077173],[4.870263,47.077196],[4.870187,47.077308],[4.870158,47.077356],[4.870112,47.077436],[4.87007,47.077513],[4.870027,47.077588],[4.869986,47.077664],[4.869944,47.077742],[4.869913,47.077828],[4.869882,47.077903],[4.869803,47.078092],[4.869781,47.078145],[4.869753,47.078217],[4.869724,47.0783],[4.869697,47.078384],[4.869664,47.078504],[4.869644,47.078583],[4.869625,47.078658],[4.869588,47.078755],[4.86956,47.078836],[4.869532,47.078917],[4.869504,47.078993],[4.869478,47.079073],[4.869458,47.079151],[4.869443,47.079233],[4.869427,47.079312],[4.869406,47.079417],[4.869365,47.079459],[4.869349,47.079498],[4.869313,47.079531],[4.869171,47.079658],[4.869106,47.079719],[4.869084,47.079734],[4.86901,47.079733],[4.868796,47.079715],[4.868797,47.079746],[4.868802,47.079751],[4.868759,47.07975],[4.868621,47.079766],[4.868622,47.079777],[4.868709,47.080194],[4.868709,47.080549],[4.86861,47.080593],[4.868501,47.080797],[4.868568,47.08105],[4.868572,47.081126],[4.868587,47.081432],[4.869027,47.081421],[4.869043,47.081423],[4.868994,47.081564],[4.868957,47.081786],[4.868894,47.081862],[4.868851,47.081894],[4.868783,47.081982],[4.868736,47.082055],[4.868685,47.082126],[4.868666,47.08215],[4.868296,47.082447],[4.868223,47.082512],[4.868233,47.082515],[4.868343,47.082594],[4.868419,47.082647],[4.868472,47.082683],[4.868673,47.082821],[4.868794,47.082911],[4.869034,47.082775],[4.86908,47.082833],[4.869106,47.08287],[4.869176,47.082964],[4.86926,47.08307],[4.869292,47.083093],[4.869478,47.08322],[4.869502,47.083234],[4.869989,47.08353],[4.870007,47.083543],[4.870163,47.083649],[4.870201,47.083675],[4.870639,47.083978],[4.870811,47.084094],[4.87112,47.084308],[4.87113,47.084316],[4.871449,47.084611],[4.871519,47.084675],[4.871679,47.084825],[4.871704,47.084845],[4.871727,47.084866],[4.871738,47.084877],[4.871747,47.084888],[4.871796,47.084961],[4.871915,47.085139],[4.871961,47.085206],[4.87167,47.085298],[4.87171,47.085357],[4.871752,47.085415],[4.871768,47.085437],[4.871787,47.08547],[4.87181,47.085507],[4.871867,47.085596],[4.871938,47.085713],[4.871951,47.085727],[4.871982,47.085765],[4.872101,47.085916],[4.872447,47.08585],[4.872651,47.08581],[4.87272,47.08598],[4.872811,47.086194],[4.872986,47.086165],[4.873526,47.086078],[4.873676,47.086054],[4.87374,47.08615],[4.873757,47.086175],[4.873781,47.086211],[4.873821,47.086256],[4.873885,47.08632],[4.873944,47.086377],[4.87402,47.086453],[4.874064,47.086508],[4.874119,47.086577],[4.87415,47.086616],[4.874197,47.0867],[4.874203,47.08673],[4.874207,47.086763],[4.874198,47.086797],[4.874189,47.086831],[4.874228,47.086837],[4.874457,47.086871],[4.874623,47.086895],[4.874827,47.086925],[4.875155,47.08696],[4.875172,47.086962],[4.875474,47.086994],[4.875704,47.087013],[4.875965,47.087035],[4.876004,47.087039],[4.876277,47.087074],[4.876557,47.08711],[4.876805,47.087141],[4.877102,47.087149],[4.87734,47.087155],[4.877458,47.087159],[4.87759,47.087173],[4.877723,47.087187],[4.877724,47.087187],[4.87776,47.087088],[4.877772,47.087055],[4.877798,47.086986],[4.877821,47.086924],[4.877842,47.086867],[4.87787,47.086812],[4.877879,47.086795],[4.87789,47.086773],[4.877929,47.08679],[4.878085,47.086633],[4.878114,47.086604],[4.87819,47.086527],[4.878265,47.086452],[4.878365,47.086352],[4.878786,47.08597],[4.879036,47.085743],[4.87908,47.085701],[4.879873,47.084936],[4.879934,47.084887],[4.880136,47.084727],[4.880195,47.08468],[4.880346,47.084559],[4.880529,47.084414],[4.880793,47.084146],[4.880735,47.084084],[4.880713,47.084061],[4.88105,47.08394],[4.881094,47.083932],[4.881125,47.084017],[4.881205,47.084018],[4.881405,47.084022],[4.881486,47.084024],[4.88151,47.084091],[4.881523,47.084128],[4.88154,47.084177],[4.881538,47.084329],[4.881768,47.084336],[4.881742,47.084423],[4.881686,47.084712],[4.881674,47.084773],[4.881671,47.084792],[4.881594,47.084806],[4.881594,47.084812],[4.881596,47.084871],[4.881593,47.08493],[4.881616,47.084982],[4.881626,47.085036],[4.881645,47.085127],[4.881669,47.085218],[4.881671,47.085503],[4.881665,47.085541],[4.88165,47.085608],[4.881632,47.085673],[4.881589,47.085755],[4.881589,47.085813],[4.88159,47.085896],[4.881584,47.085914],[4.881586,47.086083],[4.881589,47.086267],[4.881587,47.086372],[4.881533,47.086587],[4.881517,47.086703],[4.881545,47.086792],[4.881617,47.086937],[4.881726,47.087155],[4.881834,47.087371],[4.881947,47.087599],[4.881988,47.087682],[4.881957,47.087799],[4.882071,47.088157],[4.882077,47.088345],[4.882189,47.08852],[4.882286,47.088778],[4.882318,47.088892],[4.882375,47.088977],[4.882346,47.089122],[4.882323,47.089231],[4.882254,47.089281],[4.882112,47.089382],[4.881902,47.089532],[4.881855,47.089639],[4.881845,47.089663],[4.881835,47.089786],[4.881835,47.089792],[4.881828,47.089891],[4.88182,47.089997],[4.881959,47.090254],[4.882173,47.090264],[4.884043,47.090346],[4.885452,47.090422],[4.886656,47.090493],[4.886806,47.090501],[4.887461,47.090534],[4.887511,47.090537],[4.887677,47.090549],[4.887844,47.090556],[4.88801,47.090556],[4.888166,47.09055],[4.888234,47.09056],[4.888391,47.090584],[4.888695,47.090611],[4.888778,47.09062],[4.888907,47.090634],[4.888997,47.090644],[4.889044,47.090649],[4.88911,47.090669],[4.889128,47.090665],[4.889197,47.090651],[4.889342,47.090649],[4.889486,47.090641],[4.889517,47.090638],[4.889721,47.090617],[4.889771,47.090616],[4.890035,47.090613],[4.890129,47.0906],[4.890225,47.090593],[4.890252,47.090592],[4.890405,47.090569],[4.890672,47.090529],[4.890875,47.090522],[4.891078,47.090521],[4.891207,47.090525],[4.89128,47.090527],[4.891368,47.090531],[4.891369,47.090638],[4.89137,47.090719],[4.891367,47.090791],[4.891362,47.090905],[4.89136,47.09096],[4.891355,47.091066],[4.891324,47.091228],[4.891327,47.091312],[4.891333,47.091461],[4.891336,47.09154],[4.89137,47.091594],[4.891396,47.09165],[4.891408,47.091689],[4.891414,47.091707],[4.891415,47.091715],[4.891507,47.091826],[4.891556,47.091885],[4.891599,47.091937],[4.89163,47.091998],[4.891647,47.092031],[4.891703,47.092122],[4.891751,47.092188],[4.891768,47.092211],[4.89177,47.092214],[4.891818,47.092221],[4.891852,47.092226],[4.891924,47.092236],[4.892075,47.092264],[4.892179,47.092286],[4.892197,47.092265],[4.892382,47.092309],[4.892375,47.09233],[4.892376,47.092331],[4.89245,47.09235],[4.892482,47.092359],[4.892606,47.092391],[4.892782,47.092405],[4.893062,47.092482],[4.89321,47.092475],[4.8933,47.092553],[4.893454,47.092719],[4.893626,47.092952],[4.893827,47.093335],[4.893862,47.093321],[4.893899,47.093313],[4.893921,47.093311],[4.894016,47.093273],[4.8941,47.093366],[4.894317,47.093597],[4.894362,47.093598],[4.894651,47.093445],[4.895096,47.093203],[4.895192,47.093169],[4.895211,47.093133],[4.895396,47.092916],[4.895607,47.09266],[4.895805,47.092427],[4.895893,47.09217],[4.895881,47.091971],[4.895868,47.091818],[4.895784,47.091657],[4.895769,47.091624],[4.895829,47.091562],[4.896063,47.09139],[4.896384,47.091227],[4.896625,47.091102],[4.896871,47.09093],[4.897088,47.090769],[4.897149,47.090671],[4.897185,47.090514],[4.897204,47.090465],[4.897331,47.090311],[4.897457,47.090191],[4.897592,47.090055],[4.897738,47.089912],[4.897935,47.089752],[4.898143,47.089578],[4.898431,47.089342],[4.8987,47.089119],[4.898732,47.089076],[4.898774,47.089015],[4.898939,47.088883],[4.899172,47.088722],[4.899214,47.08871],[4.89978,47.088381],[4.899507,47.088188],[4.899265,47.087936],[4.899328,47.087881],[4.899267,47.087795],[4.898623,47.087235],[4.8982,47.086843],[4.898018,47.086703],[4.897684,47.086408],[4.897393,47.086217],[4.897438,47.086144],[4.897332,47.086088],[4.897102,47.085963],[4.896953,47.085851],[4.896589,47.085624],[4.896244,47.085409],[4.896195,47.08535],[4.89615,47.085352],[4.895862,47.085168],[4.897272,47.083899],[4.897677,47.083533],[4.897754,47.083453],[4.897831,47.083396],[4.898981,47.082407],[4.899483,47.08199],[4.900791,47.080931],[4.900994,47.080766],[4.901003,47.080736],[4.901264,47.080851],[4.901293,47.080821],[4.902504,47.079985],[4.902412,47.079919],[4.90236,47.079881],[4.902119,47.079707],[4.902282,47.079588],[4.902344,47.079544],[4.90242,47.079489],[4.903097,47.079],[4.903761,47.078511],[4.903848,47.078443],[4.903862,47.078414],[4.902859,47.077842],[4.902415,47.077586],[4.903316,47.076993],[4.903422,47.076922],[4.903625,47.076792],[4.903835,47.076667],[4.903862,47.07665],[4.903993,47.076573],[4.904129,47.076502],[4.904889,47.076117],[4.905009,47.076281],[4.90519,47.076515],[4.905392,47.076748],[4.905561,47.076949],[4.905583,47.07698],[4.905728,47.077176],[4.905881,47.077369],[4.906206,47.077716],[4.906225,47.077736],[4.90629,47.077804],[4.906459,47.077967],[4.906722,47.078229],[4.906978,47.078494],[4.907004,47.078521],[4.907103,47.078621],[4.90848,47.077971],[4.908427,47.077852],[4.90834,47.077649],[4.908296,47.077542],[4.908578,47.077395],[4.908755,47.077357],[4.909288,47.077099],[4.909307,47.077086],[4.909469,47.077005],[4.909654,47.07692],[4.909717,47.076888],[4.909844,47.076828],[4.909878,47.076813],[4.909995,47.076757],[4.91005,47.076733],[4.910121,47.076704],[4.910128,47.076705],[4.910154,47.076705],[4.910179,47.0767],[4.9102,47.076689],[4.910236,47.076673],[4.910623,47.076434],[4.911047,47.076222],[4.911358,47.076065],[4.911415,47.076042],[4.91203,47.075813],[4.912547,47.075716],[4.913186,47.07562],[4.913896,47.075512],[4.914067,47.075491],[4.914094,47.075489],[4.914221,47.075484],[4.914347,47.075485],[4.914473,47.075491],[4.914536,47.07549],[4.914722,47.075482],[4.914907,47.075468],[4.915066,47.075424],[4.916421,47.074975],[4.916437,47.074986],[4.917042,47.074796],[4.917779,47.075276],[4.917934,47.075307],[4.91863,47.075412],[4.918776,47.075441],[4.918954,47.07548],[4.919194,47.075538],[4.919431,47.075602],[4.919665,47.075671],[4.919987,47.075739],[4.920269,47.075798],[4.920327,47.075795],[4.920798,47.075769],[4.921447,47.075735],[4.921496,47.075731],[4.921566,47.075714],[4.922222,47.07578],[4.922843,47.075858],[4.923001,47.075927],[4.92319,47.076081],[4.923315,47.076],[4.923532,47.075869],[4.923718,47.075974],[4.924066,47.075859],[4.924445,47.075772],[4.924527,47.075743],[4.924739,47.075681],[4.92557,47.075511],[4.925795,47.075485],[4.926926,47.075262],[4.928776,47.074688],[4.929568,47.07448],[4.930695,47.074315],[4.930904,47.074286],[4.931441,47.074214],[4.931967,47.074158],[4.932252,47.074184],[4.932398,47.074258],[4.932844,47.074734],[4.933124,47.074867],[4.933489,47.07504],[4.934068,47.075847],[4.934176,47.076163],[4.934168,47.076407],[4.934489,47.076514],[4.935194,47.076198],[4.936017,47.075709],[4.936247,47.075578],[4.93626,47.075392],[4.936251,47.075207],[4.93622,47.075023],[4.936207,47.074971],[4.936273,47.074638],[4.936361,47.074308],[4.93643,47.074093],[4.936507,47.073927],[4.936755,47.073725],[4.937098,47.073455],[4.937404,47.073107],[4.937526,47.073007],[4.938083,47.072814],[4.938594,47.072568],[4.938784,47.072482],[4.938962,47.072384],[4.939062,47.072319],[4.939253,47.072263],[4.939685,47.072017],[4.940053,47.071866],[4.940525,47.071817],[4.940792,47.071795],[4.941055,47.071758],[4.941251,47.07172],[4.941467,47.07164],[4.941737,47.071434],[4.941808,47.07138],[4.941286,47.068043],[4.941342,47.068004],[4.942087,47.067921],[4.944196,47.067673],[4.945966,47.067475],[4.947364,47.067271],[4.94862,47.06714],[4.950566,47.066278],[4.952994,47.064815],[4.955277,47.064985],[4.95629,47.064996],[4.957402,47.064622],[4.95805,47.06431],[4.958686,47.063986],[4.958868,47.06389],[4.958938,47.063821],[4.959758,47.063357],[4.959929,47.063319],[4.962425,47.062046],[4.962545,47.062151],[4.963053,47.061847],[4.96326,47.061683],[4.963449,47.06151],[4.963554,47.061401],[4.964119,47.061116],[4.963965,47.060937],[4.963663,47.060673],[4.963378,47.060399],[4.9633,47.060319],[4.963138,47.06021],[4.963015,47.060081],[4.962911,47.059944],[4.962843,47.059832],[4.963166,47.059284],[4.963734,47.058627],[4.964413,47.057826],[4.964447,47.057584],[4.964495,47.057244],[4.964683,47.056801],[4.964576,47.0565],[4.963816,47.056139],[4.96369,47.056015],[4.963608,47.055789],[4.963052,47.055501],[4.962806,47.055371],[4.962632,47.055202],[4.962577,47.054984],[4.962605,47.054832],[4.96265,47.054568],[4.962419,47.054171],[4.962136,47.053955],[4.961632,47.053394],[4.961534,47.053282],[4.961222,47.053095],[4.961173,47.053066],[4.961109,47.053027],[4.960681,47.052758],[4.960583,47.052632],[4.96008,47.052391],[4.959745,47.052284],[4.959498,47.052251],[4.959129,47.052317],[4.958974,47.052411],[4.958805,47.052493],[4.958623,47.052561],[4.958612,47.052565],[4.958189,47.05264],[4.9581,47.052513],[4.958221,47.052307],[4.958305,47.051762],[4.957881,47.051184],[4.958107,47.050918],[4.958273,47.050805],[4.958422,47.050683],[4.9585,47.050608],[4.958532,47.050579],[4.958569,47.050545],[4.959082,47.05008],[4.960208,47.049518],[4.960502,47.04933],[4.960564,47.04927],[4.960825,47.04893],[4.961468,47.048541],[4.961829,47.04841],[4.961976,47.048302],[4.962207,47.048131],[4.961177,47.047371],[4.960801,47.047176],[4.960424,47.046981],[4.959886,47.046479],[4.958427,47.046266],[4.956497,47.045983],[4.953754,47.045581],[4.951422,47.045233],[4.950318,47.045059],[4.948022,47.044695],[4.946347,47.044455],[4.944388,47.04417],[4.94238,47.043875],[4.941474,47.043814],[4.940798,47.043764],[4.940259,47.043682],[4.940078,47.043647],[4.939432,47.043485],[4.93908,47.043425],[4.936996,47.043064],[4.935916,47.042907],[4.93338,47.042526],[4.930496,47.042105],[4.925211,47.041336],[4.923118,47.041028],[4.921329,47.040775],[4.92107,47.040776],[4.92079,47.040778],[4.91985,47.040786],[4.918911,47.040797],[4.917882,47.040804],[4.916375,47.040813],[4.915828,47.040813],[4.915013,47.040821],[4.91462,47.04082],[4.91354,47.040828],[4.9132,47.040829],[4.911917,47.040846],[4.91138,47.040847],[4.910548,47.040845],[4.91016,47.040849],[4.909228,47.040844],[4.908017,47.040825],[4.906464,47.040813],[4.906191,47.040821],[4.905501,47.040831],[4.904364,47.040851],[4.903226,47.040874],[4.902312,47.040898],[4.902078,47.040902],[4.90137,47.040911],[4.900661,47.040916],[4.899176,47.040936],[4.898262,47.040944],[4.896527,47.040922],[4.895486,47.040915],[4.895465,47.04097]]]]}}]}
