{"type":"FeatureCollection","features":[{"type":"Feature","id":"inao-denom-367","properties":{"id":"inao-denom-367","name":"Bourgogne Chitry","tier":"regional","kind":"appellation","appellationId":138,"denominationId":367,"sourceName":"Bourgogne Chitry","communes":["89108"],"areaHa":301.17},"geometry":{"type":"MultiPolygon","coordinates":[[[[3.700881,47.753413],[3.700778,47.753439],[3.700707,47.753355],[3.700734,47.753345],[3.700934,47.753306],[3.701256,47.753267],[3.701535,47.753232],[3.701775,47.753152],[3.701918,47.753104],[3.702005,47.753076],[3.702324,47.752895],[3.702297,47.752849],[3.702506,47.752756],[3.703054,47.752513],[3.703241,47.752393],[3.703638,47.752154],[3.703737,47.752204],[3.704013,47.752017],[3.704262,47.751778],[3.70435,47.751694],[3.704315,47.751656],[3.704388,47.751553],[3.704549,47.751329],[3.704722,47.751087],[3.704755,47.751041],[3.704682,47.75097],[3.704814,47.750845],[3.704974,47.750694],[3.705123,47.750589],[3.705422,47.750377],[3.705458,47.750395],[3.705535,47.750459],[3.705689,47.750399],[3.705591,47.750298],[3.705524,47.750236],[3.705725,47.750087],[3.705856,47.750138],[3.706057,47.750016],[3.706279,47.749877],[3.706212,47.749823],[3.706191,47.749821],[3.706135,47.74976],[3.705436,47.74969],[3.705199,47.749725],[3.704265,47.749892],[3.703704,47.750051],[3.702374,47.750557],[3.701954,47.750784],[3.701218,47.751366],[3.700751,47.751718],[3.70027,47.751556],[3.699685,47.751274],[3.699604,47.751248],[3.699609,47.751236],[3.699611,47.75123],[3.699623,47.7512],[3.699654,47.75112],[3.699688,47.751033],[3.699685,47.75103],[3.699684,47.751028],[3.699675,47.751015],[3.699646,47.750988],[3.69964,47.750982],[3.699254,47.750937],[3.698982,47.750905],[3.698871,47.750892],[3.698715,47.750888],[3.698164,47.750872],[3.697553,47.750912],[3.696889,47.750913],[3.696123,47.750883],[3.695618,47.750863],[3.69542,47.750855],[3.695047,47.75084],[3.694318,47.750811],[3.694152,47.750813],[3.693881,47.750816],[3.69315,47.750903],[3.692357,47.751148],[3.692177,47.751203],[3.691987,47.751238],[3.691609,47.751308],[3.691378,47.751351],[3.690651,47.751398],[3.690178,47.751429],[3.690062,47.751436],[3.689968,47.751443],[3.689714,47.751435],[3.689441,47.751427],[3.68894,47.751412],[3.688554,47.7514],[3.688174,47.751389],[3.688193,47.751964],[3.687843,47.751927],[3.687145,47.751823],[3.686686,47.751691],[3.686615,47.75167],[3.686399,47.751481],[3.686293,47.751389],[3.68619,47.75134],[3.68588,47.751225],[3.685727,47.751186],[3.68568,47.751248],[3.685428,47.751158],[3.685095,47.751028],[3.685175,47.750905],[3.684704,47.750807],[3.684377,47.750742],[3.684249,47.750668],[3.683894,47.75054],[3.683612,47.75115],[3.683589,47.7512],[3.683726,47.751241],[3.685179,47.752081],[3.685349,47.75218],[3.685476,47.752254],[3.686131,47.7527],[3.686146,47.752719],[3.685516,47.752626],[3.685541,47.752531],[3.685289,47.752452],[3.685311,47.752413],[3.685139,47.75235],[3.685067,47.752323],[3.684816,47.752231],[3.683601,47.751753],[3.683499,47.751848],[3.683582,47.751881],[3.683543,47.751928],[3.683295,47.752224],[3.683234,47.752297],[3.683026,47.75221],[3.682921,47.752402],[3.682893,47.752453],[3.682767,47.752643],[3.682096,47.75305],[3.681638,47.753301],[3.681419,47.753445],[3.681522,47.753571],[3.681327,47.753678],[3.681825,47.753983],[3.682116,47.754233],[3.682687,47.754586],[3.682795,47.754653],[3.683732,47.755228],[3.684376,47.755549],[3.684802,47.755811],[3.685223,47.75607],[3.685318,47.756066],[3.685381,47.756098],[3.685874,47.755722],[3.686356,47.755432],[3.686793,47.755633],[3.687043,47.755775],[3.687414,47.756044],[3.687607,47.756128],[3.687631,47.756138],[3.687864,47.756234],[3.688157,47.756356],[3.688766,47.755673],[3.689113,47.755826],[3.689717,47.756092],[3.689856,47.756153],[3.69008,47.75623],[3.690224,47.75628],[3.690306,47.756308],[3.690857,47.756472],[3.691097,47.756562],[3.691254,47.756621],[3.69153,47.756945],[3.691716,47.757094],[3.691877,47.757165],[3.691979,47.757188],[3.693014,47.757493],[3.693671,47.757687],[3.694109,47.757815],[3.694563,47.757948],[3.694722,47.75807],[3.694981,47.75827],[3.695168,47.758357],[3.695653,47.758499],[3.696816,47.758744],[3.69688,47.758758],[3.696927,47.758813],[3.696979,47.758674],[3.697171,47.758217],[3.697229,47.757916],[3.697233,47.757888],[3.69732,47.757903],[3.697527,47.757958],[3.697593,47.757695],[3.697858,47.757766],[3.698192,47.757855],[3.698417,47.757905],[3.698595,47.757605],[3.69904,47.756702],[3.699192,47.756741],[3.699873,47.755451],[3.699929,47.755394],[3.701145,47.753387],[3.701102,47.753364],[3.700987,47.753385],[3.700881,47.753413]]],[[[3.710663,47.758477],[3.710349,47.758392],[3.710081,47.758281],[3.710051,47.758269],[3.709887,47.758125],[3.709804,47.758053],[3.709681,47.757908],[3.70964,47.75786],[3.709605,47.757819],[3.709551,47.757601],[3.709512,47.757441],[3.709464,47.757248],[3.709608,47.756844],[3.709696,47.756596],[3.710405,47.755456],[3.709865,47.755255],[3.709508,47.755691],[3.708336,47.756396],[3.707626,47.756823],[3.707749,47.756885],[3.707465,47.757121],[3.707204,47.757386],[3.707019,47.757616],[3.706988,47.757721],[3.706974,47.757768],[3.706855,47.758175],[3.706766,47.758485],[3.706856,47.758481],[3.706829,47.758685],[3.706783,47.759026],[3.706607,47.759035],[3.706554,47.75922],[3.706482,47.75947],[3.706346,47.759931],[3.706607,47.759984],[3.706446,47.760487],[3.706244,47.760975],[3.706174,47.761217],[3.70615,47.761324],[3.706521,47.761416],[3.706591,47.76132],[3.706681,47.761192],[3.706855,47.760993],[3.707094,47.760814],[3.707381,47.760655],[3.708298,47.760275],[3.708545,47.760173],[3.708967,47.760056],[3.709817,47.759842],[3.710029,47.759791],[3.710136,47.759765],[3.710267,47.75971],[3.710645,47.759545],[3.71122,47.75921],[3.711699,47.758893],[3.711843,47.758776],[3.711973,47.758635],[3.711851,47.758679],[3.711416,47.758612],[3.710903,47.758533],[3.710824,47.758519],[3.710772,47.758505],[3.710663,47.758477]]],[[[3.703032,47.758791],[3.703347,47.75834],[3.703424,47.75823],[3.703618,47.757928],[3.703887,47.757512],[3.7038,47.757499],[3.702802,47.757347],[3.702589,47.757321],[3.702208,47.757277],[3.701784,47.757301],[3.700195,47.757604],[3.699986,47.75769],[3.699687,47.757835],[3.699497,47.757962],[3.69933,47.758129],[3.699177,47.758355],[3.69871,47.759027],[3.698606,47.759229],[3.698553,47.759403],[3.698542,47.759441],[3.698472,47.759921],[3.698723,47.759864],[3.700055,47.759558],[3.700714,47.759174],[3.700566,47.759055],[3.700562,47.758901],[3.700657,47.758612],[3.70112,47.758715],[3.701074,47.75883],[3.701232,47.758896],[3.701369,47.758945],[3.702019,47.75916],[3.70245,47.759303],[3.702511,47.759323],[3.702581,47.759353],[3.702848,47.759049],[3.702941,47.758921],[3.703032,47.758791]]],[[[3.673555,47.763145],[3.673352,47.763324],[3.673329,47.763344],[3.672882,47.763634],[3.672551,47.763815],[3.672494,47.763846],[3.672234,47.763951],[3.672111,47.764],[3.671967,47.764058],[3.671951,47.764063],[3.671426,47.764205],[3.671051,47.764294],[3.670425,47.764478],[3.669865,47.764586],[3.670004,47.765098],[3.670081,47.766495],[3.670629,47.766269],[3.672478,47.76569],[3.673227,47.765534],[3.673992,47.765334],[3.674134,47.765297],[3.674239,47.76527],[3.674281,47.765255],[3.674467,47.765189],[3.674626,47.765112],[3.674622,47.765182],[3.674604,47.765511],[3.674609,47.765695],[3.674906,47.76574],[3.674924,47.766034],[3.674816,47.766186],[3.674794,47.766257],[3.674763,47.766504],[3.674821,47.766523],[3.674646,47.766822],[3.675281,47.767039],[3.675811,47.767227],[3.676037,47.76686],[3.676185,47.766534],[3.676308,47.76631],[3.676508,47.765979],[3.676777,47.766063],[3.677128,47.765595],[3.677409,47.765366],[3.677926,47.765457],[3.678218,47.765027],[3.678314,47.764845],[3.678699,47.764115],[3.678791,47.763917],[3.679287,47.763773],[3.679621,47.763757],[3.679633,47.763699],[3.679633,47.763678],[3.679034,47.76171],[3.679171,47.761459],[3.679561,47.76074],[3.679879,47.760175],[3.679862,47.760102],[3.679702,47.759683],[3.679697,47.759655],[3.679793,47.759642],[3.67978,47.759425],[3.679771,47.75935],[3.679669,47.759154],[3.679632,47.759073],[3.679628,47.759009],[3.679637,47.758732],[3.67964,47.758667],[3.679595,47.758558],[3.679387,47.758172],[3.679244,47.757987],[3.678964,47.757709],[3.678871,47.757658],[3.678322,47.757539],[3.678268,47.757554],[3.678148,47.757744],[3.677807,47.757628],[3.677896,47.75748],[3.678063,47.757368],[3.678414,47.757233],[3.677985,47.757308],[3.677832,47.757361],[3.677709,47.757467],[3.677636,47.757558],[3.6773,47.758121],[3.677143,47.758304],[3.676918,47.758481],[3.676588,47.75867],[3.675846,47.759095],[3.675672,47.759275],[3.675598,47.759467],[3.675588,47.759494],[3.675557,47.759983],[3.675441,47.760388],[3.675248,47.76075],[3.675234,47.760776],[3.675205,47.760813],[3.675034,47.761039],[3.67492,47.761188],[3.674696,47.761482],[3.674501,47.761907],[3.674435,47.762049],[3.674395,47.762136],[3.674234,47.76236],[3.673799,47.762907],[3.6736,47.763101],[3.673555,47.763145]]],[[[3.707103,47.763556],[3.707374,47.763868],[3.707607,47.764058],[3.707772,47.764169],[3.709375,47.763773],[3.709407,47.763829],[3.711451,47.763478],[3.712622,47.763233],[3.712595,47.76317],[3.712988,47.763149],[3.712939,47.763092],[3.71316,47.763079],[3.713396,47.762954],[3.713565,47.762864],[3.71359,47.762852],[3.713809,47.762747],[3.714064,47.762629],[3.714413,47.762465],[3.715039,47.762172],[3.715092,47.762151],[3.716114,47.761737],[3.716205,47.7617],[3.716324,47.7617],[3.716451,47.761701],[3.716668,47.761702],[3.716799,47.761702],[3.718361,47.761707],[3.718468,47.761708],[3.719513,47.761711],[3.719684,47.761692],[3.720041,47.761651],[3.720279,47.761624],[3.720397,47.761601],[3.720227,47.761039],[3.720106,47.761051],[3.719864,47.761075],[3.719745,47.761087],[3.719505,47.761096],[3.719366,47.761101],[3.71897,47.76108],[3.718534,47.761019],[3.718363,47.760984],[3.717671,47.760843],[3.716804,47.760717],[3.716675,47.760713],[3.716457,47.760705],[3.71633,47.7607],[3.716113,47.760692],[3.715957,47.760687],[3.715129,47.76073],[3.714696,47.760702],[3.714397,47.760682],[3.714062,47.760697],[3.713957,47.760716],[3.713812,47.760742],[3.713719,47.76078],[3.713606,47.760826],[3.713463,47.760926],[3.713293,47.761059],[3.713181,47.761147],[3.712948,47.761288],[3.712936,47.761293],[3.712766,47.761356],[3.712577,47.761427],[3.712536,47.761442],[3.712235,47.76151],[3.712127,47.761518],[3.711828,47.76154],[3.711681,47.761536],[3.711338,47.761525],[3.711324,47.761524],[3.711075,47.761501],[3.710871,47.761483],[3.710574,47.761455],[3.70967,47.761431],[3.709471,47.761426],[3.709195,47.761458],[3.709169,47.76146],[3.708943,47.761529],[3.708747,47.761644],[3.708535,47.761846],[3.708441,47.761978],[3.708417,47.762012],[3.708395,47.762042],[3.708319,47.762149],[3.708186,47.762306],[3.708116,47.762389],[3.70807,47.76243],[3.707961,47.762527],[3.707856,47.76262],[3.707548,47.762847],[3.707473,47.762893],[3.707618,47.762934],[3.70754,47.762996],[3.707197,47.763271],[3.707558,47.763419],[3.707071,47.763498],[3.707103,47.763556]]],[[[3.691964,47.768438],[3.692021,47.767942],[3.692315,47.767962],[3.692397,47.767977],[3.692611,47.768016],[3.693126,47.768082],[3.69383,47.768272],[3.694107,47.768379],[3.694448,47.768555],[3.694812,47.768727],[3.695172,47.768977],[3.695597,47.769269],[3.695593,47.769095],[3.695465,47.768715],[3.695561,47.768663],[3.695485,47.768478],[3.695567,47.768429],[3.69543,47.768249],[3.695535,47.768204],[3.694889,47.767582],[3.694711,47.767652],[3.694502,47.767541],[3.694733,47.767336],[3.69438,47.767075],[3.693403,47.766467],[3.693011,47.766225],[3.693392,47.765851],[3.69331,47.765774],[3.693245,47.765711],[3.692963,47.765481],[3.693126,47.76541],[3.69293,47.765203],[3.692716,47.765278],[3.69224,47.764888],[3.692493,47.764658],[3.692574,47.764585],[3.692601,47.764458],[3.692781,47.764289],[3.693169,47.764093],[3.693351,47.763967],[3.69341,47.763874],[3.693436,47.763832],[3.69347,47.763779],[3.693655,47.76316],[3.693722,47.762913],[3.693746,47.762825],[3.693763,47.762764],[3.69383,47.762605],[3.694104,47.762644],[3.694253,47.762664],[3.694388,47.762684],[3.694441,47.762689],[3.694576,47.762684],[3.694742,47.762663],[3.694817,47.762646],[3.694895,47.762621],[3.694984,47.762588],[3.695055,47.762537],[3.694867,47.76246],[3.694598,47.762363],[3.694498,47.762324],[3.694456,47.762375],[3.69444,47.762368],[3.694313,47.762314],[3.693964,47.762168],[3.693908,47.762144],[3.693891,47.762136],[3.693843,47.76211],[3.693729,47.762048],[3.693656,47.762008],[3.693561,47.761956],[3.693429,47.761883],[3.693421,47.761879],[3.69338,47.761856],[3.693371,47.761851],[3.693315,47.761808],[3.693133,47.761667],[3.693122,47.761658],[3.69301,47.761571],[3.692951,47.761525],[3.692884,47.761473],[3.692878,47.761467],[3.692868,47.761457],[3.692696,47.761282],[3.6926,47.761352],[3.692321,47.761159],[3.692451,47.761053],[3.692285,47.760927],[3.692146,47.760831],[3.691817,47.760606],[3.691724,47.760542],[3.691511,47.760424],[3.690717,47.760098],[3.690831,47.759995],[3.69052,47.76],[3.690165,47.759974],[3.689926,47.759883],[3.689834,47.759871],[3.689657,47.759849],[3.689592,47.759841],[3.68952,47.759832],[3.688429,47.759693],[3.687863,47.759621],[3.687475,47.75959],[3.687302,47.759577],[3.687249,47.759573],[3.686521,47.759597],[3.686366,47.759667],[3.686208,47.759738],[3.686078,47.759852],[3.686055,47.759882],[3.685787,47.760236],[3.685494,47.760622],[3.685452,47.760707],[3.685419,47.760774],[3.685377,47.760861],[3.685287,47.761042],[3.685274,47.761315],[3.685339,47.761618],[3.685503,47.761891],[3.685736,47.762148],[3.686181,47.762501],[3.687241,47.762383],[3.68733,47.762442],[3.688111,47.762766],[3.688146,47.76274],[3.689214,47.763232],[3.689257,47.763278],[3.688374,47.763557],[3.68833,47.763576],[3.688246,47.763612],[3.687955,47.763727],[3.687918,47.763679],[3.687939,47.76364],[3.687647,47.763511],[3.687344,47.763377],[3.687127,47.763281],[3.686899,47.763151],[3.686691,47.763032],[3.686575,47.76294],[3.686389,47.763109],[3.685967,47.763384],[3.685394,47.763016],[3.685362,47.763038],[3.684659,47.762545],[3.684705,47.762524],[3.684289,47.762001],[3.68364,47.762275],[3.683525,47.762332],[3.683228,47.761946],[3.683145,47.761838],[3.68319,47.761711],[3.683206,47.761709],[3.683149,47.761378],[3.682947,47.760189],[3.683168,47.760202],[3.683526,47.760261],[3.683719,47.76028],[3.683896,47.760339],[3.684187,47.760469],[3.684529,47.760497],[3.684833,47.760526],[3.685143,47.760581],[3.68535,47.760659],[3.685386,47.760588],[3.68541,47.760555],[3.685351,47.760526],[3.685596,47.760186],[3.68493,47.759997],[3.684868,47.760028],[3.684599,47.759922],[3.684644,47.759842],[3.684297,47.759683],[3.684248,47.759646],[3.684026,47.759492],[3.683828,47.759345],[3.683698,47.759242],[3.683572,47.759362],[3.68334,47.759261],[3.683152,47.75915],[3.68301,47.759103],[3.68274,47.759127],[3.682419,47.759094],[3.682072,47.759043],[3.681886,47.759057],[3.681864,47.758845],[3.680541,47.758728],[3.680545,47.758784],[3.680603,47.759169],[3.680803,47.759798],[3.680827,47.760124],[3.680843,47.760361],[3.68082,47.760585],[3.680687,47.761235],[3.68071,47.761482],[3.680733,47.761598],[3.680762,47.761749],[3.680826,47.762079],[3.680903,47.762477],[3.680909,47.762509],[3.68095,47.762719],[3.681054,47.763254],[3.681097,47.763337],[3.681184,47.763408],[3.681551,47.76364],[3.681652,47.763674],[3.681792,47.763727],[3.682503,47.763686],[3.682891,47.763662],[3.683127,47.763998],[3.683454,47.764243],[3.683119,47.764599],[3.683092,47.764632],[3.683015,47.764704],[3.682879,47.76497],[3.682839,47.765048],[3.682806,47.765111],[3.682773,47.765176],[3.682669,47.765124],[3.682348,47.765471],[3.682181,47.765651],[3.682105,47.765734],[3.681917,47.765937],[3.681144,47.766807],[3.681064,47.767037],[3.681599,47.767029],[3.681602,47.767085],[3.681869,47.767081],[3.682023,47.767101],[3.682194,47.767103],[3.682352,47.767071],[3.682563,47.766968],[3.682954,47.766751],[3.683039,47.766767],[3.683118,47.766782],[3.683041,47.767018],[3.683039,47.767026],[3.682994,47.767206],[3.682956,47.767359],[3.682928,47.767471],[3.682916,47.767505],[3.682861,47.767661],[3.68285,47.76769],[3.68281,47.767773],[3.682804,47.767785],[3.682827,47.76786],[3.683201,47.768152],[3.683131,47.768179],[3.683509,47.769097],[3.684086,47.770406],[3.684248,47.770502],[3.684217,47.770562],[3.684461,47.770835],[3.684802,47.770667],[3.685429,47.771124],[3.685773,47.771035],[3.68585,47.771017],[3.686002,47.77098],[3.685823,47.770641],[3.685792,47.770578],[3.686151,47.770492],[3.68889,47.769871],[3.689015,47.769793],[3.689388,47.769711],[3.689934,47.76959],[3.690292,47.769511],[3.690674,47.769427],[3.691198,47.769311],[3.692029,47.769128],[3.691927,47.768659],[3.691964,47.768438]]],[[[3.710455,47.768096],[3.71081,47.768285],[3.710952,47.768362],[3.711119,47.768451],[3.711685,47.768753],[3.712199,47.768012],[3.711911,47.767771],[3.711773,47.767656],[3.711698,47.767593],[3.711669,47.767549],[3.711461,47.767229],[3.711347,47.767054],[3.711293,47.766969],[3.711246,47.766898],[3.711002,47.766709],[3.710848,47.766589],[3.710765,47.766539],[3.710713,47.766507],[3.710424,47.766333],[3.710381,47.766307],[3.709024,47.765773],[3.708844,47.765696],[3.708709,47.765639],[3.708427,47.765515],[3.707757,47.765023],[3.707435,47.764786],[3.707306,47.76469],[3.707098,47.764538],[3.706942,47.764423],[3.706869,47.76437],[3.706946,47.764311],[3.70632,47.763843],[3.706217,47.763782],[3.705691,47.76359],[3.705664,47.76358],[3.705535,47.763621],[3.70537,47.763671],[3.705219,47.763716],[3.705034,47.763692],[3.704856,47.763648],[3.704795,47.763633],[3.704754,47.763622],[3.70456,47.763604],[3.704542,47.763602],[3.704428,47.763592],[3.704323,47.763587],[3.70422,47.763582],[3.704067,47.763575],[3.704015,47.763572],[3.703962,47.763567],[3.703866,47.763556],[3.703833,47.763553],[3.703671,47.76354],[3.703556,47.763525],[3.703522,47.76352],[3.703321,47.763494],[3.703319,47.763494],[3.703001,47.763454],[3.702936,47.763558],[3.70288,47.763548],[3.702594,47.763506],[3.702087,47.76338],[3.702007,47.76336],[3.701875,47.763328],[3.701757,47.763292],[3.701442,47.763199],[3.700737,47.762994],[3.700569,47.762945],[3.700411,47.762899],[3.700008,47.762782],[3.699921,47.762758],[3.699445,47.762643],[3.699179,47.762591],[3.698884,47.762517],[3.698664,47.762461],[3.698439,47.762404],[3.698374,47.762388],[3.698368,47.762387],[3.698063,47.762329],[3.698062,47.762426],[3.697956,47.762733],[3.697883,47.762734],[3.697809,47.762736],[3.697684,47.762258],[3.697683,47.762258],[3.697248,47.762193],[3.697173,47.762179],[3.697111,47.762301],[3.696846,47.762321],[3.696649,47.76235],[3.696382,47.762403],[3.696358,47.762405],[3.69621,47.762419],[3.696281,47.762599],[3.696381,47.762852],[3.696486,47.762996],[3.69641,47.763015],[3.696429,47.763054],[3.696581,47.763325],[3.69661,47.763391],[3.696516,47.763549],[3.696381,47.763818],[3.696313,47.764015],[3.696291,47.764081],[3.696268,47.764147],[3.696251,47.764198],[3.696177,47.764533],[3.69618,47.76458],[3.696191,47.764759],[3.696254,47.764886],[3.696335,47.765049],[3.6964,47.765011],[3.697924,47.76451],[3.698777,47.764802],[3.699167,47.764933],[3.699345,47.764993],[3.699831,47.764309],[3.699951,47.764334],[3.699986,47.764342],[3.700556,47.764603],[3.701236,47.764914],[3.701266,47.764864],[3.701317,47.764887],[3.701426,47.764938],[3.701944,47.765082],[3.702106,47.765128],[3.70233,47.76519],[3.702905,47.765351],[3.703151,47.76542],[3.703368,47.765528],[3.703475,47.765581],[3.703714,47.765592],[3.703748,47.765647],[3.704103,47.765756],[3.704492,47.765926],[3.704679,47.765965],[3.704698,47.765969],[3.705209,47.766009],[3.705645,47.766072],[3.7066,47.76636],[3.707849,47.766729],[3.70967,47.767429],[3.709444,47.767629],[3.709547,47.767675],[3.709792,47.767475],[3.709896,47.767516],[3.709824,47.767587],[3.709933,47.767635],[3.710016,47.767562],[3.710127,47.767604],[3.709899,47.767798],[3.710164,47.76794],[3.710258,47.767991],[3.710455,47.768096]]],[[[3.712187,47.765418],[3.712133,47.765441],[3.711916,47.765553],[3.711445,47.765794],[3.711414,47.76581],[3.711327,47.765928],[3.713909,47.766473],[3.713954,47.766359],[3.713961,47.76634],[3.714061,47.76628],[3.714377,47.76609],[3.714704,47.765894],[3.714792,47.765841],[3.714855,47.765803],[3.715407,47.76569],[3.716819,47.765402],[3.717002,47.765365],[3.717182,47.76536],[3.718282,47.765331],[3.719227,47.76544],[3.719566,47.765118],[3.719373,47.764992],[3.719067,47.764856],[3.718678,47.764775],[3.718229,47.764739],[3.717598,47.764722],[3.717061,47.764705],[3.717037,47.764704],[3.716626,47.764716],[3.716392,47.764723],[3.714933,47.764861],[3.714297,47.764922],[3.714215,47.76493],[3.7141,47.76494],[3.713701,47.764979],[3.713539,47.764994],[3.712989,47.765106],[3.712711,47.765201],[3.712659,47.765218],[3.712415,47.765322],[3.712387,47.765334],[3.712187,47.765418]]],[[[3.703531,47.768393],[3.703661,47.768306],[3.704037,47.768059],[3.70355,47.767355],[3.703508,47.767311],[3.703322,47.767115],[3.703076,47.766857],[3.703145,47.766829],[3.703063,47.766741],[3.70287,47.766537],[3.702693,47.766406],[3.702597,47.766335],[3.70255,47.7663],[3.70249,47.766256],[3.701883,47.766023],[3.701455,47.765935],[3.700972,47.765959],[3.700819,47.765965],[3.700257,47.76606],[3.699903,47.766187],[3.699879,47.766197],[3.699037,47.76656],[3.698866,47.766649],[3.698697,47.766737],[3.697557,47.767167],[3.697464,47.767187],[3.697439,47.767252],[3.697413,47.767333],[3.697357,47.767512],[3.697323,47.767618],[3.697328,47.767827],[3.697329,47.76788],[3.697331,47.767936],[3.697421,47.768473],[3.697486,47.76878],[3.697516,47.768955],[3.697613,47.769315],[3.697744,47.769686],[3.697975,47.770211],[3.698086,47.770466],[3.698225,47.770786],[3.698304,47.770967],[3.698388,47.771278],[3.698591,47.771631],[3.699868,47.771565],[3.699779,47.770841],[3.699798,47.770528],[3.699867,47.769762],[3.699914,47.769018],[3.699937,47.768743],[3.699978,47.768363],[3.700028,47.768274],[3.700135,47.768124],[3.700192,47.768065],[3.700466,47.767781],[3.700743,47.767675],[3.701236,47.767541],[3.701425,47.767551],[3.701613,47.767605],[3.701687,47.767627],[3.701619,47.767726],[3.701713,47.767759],[3.701876,47.767569],[3.702175,47.767685],[3.702383,47.767829],[3.702442,47.767784],[3.70262,47.767897],[3.702927,47.768091],[3.703102,47.768099],[3.703502,47.768383],[3.703531,47.768393]]],[[[3.682677,47.773111],[3.682656,47.773062],[3.6828,47.772965],[3.683078,47.772721],[3.68314,47.772716],[3.683272,47.772853],[3.683486,47.772792],[3.683427,47.772695],[3.683318,47.772577],[3.683344,47.772574],[3.683456,47.772558],[3.683548,47.772473],[3.683681,47.772485],[3.684024,47.772492],[3.683996,47.772626],[3.684357,47.772684],[3.685251,47.773091],[3.685193,47.773169],[3.68515,47.773237],[3.68557,47.773455],[3.685705,47.773434],[3.686184,47.773522],[3.686863,47.773576],[3.687153,47.772953],[3.685796,47.772573],[3.685036,47.772056],[3.684669,47.771769],[3.684194,47.771357],[3.683867,47.771263],[3.683496,47.77123],[3.683084,47.771221],[3.682876,47.771239],[3.682472,47.771274],[3.68209,47.77133],[3.68168,47.771391],[3.681614,47.771417],[3.681514,47.771748],[3.681313,47.772401],[3.681106,47.772923],[3.681101,47.772936],[3.681064,47.772948],[3.682294,47.773356],[3.682439,47.773391],[3.682677,47.773111]]]]}},{"type":"Feature","id":"commune-89108","properties":{"id":"commune-89108","name":"Chitry","kind":"commune","tier":"commune"},"geometry":{"type":"MultiPolygon","coordinates":[[[[3.70902,47.748833],[3.708911,47.748895],[3.70845,47.749467],[3.708304,47.749581],[3.708181,47.749819],[3.707941,47.750083],[3.707891,47.750081],[3.707377,47.749871],[3.706827,47.749673],[3.706688,47.749815],[3.705436,47.74969],[3.705199,47.749725],[3.704265,47.749892],[3.703704,47.750051],[3.702374,47.750557],[3.701954,47.750784],[3.701218,47.751366],[3.700751,47.751718],[3.70027,47.751556],[3.699685,47.751274],[3.699634,47.751261],[3.699632,47.751247],[3.699712,47.751034],[3.699721,47.750964],[3.698858,47.750864],[3.698144,47.750845],[3.697546,47.750885],[3.696861,47.750886],[3.694295,47.750784],[3.693866,47.75079],[3.693132,47.750876],[3.69215,47.751181],[3.691364,47.751323],[3.68996,47.751413],[3.688937,47.751383],[3.687713,47.751347],[3.687276,47.75123],[3.685179,47.750271],[3.684182,47.749806],[3.684165,47.749832],[3.683824,47.750355],[3.683502,47.751116],[3.683479,47.75117],[3.68282,47.752322],[3.682671,47.752398],[3.680837,47.753332],[3.680732,47.753352],[3.679829,47.752796],[3.679679,47.752772],[3.679245,47.752819],[3.677894,47.753377],[3.677736,47.753419],[3.676396,47.753512],[3.676407,47.753699],[3.676864,47.753923],[3.679387,47.75539],[3.679789,47.755713],[3.680474,47.756518],[3.680764,47.75678],[3.680726,47.756997],[3.679726,47.75711],[3.679168,47.757065],[3.678969,47.757093],[3.678393,47.757202],[3.67802,47.757262],[3.677964,47.757267],[3.677793,47.757335],[3.677659,47.757462],[3.677569,47.75759],[3.677257,47.758117],[3.677106,47.758291],[3.676873,47.758471],[3.675806,47.759083],[3.675634,47.759262],[3.675548,47.759499],[3.675518,47.759985],[3.675394,47.760407],[3.675195,47.760774],[3.674655,47.761485],[3.674347,47.762148],[3.674183,47.762367],[3.673761,47.762894],[3.673325,47.763311],[3.672853,47.763615],[3.672476,47.76382],[3.671935,47.764036],[3.67101,47.764279],[3.670402,47.764455],[3.669855,47.76456],[3.669329,47.764661],[3.668875,47.764787],[3.668143,47.765108],[3.667679,47.765406],[3.667374,47.765755],[3.667056,47.766551],[3.667267,47.767146],[3.667557,47.767511],[3.66655,47.767673],[3.665285,47.767991],[3.664714,47.768103],[3.664267,47.768764],[3.664026,47.768905],[3.663706,47.769045],[3.662754,47.769746],[3.662786,47.769765],[3.664602,47.770781],[3.665665,47.771317],[3.665748,47.771263],[3.666014,47.771102],[3.66613,47.771143],[3.669065,47.772271],[3.669364,47.772386],[3.669406,47.772972],[3.669233,47.773103],[3.669218,47.77312],[3.669089,47.773485],[3.669167,47.773499],[3.669102,47.773681],[3.669132,47.774163],[3.669501,47.775214],[3.669516,47.775241],[3.669539,47.775271],[3.669798,47.775549],[3.670229,47.776052],[3.670244,47.776067],[3.671466,47.776955],[3.671503,47.777024],[3.672315,47.776515],[3.672366,47.776521],[3.672691,47.776765],[3.673316,47.776436],[3.673963,47.776698],[3.674043,47.77672],[3.674937,47.776969],[3.675519,47.77707],[3.675844,47.777086],[3.676251,47.777085],[3.676323,47.77708],[3.6764,47.777075],[3.676361,47.77794],[3.676689,47.778128],[3.677026,47.778322],[3.677703,47.778626],[3.677917,47.778682],[3.678487,47.778832],[3.678736,47.778955],[3.678731,47.778981],[3.678764,47.779001],[3.678937,47.779149],[3.679267,47.779454],[3.679621,47.779839],[3.679659,47.779964],[3.68055,47.780813],[3.680582,47.780802],[3.68113,47.781464],[3.681362,47.781742],[3.681887,47.78149],[3.6825,47.781695],[3.68285,47.781815],[3.683894,47.782168],[3.685032,47.782552],[3.68505,47.782569],[3.686892,47.78364],[3.686933,47.783679],[3.687183,47.783851],[3.687443,47.78403],[3.687612,47.784146],[3.687763,47.784251],[3.687902,47.784347],[3.688023,47.784431],[3.688038,47.784447],[3.688255,47.784548],[3.688387,47.784614],[3.688515,47.78468],[3.688654,47.784752],[3.688722,47.784783],[3.689091,47.784922],[3.6894,47.785],[3.689463,47.784964],[3.68985,47.785111],[3.691209,47.785474],[3.691515,47.785546],[3.691531,47.785563],[3.691889,47.785468],[3.692824,47.785259],[3.69286,47.785241],[3.69289,47.785215],[3.69383,47.784924],[3.695534,47.785425],[3.695586,47.785472],[3.695735,47.785499],[3.69703,47.786042],[3.698346,47.786595],[3.698458,47.786638],[3.699732,47.787091],[3.700487,47.78752],[3.701445,47.788093],[3.701551,47.788159],[3.702537,47.788778],[3.702684,47.788873],[3.702829,47.788961],[3.702916,47.789013],[3.70382,47.789577],[3.704373,47.789965],[3.704496,47.790021],[3.704587,47.790084],[3.704552,47.790101],[3.704924,47.790436],[3.705261,47.790712],[3.705573,47.790955],[3.706013,47.791271],[3.70638,47.791515],[3.706687,47.791704],[3.70699,47.791871],[3.707208,47.791981],[3.707241,47.791997],[3.707704,47.791535],[3.707812,47.791443],[3.708517,47.790727],[3.708773,47.790497],[3.709218,47.79016],[3.709508,47.789977],[3.710263,47.789518],[3.710532,47.789337],[3.710703,47.78922],[3.710834,47.789118],[3.71096,47.789002],[3.711017,47.788942],[3.711107,47.788846],[3.71118,47.788797],[3.711284,47.788708],[3.711361,47.788629],[3.711416,47.788565],[3.711499,47.788454],[3.711555,47.788367],[3.711646,47.788171],[3.711726,47.787907],[3.711812,47.78763],[3.711901,47.787399],[3.711985,47.787217],[3.712032,47.787105],[3.712073,47.787028],[3.712184,47.786877],[3.712286,47.786724],[3.712391,47.786542],[3.712731,47.785865],[3.713003,47.785317],[3.713047,47.785238],[3.713106,47.785149],[3.713198,47.785039],[3.71327,47.784965],[3.7133,47.784939],[3.713371,47.784876],[3.713598,47.784719],[3.71379,47.784589],[3.71391,47.784516],[3.714055,47.784441],[3.714164,47.784393],[3.714327,47.784335],[3.714989,47.784171],[3.714777,47.78404],[3.71458,47.783925],[3.714245,47.783758],[3.714546,47.783417],[3.714641,47.783307],[3.71479,47.783188],[3.71477,47.783165],[3.715005,47.782895],[3.715248,47.782616],[3.714437,47.782194],[3.71264,47.781509],[3.712449,47.781417],[3.712257,47.781314],[3.712111,47.781208],[3.71205,47.781151],[3.711968,47.781065],[3.711893,47.780973],[3.711838,47.780874],[3.711808,47.780787],[3.711726,47.780555],[3.711622,47.780059],[3.711606,47.779981],[3.711574,47.779345],[3.712062,47.779295],[3.712292,47.779277],[3.712777,47.779215],[3.712814,47.779217],[3.713576,47.779253],[3.713664,47.779137],[3.714351,47.779087],[3.715165,47.77899],[3.715882,47.778956],[3.716109,47.778945],[3.717407,47.778953],[3.717881,47.778958],[3.719464,47.778845],[3.719618,47.778834],[3.719692,47.778814],[3.719951,47.778744],[3.720425,47.778676],[3.720991,47.778596],[3.721284,47.778596],[3.72152,47.77861],[3.721715,47.778633],[3.72204,47.778684],[3.722616,47.778808],[3.723695,47.779076],[3.723874,47.779105],[3.724119,47.779111],[3.724524,47.779121],[3.725154,47.779049],[3.725499,47.778991],[3.725611,47.778972],[3.725658,47.778962],[3.72573,47.778936],[3.726654,47.778519],[3.726779,47.778464],[3.726815,47.778447],[3.726966,47.778361],[3.727131,47.778255],[3.727226,47.778169],[3.72735,47.778057],[3.72743,47.777985],[3.727485,47.777898],[3.727547,47.7778],[3.727626,47.777677],[3.727698,47.777564],[3.727726,47.77752],[3.727747,47.777487],[3.727769,47.777453],[3.727833,47.777352],[3.727979,47.777214],[3.728128,47.777096],[3.728256,47.77701],[3.728361,47.776943],[3.728493,47.776876],[3.728619,47.776824],[3.72932,47.776558],[3.729585,47.776453],[3.729692,47.776411],[3.730039,47.776224],[3.731087,47.775647],[3.731123,47.77561],[3.731161,47.775548],[3.731176,47.775485],[3.731192,47.775327],[3.731193,47.775148],[3.731158,47.774579],[3.731131,47.774359],[3.731059,47.773991],[3.730916,47.773398],[3.730884,47.77322],[3.730884,47.77302],[3.730885,47.772999],[3.730747,47.772959],[3.730677,47.772955],[3.730332,47.772977],[3.730338,47.772953],[3.731003,47.772099],[3.731204,47.771788],[3.731514,47.771174],[3.732075,47.770427],[3.732174,47.770452],[3.73222,47.770202],[3.732214,47.770102],[3.732142,47.769774],[3.73187,47.768881],[3.731852,47.768788],[3.73184,47.768702],[3.731834,47.768634],[3.731842,47.768587],[3.73186,47.768532],[3.731875,47.768487],[3.731899,47.768441],[3.732012,47.768453],[3.732046,47.768327],[3.732115,47.768072],[3.732169,47.767871],[3.732214,47.767706],[3.732288,47.767431],[3.732306,47.76724],[3.732307,47.767166],[3.732308,47.767075],[3.732297,47.766913],[3.732267,47.766519],[3.732442,47.766521],[3.732435,47.766448],[3.732428,47.766383],[3.732421,47.766313],[3.732404,47.766145],[3.732386,47.765968],[3.732352,47.765626],[3.732341,47.765515],[3.732304,47.76515],[3.73228,47.764993],[3.732208,47.764506],[3.732167,47.764227],[3.732149,47.764107],[3.732108,47.763833],[3.73207,47.763563],[3.732059,47.763491],[3.731991,47.763015],[3.731971,47.762873],[3.731959,47.762808],[3.731905,47.762506],[3.731866,47.762288],[3.7318,47.762028],[3.731761,47.761879],[3.731734,47.761772],[3.731729,47.761753],[3.732238,47.761625],[3.732894,47.761461],[3.733323,47.761353],[3.733685,47.761262],[3.733699,47.761259],[3.734011,47.761206],[3.734042,47.761201],[3.734074,47.761198],[3.73419,47.760618],[3.734156,47.760617],[3.734144,47.76027],[3.734128,47.7598],[3.734121,47.759768],[3.733365,47.759901],[3.732638,47.759916],[3.732107,47.759947],[3.730972,47.760189],[3.7305,47.760276],[3.730114,47.76027],[3.730112,47.760203],[3.730119,47.76018],[3.730199,47.760092],[3.730031,47.758686],[3.729701,47.7575],[3.728764,47.757239],[3.726686,47.756682],[3.725922,47.756497],[3.725274,47.756338],[3.724466,47.756128],[3.72419,47.756049],[3.723293,47.755801],[3.721496,47.755459],[3.721058,47.75536],[3.719924,47.755071],[3.71936,47.754873],[3.718874,47.754573],[3.718354,47.754295],[3.717796,47.75404],[3.717121,47.753618],[3.715354,47.752732],[3.714556,47.752359],[3.714095,47.752128],[3.713482,47.751789],[3.713106,47.751544],[3.712776,47.751313],[3.712342,47.750948],[3.711949,47.750573],[3.711681,47.750378],[3.711329,47.750148],[3.710994,47.749946],[3.709987,47.749422],[3.709728,47.749207],[3.709289,47.748867],[3.709144,47.748819],[3.70902,47.748833]]]]}}]}
