{"type":"FeatureCollection","features":[{"type":"Feature","id":"inao-denom-374","properties":{"id":"inao-denom-374","name":"Bourgogne Côte Saint-Jacques","tier":"regional","kind":"appellation","appellationId":138,"denominationId":374,"sourceName":"Bourgogne Côte Saint-Jacques","communes":["89206"],"areaHa":13.29},"geometry":{"type":"MultiPolygon","coordinates":[[[[3.3919842,47.9876565],[3.3919809,47.9875645],[3.3919791,47.9875126],[3.3919737,47.9873586],[3.3919073,47.9873201],[3.3917034,47.9873282],[3.3913956,47.9873178],[3.3913501,47.9873162],[3.3912276,47.9873111],[3.3906654,47.9872355],[3.3904114,47.987185],[3.3900501,47.9871081],[3.3898682,47.9870769],[3.3896818,47.9870559],[3.3894554,47.9870548],[3.3887449,47.9870008],[3.3885877,47.9869781],[3.3883095,47.9868853],[3.3879993,47.9867875],[3.3872526,47.986558],[3.3871309,47.9865333],[3.3870117,47.9864987],[3.3869362,47.9864769],[3.386869,47.9864594],[3.3867653,47.9864325],[3.386553,47.9863813],[3.3863549,47.9863336],[3.3861132,47.9862783],[3.3858982,47.9862291],[3.3850293,47.986101],[3.3846021,47.9860415],[3.3843951,47.9860213],[3.3842272,47.9860315],[3.3839108,47.9860676],[3.3837485,47.9860875],[3.3835451,47.9861051],[3.3834397,47.9860997],[3.3832901,47.9860859],[3.383195,47.9860729],[3.3830262,47.986041],[3.3828166,47.9860397],[3.3826442,47.9860627],[3.3823993,47.9861052],[3.382346,47.986124],[3.3822512,47.9861696],[3.382155,47.9862468],[3.3821227,47.9863129],[3.3826428,47.9862814],[3.3826349,47.9864458],[3.3826369,47.9865468],[3.3827844,47.9865443],[3.3829028,47.9864737],[3.3835974,47.9865155],[3.3837753,47.986526],[3.3840587,47.9865625],[3.3842318,47.9865848],[3.3849108,47.9866724],[3.3853388,47.9867906],[3.3856972,47.9868858],[3.3858865,47.986936],[3.3860568,47.9869857],[3.3863342,47.9870669],[3.386404,47.9870872],[3.3865847,47.9871408],[3.3876874,47.9874684],[3.3877422,47.9874868],[3.3883102,47.9875642],[3.3904371,47.9880343],[3.3911944,47.9880936],[3.3912381,47.9880958],[3.3918356,47.9881252],[3.391841,47.9881255],[3.3919999,47.9880849],[3.3920283,47.9880487],[3.3919842,47.9876565]]],[[[3.3864374,47.9871336],[3.3863152,47.9870988],[3.3860337,47.9870187],[3.3859286,47.9869888],[3.3856714,47.9869156],[3.3853733,47.9868357],[3.384893,47.986707],[3.3842255,47.9866215],[3.3840936,47.9866046],[3.3837577,47.9865596],[3.3835894,47.9865499],[3.3829187,47.986511],[3.382837,47.9865616],[3.382807,47.9868012],[3.3828513,47.986828],[3.3829934,47.9868121],[3.3834172,47.9867774],[3.3835144,47.9867954],[3.3835018,47.9868332],[3.3836386,47.9869202],[3.3838369,47.9870461],[3.3839443,47.9871144],[3.3841446,47.9872417],[3.3845938,47.9876573],[3.3846734,47.9880088],[3.3847086,47.9880049],[3.3850863,47.9879623],[3.3853426,47.9879803],[3.3854642,47.9879888],[3.3855791,47.9879969],[3.385863,47.9881041],[3.3860682,47.9882319],[3.3861617,47.9881538],[3.3869153,47.9875118],[3.3874019,47.9875996],[3.3876721,47.9875365],[3.3876733,47.9875037],[3.3873685,47.9874127],[3.3865614,47.9871709],[3.3864374,47.9871336]]],[[[3.3917306,47.9883948],[3.3918339,47.988203],[3.3917956,47.9881655],[3.3917929,47.9881654],[3.3914125,47.9881527],[3.3913657,47.9881511],[3.3911869,47.9881395],[3.3911146,47.9881335],[3.3904145,47.9880753],[3.3900443,47.9879936],[3.3895984,47.9878996],[3.3885102,47.9876701],[3.38806,47.9875733],[3.3879342,47.9875461],[3.3877532,47.987563],[3.3873947,47.9876354],[3.3869856,47.9875634],[3.3869014,47.9875781],[3.3862049,47.9881755],[3.3860081,47.9883403],[3.3864147,47.9883481],[3.3872518,47.988611],[3.3873662,47.9886352],[3.3883921,47.9888529],[3.3889043,47.9889568],[3.3903623,47.9892694],[3.3904083,47.9892771],[3.3906472,47.9893156],[3.3918214,47.9895031],[3.3918704,47.9894802],[3.3918617,47.989373],[3.3917735,47.9887133],[3.3917306,47.9883948]]]]}},{"type":"Feature","id":"commune-89206","properties":{"id":"commune-89206","name":"Joigny","kind":"commune","tier":"commune"},"geometry":{"type":"MultiPolygon","coordinates":[[[[3.388584,47.960135],[3.387829,47.960465],[3.387408,47.960639],[3.387074,47.960767],[3.386473,47.961006],[3.385891,47.961259],[3.385389,47.961482],[3.382426,47.962857],[3.382114,47.963001],[3.381055,47.963462],[3.380709,47.963606],[3.379814,47.963989],[3.378877,47.964427],[3.37754,47.964992],[3.377197,47.965059],[3.37721,47.965095],[3.377228,47.965268],[3.377233,47.965311],[3.377123,47.965327],[3.376171,47.965754],[3.376022,47.965789],[3.375949,47.965783],[3.375865,47.965765],[3.375813,47.965787],[3.375028,47.96614],[3.3748,47.966243],[3.374753,47.966269],[3.375097,47.966472],[3.375022,47.966499],[3.374515,47.966636],[3.374274,47.966695],[3.374161,47.966755],[3.373391,47.966924],[3.373151,47.967016],[3.37297,47.967101],[3.372364,47.967349],[3.372213,47.967413],[3.370485,47.968126],[3.370029,47.968316],[3.369184,47.968681],[3.368843,47.968804],[3.368564,47.968938],[3.368064,47.969214],[3.367755,47.969374],[3.36696,47.969718],[3.366506,47.969919],[3.366193,47.970068],[3.365866,47.970219],[3.365576,47.970352],[3.365301,47.970479],[3.364866,47.970681],[3.364522,47.970841],[3.364367,47.970912],[3.36367,47.97118],[3.362372,47.971688],[3.362152,47.971773],[3.361525,47.972059],[3.360859,47.972365],[3.360858,47.972365],[3.360298,47.972621],[3.360207,47.972652],[3.359898,47.972761],[3.359897,47.972761],[3.35951,47.972895],[3.35862,47.973203],[3.357646,47.973542],[3.357699,47.97356],[3.357985,47.973658],[3.35805,47.973736],[3.358207,47.973885],[3.358061,47.974051],[3.358516,47.974236],[3.358872,47.97438],[3.358842,47.974495],[3.359342,47.97497],[3.359378,47.975017],[3.359884,47.975566],[3.359958,47.975871],[3.359966,47.975904],[3.360033,47.975933],[3.360105,47.975988],[3.360308,47.976116],[3.360506,47.976238],[3.360657,47.976338],[3.360927,47.976514],[3.361122,47.976637],[3.361401,47.976823],[3.361568,47.976927],[3.361643,47.976977],[3.361711,47.977021],[3.361892,47.977139],[3.362043,47.977239],[3.362156,47.977313],[3.363447,47.978154],[3.364261,47.978678],[3.365357,47.979394],[3.366583,47.980193],[3.367966,47.981096],[3.369017,47.981781],[3.370025,47.982441],[3.370417,47.982695],[3.370677,47.982989],[3.370705,47.983018],[3.371241,47.983567],[3.371313,47.983639],[3.371667,47.98388],[3.37194,47.984085],[3.372051,47.984156],[3.372174,47.984285],[3.372268,47.984337],[3.372293,47.984334],[3.372682,47.984649],[3.373107,47.984965],[3.373357,47.985153],[3.373566,47.985345],[3.374049,47.985808],[3.374642,47.986393],[3.374991,47.986775],[3.375234,47.987071],[3.375309,47.987285],[3.375388,47.987512],[3.37544,47.987661],[3.375586,47.988102],[3.375692,47.988411],[3.37571,47.988435],[3.375534,47.988654],[3.375497,47.988971],[3.375561,47.989231],[3.37565,47.989505],[3.375691,47.989527],[3.375637,47.989767],[3.375533,47.990027],[3.375292,47.990316],[3.374956,47.990543],[3.37465,47.990715],[3.374376,47.990916],[3.373879,47.991323],[3.373758,47.991477],[3.373591,47.991907],[3.37313,47.992943],[3.373108,47.992992],[3.37281,47.993582],[3.372717,47.993631],[3.372128,47.993944],[3.372023,47.994042],[3.37192,47.994264],[3.371888,47.99445],[3.371909,47.994587],[3.372036,47.995085],[3.372061,47.995292],[3.372103,47.995345],[3.372134,47.995385],[3.372431,47.995811],[3.372901,47.99655],[3.372997,47.997033],[3.37303,47.997185],[3.373134,47.997345],[3.373212,47.997455],[3.373349,47.997631],[3.373794,47.998205],[3.374114,47.998583],[3.374315,47.998795],[3.374611,47.999093],[3.374693,47.999179],[3.374847,47.999339],[3.375189,47.999555],[3.375264,47.999588],[3.375439,47.999522],[3.375593,47.999675],[3.375611,47.999692],[3.37569,47.999904],[3.375695,47.999919],[3.375936,48.000088],[3.376145,48.000711],[3.37617,48.000738],[3.376181,48.000769],[3.376306,48.000816],[3.376351,48.000818],[3.377081,48.000465],[3.377336,48.000296],[3.377636,48.000435],[3.377762,48.000493],[3.377894,48.000543],[3.378104,48.000633],[3.378217,48.0007],[3.378597,48.000837],[3.37881,48.00117],[3.378699,48.001246],[3.378745,48.001406],[3.379302,48.001935],[3.379655,48.001779],[3.379809,48.002017],[3.379812,48.00202],[3.379938,48.002176],[3.379935,48.002389],[3.380515,48.002958],[3.380525,48.003079],[3.381025,48.003328],[3.381232,48.003326],[3.382425,48.003832],[3.382594,48.003956],[3.383351,48.004125],[3.383695,48.004149],[3.384037,48.004384],[3.384176,48.00448],[3.385131,48.004226],[3.385909,48.004727],[3.386376,48.005076],[3.386623,48.005218],[3.386718,48.006092],[3.38684,48.00645],[3.386969,48.006895],[3.387308,48.008445],[3.387383,48.008848],[3.387368,48.009805],[3.387381,48.010607],[3.387441,48.011757],[3.387311,48.01196],[3.387359,48.011975],[3.385284,48.013501],[3.381297,48.016465],[3.38127,48.016494],[3.381254,48.016512],[3.381199,48.01653],[3.37991,48.016713],[3.376076,48.0173],[3.371454,48.01801],[3.370325,48.018192],[3.370847,48.01992],[3.371338,48.021554],[3.37136,48.021612],[3.371361,48.021616],[3.371886,48.023333],[3.37259,48.025707],[3.372683,48.02574],[3.376372,48.027069],[3.376959,48.029543],[3.377148,48.030287],[3.380341,48.030157],[3.382506,48.030282],[3.383678,48.030138],[3.385904,48.029672],[3.386963,48.028849],[3.387364,48.028538],[3.387312,48.030383],[3.387243,48.033098],[3.389977,48.03233],[3.390767,48.032225],[3.392485,48.034185],[3.392528,48.034234],[3.393131,48.034919],[3.39309,48.035283],[3.391453,48.036185],[3.39199,48.03682],[3.390979,48.037996],[3.39144,48.03842],[3.391848,48.038542],[3.392541,48.038835],[3.393064,48.039066],[3.393702,48.039612],[3.394111,48.039961],[3.393851,48.040262],[3.392943,48.041057],[3.392473,48.041214],[3.391644,48.041599],[3.391007,48.04196],[3.391295,48.042767],[3.390777,48.043077],[3.390306,48.043388],[3.390498,48.04415],[3.390485,48.044222],[3.390385,48.044765],[3.390445,48.04535],[3.390791,48.045991],[3.391003,48.046391],[3.390958,48.047198],[3.390925,48.047774],[3.391237,48.048548],[3.39129,48.049365],[3.391762,48.049944],[3.39239,48.049773],[3.393098,48.049637],[3.393663,48.049584],[3.394258,48.049521],[3.394439,48.049385],[3.39442,48.048446],[3.394811,48.047904],[3.394978,48.047539],[3.397057,48.046064],[3.397812,48.045895],[3.398787,48.045598],[3.398883,48.045575],[3.399642,48.045392],[3.400354,48.04573],[3.400674,48.045894],[3.401522,48.046221],[3.401875,48.046485],[3.402303,48.047095],[3.403521,48.04819],[3.403853,48.048639],[3.403924,48.048961],[3.404865,48.050308],[3.405124,48.050506],[3.405184,48.050794],[3.405527,48.051175],[3.405714,48.051383],[3.405843,48.051724],[3.405789,48.052232],[3.405241,48.052404],[3.405107,48.052727],[3.404791,48.052926],[3.404512,48.053276],[3.404325,48.053484],[3.403951,48.053698],[3.403107,48.054187],[3.402801,48.054425],[3.402569,48.054567],[3.401894,48.054918],[3.400683,48.0555],[3.39984,48.055903],[3.398181,48.055763],[3.397166,48.055906],[3.397165,48.057006],[3.397149,48.057428],[3.39677,48.057884],[3.396421,48.058326],[3.396207,48.058723],[3.396439,48.059381],[3.397759,48.059362],[3.39898,48.059836],[3.40049,48.059767],[3.401845,48.059822],[3.404456,48.059926],[3.405107,48.059897],[3.405935,48.059722],[3.406888,48.059158],[3.407832,48.05917],[3.410091,48.059017],[3.412431,48.05884],[3.413214,48.057826],[3.414691,48.057611],[3.420282,48.056871],[3.420702,48.056967],[3.421509,48.056865],[3.422033,48.056897],[3.423412,48.056705],[3.423391,48.056379],[3.423831,48.056117],[3.424581,48.055797],[3.424447,48.055558],[3.424841,48.054637],[3.425247,48.054255],[3.426243,48.053621],[3.427259,48.053443],[3.427429,48.053539],[3.428038,48.053252],[3.428116,48.053036],[3.428892,48.052856],[3.429211,48.052788],[3.430549,48.052575],[3.431446,48.052432],[3.432458,48.051886],[3.43259,48.051813],[3.432896,48.051683],[3.433219,48.051566],[3.433524,48.051528],[3.434308,48.051438],[3.434812,48.051382],[3.436074,48.051378],[3.436188,48.051376],[3.437094,48.051374],[3.438489,48.05096],[3.439334,48.050691],[3.439945,48.050814],[3.440342,48.051296],[3.444975,48.05663],[3.445247,48.056447],[3.445722,48.056213],[3.446632,48.055638],[3.447087,48.055308],[3.447433,48.055016],[3.447646,48.054873],[3.449745,48.054251],[3.450438,48.053921],[3.450553,48.053895],[3.451112,48.053751],[3.45193,48.053343],[3.452386,48.053159],[3.45405,48.052542],[3.454492,48.052292],[3.454786,48.052178],[3.456,48.051703],[3.456315,48.051578],[3.456626,48.051401],[3.457028,48.051016],[3.457395,48.050833],[3.457726,48.050329],[3.458071,48.050074],[3.458219,48.049878],[3.458599,48.049555],[3.458833,48.04962],[3.459144,48.049492],[3.459336,48.04933],[3.458155,48.048473],[3.45612,48.047003],[3.453663,48.045231],[3.452603,48.044467],[3.453056,48.044275],[3.454052,48.043992],[3.454284,48.043974],[3.455381,48.043979],[3.456999,48.04399],[3.457508,48.043972],[3.45786,48.043945],[3.458582,48.043517],[3.458785,48.043394],[3.459081,48.04331],[3.459388,48.043236],[3.459839,48.043067],[3.460509,48.042527],[3.460468,48.042259],[3.460466,48.042193],[3.460444,48.041826],[3.460148,48.041521],[3.459336,48.040472],[3.459153,48.039559],[3.459099,48.039371],[3.458603,48.038373],[3.458543,48.038244],[3.458521,48.037341],[3.458723,48.035822],[3.458709,48.035539],[3.458296,48.034552],[3.458028,48.033942],[3.45802,48.033281],[3.458145,48.032804],[3.457937,48.032305],[3.457349,48.032012],[3.456899,48.031683],[3.456783,48.031577],[3.456262,48.030958],[3.456029,48.030321],[3.455659,48.029755],[3.455155,48.029546],[3.454416,48.029147],[3.454042,48.028933],[3.453547,48.028435],[3.453418,48.027818],[3.453728,48.025856],[3.453796,48.025431],[3.453155,48.024867],[3.453025,48.024443],[3.452338,48.024058],[3.451932,48.023875],[3.451579,48.023797],[3.450997,48.023692],[3.450388,48.023588],[3.449912,48.023503],[3.449505,48.023366],[3.44859,48.02296],[3.448088,48.022753],[3.447207,48.022635],[3.446721,48.022432],[3.445777,48.022124],[3.444813,48.021807],[3.444435,48.021595],[3.4441,48.021313],[3.44387,48.021114],[3.442249,48.019887],[3.441466,48.019241],[3.441112,48.018883],[3.440875,48.018343],[3.440157,48.018553],[3.439894,48.018153],[3.43989,48.018148],[3.439787,48.017989],[3.43933,48.017482],[3.43918,48.017284],[3.438014,48.015818],[3.437555,48.015921],[3.437443,48.015632],[3.437104,48.015352],[3.436813,48.015023],[3.43645,48.014777],[3.435767,48.014264],[3.435277,48.013843],[3.434743,48.012941],[3.434709,48.012925],[3.434764,48.012765],[3.434624,48.011899],[3.434206,48.01188],[3.433923,48.01161],[3.43371,48.011505],[3.433625,48.011484],[3.433216,48.011383],[3.432658,48.011016],[3.431882,48.010099],[3.431309,48.009573],[3.430052,48.009511],[3.429293,48.009209],[3.429143,48.00915],[3.429142,48.009101],[3.429141,48.00906],[3.428773,48.008776],[3.428164,48.008267],[3.42897,48.007877],[3.430284,48.007842],[3.431032,48.007739],[3.430318,48.006822],[3.429748,48.005856],[3.429085,48.004732],[3.428775,48.004212],[3.427978,48.003542],[3.42643,48.002837],[3.424516,48.002357],[3.423468,48.001898],[3.422354,48.001403],[3.42194,48.001032],[3.422345,48.000599],[3.42289,47.999815],[3.423073,47.999382],[3.423909,47.999064],[3.424768,47.998637],[3.425267,47.998135],[3.42569,47.99698],[3.426051,47.996206],[3.426494,47.996219],[3.426723,47.995857],[3.426808,47.994932],[3.426783,47.99483],[3.426961,47.994513],[3.426849,47.994401],[3.426799,47.994351],[3.426546,47.994229],[3.426547,47.994198],[3.426549,47.993995],[3.426568,47.993364],[3.426578,47.993342],[3.426619,47.992977],[3.426646,47.992667],[3.425667,47.992365],[3.425785,47.99201],[3.425988,47.991404],[3.42599,47.991372],[3.4262,47.991131],[3.426435,47.990824],[3.426445,47.990811],[3.426502,47.990737],[3.426709,47.990412],[3.42699,47.989972],[3.42724,47.989671],[3.427372,47.989541],[3.427903,47.989015],[3.428096,47.988715],[3.428259,47.988493],[3.428299,47.988433],[3.428336,47.988392],[3.428589,47.988107],[3.429474,47.987784],[3.429776,47.987747],[3.430006,47.987643],[3.430464,47.987346],[3.431079,47.986776],[3.431706,47.986204],[3.43205,47.985754],[3.432249,47.985298],[3.432442,47.98472],[3.432745,47.984026],[3.432865,47.98376],[3.43314,47.983376],[3.433706,47.982861],[3.433877,47.982649],[3.434459,47.981516],[3.434684,47.981082],[3.435001,47.98096],[3.43534,47.980862],[3.435695,47.980842],[3.435765,47.980839],[3.436253,47.980921],[3.43658,47.980977],[3.437128,47.981207],[3.437486,47.981325],[3.4377,47.981385],[3.437965,47.981444],[3.439014,47.981681],[3.439037,47.981627],[3.439514,47.980523],[3.439526,47.980494],[3.439736,47.979997],[3.439899,47.97962],[3.439914,47.979584],[3.439927,47.979511],[3.439968,47.979261],[3.43998,47.97919],[3.440003,47.979053],[3.440024,47.978924],[3.440093,47.978513],[3.440127,47.978308],[3.44019,47.977929],[3.440202,47.977897],[3.440204,47.977857],[3.440435,47.976486],[3.440484,47.976197],[3.440399,47.974398],[3.440397,47.974344],[3.440397,47.974198],[3.439995,47.973436],[3.439355,47.972221],[3.438481,47.97055],[3.437863,47.969538],[3.437831,47.969487],[3.437518,47.969395],[3.437303,47.969327],[3.436794,47.969189],[3.436706,47.969162],[3.436623,47.969141],[3.436496,47.969105],[3.436362,47.969084],[3.436123,47.969048],[3.433895,47.968708],[3.433566,47.968373],[3.433525,47.968338],[3.433448,47.968285],[3.432649,47.968042],[3.432538,47.968013],[3.431344,47.967657],[3.43039,47.96736],[3.428835,47.966882],[3.428708,47.96681],[3.428642,47.966773],[3.428158,47.966503],[3.427367,47.966055],[3.426885,47.965783],[3.426458,47.965539],[3.42623,47.965416],[3.425929,47.965245],[3.425388,47.964938],[3.424731,47.964564],[3.424656,47.964524],[3.4245,47.964435],[3.424424,47.964395],[3.424301,47.964323],[3.424211,47.964271],[3.423964,47.964243],[3.42364,47.964198],[3.423472,47.964175],[3.423376,47.964161],[3.423175,47.964133],[3.422882,47.964096],[3.421674,47.963933],[3.420698,47.963806],[3.420006,47.963713],[3.419575,47.963657],[3.419386,47.963634],[3.418759,47.963549],[3.418549,47.963522],[3.418469,47.963511],[3.418369,47.963497],[3.418013,47.963448],[3.417922,47.963437],[3.417835,47.963425],[3.417745,47.963413],[3.417458,47.963376],[3.417377,47.963366],[3.41718,47.963339],[3.416907,47.963304],[3.416748,47.963283],[3.416661,47.963271],[3.416526,47.963254],[3.416246,47.963217],[3.416052,47.963195],[3.415968,47.963187],[3.415878,47.963177],[3.415796,47.963168],[3.415725,47.96316],[3.414745,47.963045],[3.412483,47.962792],[3.411981,47.962725],[3.411332,47.962629],[3.411094,47.962593],[3.41098,47.962578],[3.410451,47.962503],[3.410092,47.96245],[3.409992,47.962435],[3.409871,47.962416],[3.409772,47.962403],[3.409716,47.962395],[3.409653,47.962385],[3.409577,47.962374],[3.409477,47.962361],[3.40938,47.962347],[3.409235,47.962326],[3.409181,47.96232],[3.409086,47.962305],[3.408462,47.962217],[3.408288,47.962193],[3.408224,47.962183],[3.407925,47.962141],[3.407573,47.962089],[3.40749,47.962079],[3.407382,47.962063],[3.407173,47.962034],[3.407016,47.96201],[3.406926,47.961996],[3.40681,47.961979],[3.406712,47.961967],[3.406596,47.961952],[3.40649,47.961938],[3.406396,47.961923],[3.4063,47.961911],[3.406212,47.961898],[3.406139,47.961888],[3.405968,47.961865],[3.405686,47.961826],[3.405438,47.961792],[3.405333,47.961778],[3.405227,47.961764],[3.405118,47.961749],[3.404942,47.961726],[3.404166,47.961619],[3.404054,47.961605],[3.403434,47.961523],[3.401809,47.961305],[3.40168,47.961289],[3.401646,47.961284],[3.401489,47.961266],[3.399364,47.960984],[3.39866,47.960892],[3.397754,47.960774],[3.397517,47.960743],[3.396976,47.960673],[3.39659,47.960622],[3.396479,47.960607],[3.396266,47.96058],[3.395873,47.960529],[3.395382,47.960468],[3.394908,47.960406],[3.394759,47.960387],[3.394628,47.960369],[3.39458,47.960363],[3.394389,47.96034],[3.39403,47.960294],[3.393863,47.960271],[3.393643,47.960242],[3.393545,47.96023],[3.393384,47.96021],[3.393364,47.960208],[3.393337,47.960204],[3.393299,47.96024],[3.393077,47.959849],[3.393052,47.959805],[3.393021,47.959811],[3.392992,47.959761],[3.392822,47.959525],[3.392151,47.958605],[3.392122,47.958573],[3.39073,47.959192],[3.388584,47.960135]]]]}}]}
