{"type":"FeatureCollection","features":[{"type":"Feature","id":"inao-denom-372","properties":{"id":"inao-denom-372","name":"Bourgogne Le Chapitre","tier":"regional","kind":"appellation","appellationId":138,"denominationId":372,"sourceName":"Bourgogne Le Chapitre","communes":["21166"],"areaHa":5.03},"geometry":{"type":"MultiPolygon","coordinates":[[[[4.9982332,47.2951937],[4.9985928,47.2958568],[4.9987183,47.2958393],[4.9989619,47.2958045],[4.9985562,47.2950738],[4.9982332,47.2951937]]],[[[5.0002404,47.2947279],[5.000258,47.2945959],[4.9987088,47.2948974],[4.9985851,47.294921],[4.9986236,47.2950276],[4.9987121,47.2952284],[4.9987409,47.295277],[4.9987699,47.2953275],[4.998799,47.2953842],[4.9988172,47.2954269],[4.9988444,47.2954723],[4.9988754,47.2954964],[4.9989505,47.2956637],[4.9990355,47.2957266],[4.9990612,47.2957312],[4.9990422,47.2957438],[4.99905,47.2957917],[4.9991842,47.2957679],[4.9992052,47.2958053],[4.9992116,47.2958165],[4.9991794,47.2958385],[4.9993417,47.2960023],[4.9993524,47.296047],[4.9994988,47.2961467],[4.9996056,47.2962327],[4.9996835,47.2962682],[4.9997247,47.2962828],[4.9997608,47.2962873],[4.9998566,47.2962774],[5.0000731,47.2962441],[5.0001358,47.2962327],[5.0001834,47.2962217],[5.0002741,47.2961977],[5.0003485,47.296179],[5.0004004,47.2961618],[5.00043,47.29615],[5.0004507,47.2961395],[5.0004874,47.2961173],[5.0004975,47.296108],[5.0005031,47.2960926],[5.0005043,47.2960864],[5.0005082,47.2960711],[5.0004937,47.2955614],[5.0005075,47.2954866],[5.0004503,47.2952413],[5.0003937,47.2950942],[5.0002404,47.2947279]]],[[[5.0023957,47.296907],[5.0022173,47.2967159],[5.0016775,47.2961336],[5.0015794,47.2960403],[5.0014086,47.2960913],[5.001324,47.2961172],[5.0012696,47.2960283],[5.0012296,47.2959646],[5.0012152,47.2959404],[5.0006639,47.2960959],[5.0006016,47.2961184],[5.0005914,47.2961258],[5.0005755,47.2961435],[5.0005698,47.2961528],[5.0005701,47.2961619],[5.0005789,47.2961965],[5.000697,47.2966236],[5.0008367,47.2970289],[5.0009122,47.2972401],[5.0009259,47.2974054],[5.0025062,47.2970512],[5.0024272,47.2969443],[5.0023957,47.296907]]],[[[5.00007,47.2974917],[4.9998408,47.2969418],[4.9997566,47.2967778],[4.9997998,47.2967688],[5.000031,47.2973319],[5.0008448,47.2972034],[5.0006287,47.2966054],[5.000597,47.2965191],[5.0005919,47.2965008],[5.0005664,47.2964236],[5.0004942,47.2962204],[5.0004808,47.2961799],[5.0004169,47.2961993],[5.0002849,47.2962445],[5.000215,47.2962631],[4.999969,47.2963103],[4.9998629,47.2963253],[4.999779,47.2963319],[4.999722,47.296335],[4.9996784,47.2963346],[4.9996148,47.2963194],[4.9994857,47.2962011],[4.9994674,47.2961922],[4.9995971,47.2966906],[4.9992717,47.2967443],[4.9990641,47.2967764],[4.9990751,47.2968293],[4.9991704,47.2969677],[4.9991332,47.2970194],[4.9990326,47.2970988],[4.9988564,47.2969639],[4.9987152,47.2970859],[4.9988499,47.2972347],[4.9990539,47.2977534],[4.9993992,47.2976657],[5.00007,47.2974917]],[[4.9989569,47.2973239],[4.9989057,47.2972819],[4.9988499,47.2972347],[4.9989569,47.2973239]]]]}},{"type":"Feature","id":"commune-21166","properties":{"id":"commune-21166","name":"Chenôve","kind":"commune","tier":"commune"},"geometry":{"type":"MultiPolygon","coordinates":[[[[5.020523,47.29986],[5.020546,47.2999],[5.020588,47.299974],[5.020617,47.300025],[5.020638,47.300063],[5.020667,47.300115],[5.020701,47.300176],[5.02074,47.300248],[5.020755,47.300275],[5.02092,47.300568],[5.020953,47.300622],[5.021011,47.300724],[5.021069,47.300824],[5.021187,47.301034],[5.021245,47.301137],[5.021301,47.301236],[5.021354,47.301329],[5.021472,47.301539],[5.021532,47.301646],[5.02165,47.301856],[5.02166,47.301872],[5.021747,47.30203],[5.021768,47.302065],[5.0218,47.302118],[5.022498,47.301893],[5.022786,47.3018],[5.023078,47.301548],[5.023077,47.301547],[5.023058,47.301527],[5.02291,47.301373],[5.022712,47.301167],[5.022612,47.301062],[5.022567,47.301015],[5.02254,47.300987],[5.022518,47.300964],[5.022499,47.300944],[5.022467,47.30091],[5.022323,47.300758],[5.02218,47.300608],[5.022153,47.300579],[5.022083,47.300506],[5.021825,47.300238],[5.021639,47.30013],[5.02124,47.299647],[5.021373,47.299596],[5.021206,47.299409],[5.021193,47.299394],[5.021175,47.299374],[5.02118,47.299373],[5.021163,47.299353],[5.020977,47.299142],[5.020856,47.299004],[5.020822,47.298965],[5.020975,47.298901],[5.021127,47.298836],[5.021302,47.298762],[5.021397,47.29872],[5.021743,47.298501],[5.021919,47.298387],[5.022262,47.298171],[5.022603,47.297959],[5.022879,47.297725],[5.022921,47.297701],[5.02292,47.297697],[5.023104,47.297541],[5.023233,47.297425],[5.023447,47.297258],[5.02363,47.297109],[5.023883,47.296904],[5.023938,47.296859],[5.024061,47.296765],[5.024165,47.29668],[5.024173,47.296673],[5.024261,47.296601],[5.024265,47.296598],[5.024435,47.296458],[5.024506,47.2964],[5.024516,47.296392],[5.024591,47.29633],[5.024609,47.296316],[5.024652,47.29628],[5.024683,47.296255],[5.024719,47.296397],[5.02486,47.296946],[5.024889,47.297055],[5.025115,47.29793],[5.025143,47.29804],[5.025298,47.298637],[5.025401,47.299059],[5.02545,47.299245],[5.025471,47.299332],[5.025517,47.299358],[5.025501,47.299328],[5.02562,47.299187],[5.025672,47.299126],[5.025738,47.299047],[5.026217,47.298655],[5.026304,47.298584],[5.026379,47.298523],[5.026543,47.298371],[5.026605,47.298314],[5.026634,47.29829],[5.026671,47.298261],[5.026773,47.298181],[5.026832,47.298134],[5.026874,47.298102],[5.027427,47.297674],[5.027548,47.297579],[5.027605,47.297534],[5.027624,47.29752],[5.028569,47.296704],[5.028947,47.296544],[5.029598,47.296271],[5.029219,47.29588],[5.028965,47.29545],[5.028792,47.294996],[5.028697,47.294581],[5.028695,47.294546],[5.028694,47.294477],[5.028796,47.294044],[5.028883,47.293729],[5.029031,47.293364],[5.029136,47.293187],[5.029297,47.292915],[5.029322,47.292854],[5.029361,47.292791],[5.029382,47.292709],[5.029519,47.292297],[5.029468,47.292114],[5.029982,47.291616],[5.030477,47.291141],[5.031025,47.290921],[5.030698,47.290308],[5.030466,47.289883],[5.030191,47.289375],[5.029166,47.286254],[5.029422,47.286125],[5.029506,47.285903],[5.029538,47.28582],[5.029597,47.285662],[5.029704,47.285381],[5.02971,47.28536],[5.029743,47.285313],[5.029756,47.285295],[5.029845,47.285167],[5.030006,47.28513],[5.030013,47.285128],[5.030679,47.28524],[5.03086,47.285083],[5.031017,47.284814],[5.031273,47.284699],[5.031305,47.284684],[5.031366,47.284619],[5.031298,47.284423],[5.031267,47.284432],[5.030935,47.283585],[5.030556,47.282733],[5.030535,47.282694],[5.030501,47.282629],[5.02914,47.279992],[5.029135,47.279976],[5.028667,47.278498],[5.028612,47.278324],[5.027668,47.278651],[5.027113,47.278841],[5.027017,47.279001],[5.026979,47.279055],[5.02682,47.279283],[5.026479,47.279773],[5.026443,47.279824],[5.026382,47.279912],[5.02637,47.279914],[5.026305,47.279922],[5.026043,47.279957],[5.025977,47.279966],[5.025726,47.279999],[5.025678,47.280005],[5.024058,47.280221],[5.023747,47.28026],[5.021881,47.280502],[5.021293,47.280516],[5.021244,47.280517],[5.021112,47.280558],[5.020923,47.280592],[5.019465,47.280846],[5.019358,47.280863],[5.018347,47.28104],[5.017689,47.281151],[5.016669,47.281317],[5.01555,47.281501],[5.015476,47.281514],[5.01505,47.281585],[5.01499,47.281597],[5.013662,47.281811],[5.013608,47.28182],[5.013504,47.281836],[5.012631,47.281984],[5.01242,47.282022],[5.012292,47.282048],[5.011816,47.282141],[5.011631,47.282181],[5.010214,47.282486],[5.009705,47.282596],[5.009678,47.282602],[5.009409,47.28266],[5.009201,47.282697],[5.009047,47.282721],[5.009037,47.282723],[5.008831,47.282764],[5.008762,47.282778],[5.008473,47.282836],[5.008207,47.282889],[5.007403,47.28305],[5.007152,47.2831],[5.006875,47.283155],[5.006835,47.283164],[5.006754,47.283182],[5.006707,47.283192],[5.006516,47.283236],[5.006473,47.283246],[5.006362,47.283271],[5.00603,47.283347],[5.005802,47.2834],[5.005276,47.283522],[5.003993,47.283861],[5.003698,47.283938],[5.003575,47.283971],[5.003487,47.283995],[5.003407,47.284017],[5.003305,47.284044],[5.003214,47.284069],[5.003168,47.284081],[5.003123,47.284093],[5.00292,47.284148],[5.002843,47.284168],[5.002674,47.284214],[5.002369,47.284296],[5.002315,47.28431],[5.002307,47.284312],[5.001911,47.284419],[5.001827,47.284433],[5.001743,47.284447],[5.001568,47.284468],[5.001549,47.28447],[5.00149,47.284477],[5.001452,47.284482],[5.001421,47.284485],[5.001291,47.284501],[5.001211,47.284509],[5.000859,47.28455],[5.000622,47.284578],[5.000607,47.284579],[5.000501,47.284592],[5.000357,47.284608],[5.000341,47.28461],[5.000281,47.284619],[5.000121,47.28464],[5.000061,47.284648],[5.000045,47.28465],[4.999897,47.284671],[4.999624,47.284707],[4.999255,47.284756],[4.999131,47.284772],[4.999066,47.284781],[4.99901,47.284799],[4.998941,47.284803],[4.998908,47.284831],[4.997863,47.285075],[4.99661,47.285469],[4.996572,47.285513],[4.996299,47.285582],[4.996078,47.285638],[4.995896,47.285701],[4.995788,47.285734],[4.995692,47.285762],[4.99535,47.285814],[4.995128,47.285887],[4.9948,47.285933],[4.994313,47.286093],[4.993593,47.286351],[4.993378,47.286421],[4.993115,47.286501],[4.992298,47.286732],[4.991594,47.286932],[4.990663,47.287343],[4.989901,47.287674],[4.989333,47.287898],[4.988927,47.288063],[4.988418,47.288271],[4.987914,47.288481],[4.987798,47.288523],[4.98698,47.288816],[4.985966,47.289179],[4.985577,47.289308],[4.985072,47.289586],[4.985048,47.289595],[4.985036,47.289567],[4.985029,47.289579],[4.98502,47.289573],[4.984611,47.289826],[4.984038,47.29019],[4.983868,47.290301],[4.982894,47.290936],[4.982695,47.291066],[4.981428,47.291906],[4.980961,47.292216],[4.980922,47.292242],[4.980333,47.292634],[4.980246,47.292691],[4.980187,47.29273],[4.979732,47.293032],[4.979415,47.293245],[4.979362,47.293278],[4.97916,47.29338],[4.978416,47.293766],[4.978292,47.293824],[4.977957,47.293981],[4.976092,47.294848],[4.975919,47.294929],[4.973969,47.295836],[4.972897,47.296336],[4.972139,47.296687],[4.972059,47.296724],[4.97133,47.297065],[4.970474,47.297385],[4.970589,47.297618],[4.970707,47.297824],[4.970557,47.297987],[4.970226,47.298236],[4.970165,47.2983],[4.969234,47.298472],[4.968972,47.298546],[4.968918,47.298609],[4.970739,47.299654],[4.97377,47.301356],[4.974247,47.301616],[4.97598,47.302549],[4.978612,47.303906],[4.979346,47.303508],[4.979934,47.303193],[4.97994,47.30319],[4.980505,47.30288],[4.980565,47.302853],[4.981483,47.302356],[4.981769,47.3022],[4.981833,47.302168],[4.981881,47.302145],[4.981918,47.302141],[4.982825,47.302064],[4.98337,47.302017],[4.983967,47.301966],[4.984379,47.301931],[4.984849,47.30189],[4.985259,47.301855],[4.985297,47.301852],[4.985837,47.301806],[4.985839,47.301805],[4.986223,47.301777],[4.986279,47.301773],[4.986343,47.301769],[4.986801,47.301735],[4.987125,47.301712],[4.987343,47.301696],[4.987397,47.301694],[4.987441,47.301693],[4.988021,47.301669],[4.988875,47.301635],[4.988923,47.301633],[4.989166,47.301623],[4.989216,47.301621],[4.98945,47.301612],[4.989505,47.30161],[4.990088,47.301586],[4.990141,47.301584],[4.990254,47.30158],[4.990302,47.301578],[4.990437,47.301573],[4.990568,47.301567],[4.991447,47.30153],[4.991541,47.301526],[4.991789,47.301516],[4.992012,47.301503],[4.993666,47.301404],[4.993769,47.301399],[4.993817,47.301392],[4.994263,47.301374],[5.00031,47.300381],[5.000323,47.300379],[5.000443,47.300355],[5.000654,47.300312],[5.000678,47.300307],[5.000905,47.30026],[5.001123,47.300215],[5.001197,47.300199],[5.001252,47.300188],[5.001265,47.300186],[5.001709,47.300105],[5.001798,47.300092],[5.001815,47.30009],[5.002161,47.300042],[5.003117,47.299897],[5.00461,47.299601],[5.004614,47.299603],[5.004705,47.299692],[5.004763,47.299749],[5.004812,47.299796],[5.00494,47.299919],[5.004986,47.299964],[5.005114,47.300082],[5.005377,47.300316],[5.005457,47.300388],[5.005554,47.300475],[5.005647,47.300558],[5.00574,47.300642],[5.005745,47.300647],[5.00586,47.300748],[5.005961,47.300838],[5.006068,47.300933],[5.006186,47.301039],[5.006293,47.301133],[5.006408,47.301235],[5.006517,47.301332],[5.006624,47.301426],[5.006679,47.301476],[5.006698,47.301538],[5.00677,47.301598],[5.006807,47.30163],[5.006923,47.301728],[5.006802,47.301792],[5.00671,47.30184],[5.006645,47.301874],[5.006755,47.301932],[5.006838,47.301976],[5.006961,47.30204],[5.007017,47.302296],[5.007467,47.302175],[5.007782,47.302096],[5.007933,47.302057],[5.008154,47.302002],[5.008462,47.301914],[5.008587,47.301864],[5.009276,47.302651],[5.009459,47.302632],[5.009518,47.30269],[5.010138,47.302603],[5.010319,47.302584],[5.010517,47.302558],[5.010694,47.302534],[5.010896,47.302507],[5.011068,47.302485],[5.011246,47.302461],[5.011421,47.302438],[5.011625,47.302411],[5.0118,47.302388],[5.01197,47.302366],[5.012185,47.302337],[5.01236,47.302314],[5.01256,47.302287],[5.0134,47.302176],[5.013884,47.302112],[5.01526,47.301927],[5.015276,47.301925],[5.015293,47.301924],[5.015331,47.301918],[5.015762,47.301843],[5.015789,47.301835],[5.016195,47.301729],[5.016225,47.301717],[5.016254,47.301708],[5.016255,47.301708],[5.01646,47.301642],[5.016484,47.301634],[5.016629,47.301585],[5.016754,47.301542],[5.016858,47.301506],[5.016961,47.30147],[5.017068,47.301432],[5.017163,47.301399],[5.017164,47.301398],[5.017612,47.30125],[5.017679,47.301224],[5.017101,47.300747],[5.017172,47.300701],[5.017704,47.300419],[5.017731,47.300443],[5.017977,47.300319],[5.017985,47.300315],[5.018085,47.300287],[5.018173,47.300244],[5.018339,47.300166],[5.018339,47.300165],[5.018506,47.300102],[5.018658,47.300025],[5.018664,47.300022],[5.018735,47.300002],[5.018938,47.299948],[5.019017,47.299926],[5.019066,47.299906],[5.019224,47.299842],[5.019308,47.299938],[5.019508,47.299874],[5.019567,47.299853],[5.019888,47.299742],[5.019865,47.299706],[5.019966,47.299679],[5.019995,47.29967],[5.020038,47.299659],[5.020363,47.299575],[5.020421,47.29968],[5.020447,47.299723],[5.020523,47.29986]]]]}}]}
