{"type":"FeatureCollection","features":[{"type":"Feature","id":"inao-denom-369","properties":{"id":"inao-denom-369","name":"Bourgogne Épineuil","tier":"regional","kind":"appellation","appellationId":138,"denominationId":369,"sourceName":"Bourgogne Epineuil","communes":["89153"],"areaHa":383.47},"geometry":{"type":"MultiPolygon","coordinates":[[[[3.980182,47.869169],[3.980163,47.869157],[3.980111,47.869125],[3.980021,47.869068],[3.979983,47.869045],[3.979927,47.869009],[3.97988,47.86898],[3.979755,47.868903],[3.979707,47.868873],[3.979459,47.868717],[3.979287,47.86861],[3.979091,47.868485],[3.978895,47.868367],[3.97875,47.868279],[3.978721,47.868262],[3.978692,47.868252],[3.978674,47.86825],[3.978638,47.86825],[3.978564,47.86826],[3.978496,47.868269],[3.978432,47.868281],[3.978324,47.868306],[3.978184,47.868338],[3.978148,47.868346],[3.978117,47.868357],[3.978028,47.868386],[3.977944,47.868412],[3.977904,47.868425],[3.97776,47.868472],[3.977662,47.86851],[3.977623,47.868526],[3.977536,47.86856],[3.977445,47.868596],[3.977415,47.868609],[3.97735,47.868643],[3.977254,47.868693],[3.977138,47.868753],[3.977052,47.8688],[3.977008,47.868826],[3.976941,47.86892],[3.976904,47.868975],[3.977021,47.869109],[3.977085,47.86918],[3.977241,47.869357],[3.977387,47.869522],[3.977551,47.869445],[3.977692,47.869608],[3.97773,47.869654],[3.977562,47.86972],[3.977639,47.869807],[3.977745,47.86993],[3.977872,47.870071],[3.977941,47.870148],[3.978012,47.870225],[3.978077,47.870294],[3.978139,47.870359],[3.978219,47.870432],[3.978327,47.870534],[3.978381,47.870539],[3.978589,47.870408],[3.978797,47.870277],[3.979089,47.870096],[3.979372,47.869921],[3.979621,47.869766],[3.979841,47.869628],[3.979863,47.869615],[3.980108,47.869462],[3.980204,47.869403],[3.980242,47.869378],[3.980268,47.869356],[3.980294,47.869332],[3.980306,47.869287],[3.980286,47.869249],[3.980245,47.869211],[3.980234,47.869201],[3.980217,47.86919],[3.980182,47.869169]]],[[[3.977828,47.870122],[3.977745,47.870032],[3.977633,47.869909],[3.977613,47.869917],[3.977525,47.869816],[3.977445,47.869723],[3.977402,47.869675],[3.97732,47.869582],[3.977292,47.869551],[3.977197,47.869441],[3.977104,47.869336],[3.977006,47.869227],[3.976903,47.869107],[3.976823,47.869294],[3.976759,47.869445],[3.976746,47.869446],[3.976751,47.869533],[3.976757,47.869638],[3.976766,47.869788],[3.976772,47.869893],[3.976807,47.870089],[3.976831,47.870205],[3.976831,47.870206],[3.976855,47.870283],[3.976878,47.87036],[3.976923,47.870515],[3.976951,47.870605],[3.976969,47.870653],[3.977021,47.870788],[3.977092,47.870968],[3.977112,47.871023],[3.977186,47.871035],[3.977407,47.870946],[3.977613,47.870863],[3.977878,47.870755],[3.977918,47.870739],[3.978238,47.87061],[3.978249,47.87058],[3.978177,47.870502],[3.978118,47.87044],[3.978082,47.870401],[3.977976,47.870283],[3.977828,47.870122]]],[[[3.981203,47.869797],[3.981027,47.869688],[3.980943,47.869639],[3.98086,47.869589],[3.980773,47.869536],[3.980499,47.869371],[3.980473,47.869356],[3.98043,47.869355],[3.980301,47.869435],[3.980256,47.869463],[3.980112,47.869553],[3.980057,47.869587],[3.979987,47.869631],[3.979883,47.869696],[3.979732,47.86979],[3.979549,47.869904],[3.979475,47.86995],[3.97922,47.87011],[3.978953,47.870276],[3.978865,47.870332],[3.978433,47.870602],[3.978425,47.870637],[3.978495,47.870719],[3.978586,47.870822],[3.97865,47.870897],[3.978676,47.870928],[3.978798,47.871071],[3.978909,47.871197],[3.979071,47.871382],[3.979221,47.871495],[3.979233,47.871501],[3.979315,47.871543],[3.979429,47.871603],[3.979505,47.871644],[3.979525,47.871654],[3.979578,47.871682],[3.979604,47.871706],[3.979629,47.871731],[3.979639,47.871742],[3.979651,47.871759],[3.97966,47.871776],[3.979669,47.871795],[3.979674,47.871808],[3.979681,47.871826],[3.979687,47.871856],[3.979693,47.871928],[3.979695,47.871955],[3.979706,47.872054],[3.979712,47.872108],[3.979715,47.872139],[3.979717,47.872147],[3.979722,47.872159],[3.979732,47.872176],[3.97974,47.872188],[3.97975,47.872199],[3.979765,47.872209],[3.979788,47.872221],[3.979825,47.872236],[3.980079,47.872332],[3.980441,47.87247],[3.980703,47.872569],[3.980757,47.872564],[3.980826,47.872485],[3.980952,47.87234],[3.981067,47.872208],[3.981159,47.872102],[3.981303,47.871937],[3.981377,47.87185],[3.981449,47.871729],[3.981481,47.871676],[3.981493,47.871634],[3.981513,47.871562],[3.981522,47.871528],[3.981526,47.871514],[3.981532,47.871483],[3.981552,47.87143],[3.981578,47.871354],[3.981583,47.871338],[3.981598,47.871257],[3.981615,47.871162],[3.981626,47.871106],[3.981638,47.871037],[3.981653,47.870956],[3.981673,47.87087],[3.981695,47.870801],[3.981738,47.870716],[3.981754,47.870692],[3.981792,47.870647],[3.981807,47.870633],[3.981888,47.87056],[3.982013,47.870466],[3.982131,47.87039],[3.982139,47.870379],[3.982144,47.870368],[3.981666,47.870078],[3.98149,47.869971],[3.981354,47.869889],[3.981278,47.869843],[3.981203,47.869797]]],[[[3.977873,47.870842],[3.977418,47.871025],[3.977203,47.871112],[3.977174,47.871163],[3.977232,47.871288],[3.977304,47.871326],[3.977453,47.871258],[3.977661,47.871164],[3.97775,47.871128],[3.978024,47.871017],[3.978084,47.870994],[3.978303,47.870907],[3.978453,47.870849],[3.978463,47.870822],[3.978405,47.870754],[3.978351,47.870689],[3.978338,47.870675],[3.978304,47.870667],[3.977931,47.870818],[3.977873,47.870842]]],[[[3.978706,47.871103],[3.978549,47.87092],[3.978503,47.870916],[3.97822,47.871026],[3.97795,47.87113],[3.977933,47.871115],[3.977747,47.871195],[3.977533,47.871284],[3.977419,47.871335],[3.97733,47.871378],[3.977296,47.871427],[3.977414,47.871687],[3.977434,47.871731],[3.977436,47.871734],[3.977465,47.871806],[3.977498,47.871922],[3.977523,47.872012],[3.977537,47.872076],[3.977554,47.872167],[3.977658,47.872177],[3.977804,47.872193],[3.97794,47.872206],[3.978092,47.872223],[3.978179,47.872231],[3.978332,47.872246],[3.978376,47.87225],[3.97853,47.872101],[3.978775,47.871861],[3.97876,47.871847],[3.978851,47.871766],[3.978941,47.871685],[3.979122,47.871521],[3.979019,47.87143],[3.97896,47.871372],[3.978896,47.871309],[3.978823,47.871238],[3.978789,47.8712],[3.978706,47.871103]]],[[[3.977497,47.872732],[3.977366,47.872731],[3.977177,47.87273],[3.976945,47.872728],[3.976892,47.872728],[3.976772,47.872727],[3.976605,47.872724],[3.97656,47.872722],[3.976513,47.87272],[3.976421,47.872713],[3.976372,47.87271],[3.976216,47.872695],[3.97595,47.872671],[3.975877,47.872665],[3.975712,47.87265],[3.975556,47.872636],[3.97556,47.872623],[3.975806,47.872646],[3.976044,47.872668],[3.976231,47.872685],[3.976452,47.872703],[3.9766,47.872712],[3.976785,47.872715],[3.977024,47.872717],[3.977169,47.872717],[3.97739,47.872719],[3.977496,47.872719],[3.977487,47.872661],[3.977479,47.872621],[3.977444,47.872445],[3.977427,47.872365],[3.977427,47.872363],[3.977416,47.87231],[3.977389,47.872177],[3.977387,47.872166],[3.977379,47.872128],[3.977346,47.871968],[3.977336,47.871925],[3.977307,47.871837],[3.977279,47.871751],[3.977247,47.871667],[3.977203,47.871555],[3.977195,47.87153],[3.977084,47.871283],[3.976988,47.871087],[3.976839,47.870706],[3.976768,47.870528],[3.976742,47.870441],[3.976722,47.870361],[3.976692,47.87022],[3.97668,47.870156],[3.976668,47.870088],[3.976655,47.870012],[3.976647,47.869946],[3.97664,47.869873],[3.976637,47.86984],[3.976626,47.869715],[3.976606,47.869514],[3.97652,47.869479],[3.97623,47.869617],[3.976213,47.869627],[3.976123,47.869693],[3.976079,47.869738],[3.975981,47.869837],[3.975901,47.869919],[3.975868,47.869944],[3.975777,47.87001],[3.975737,47.870037],[3.975652,47.870064],[3.975632,47.870069],[3.975562,47.870082],[3.975455,47.870103],[3.975421,47.870109],[3.975315,47.870119],[3.975275,47.870122],[3.97518,47.870117],[3.975043,47.870112],[3.974998,47.87011],[3.974887,47.870101],[3.974704,47.870085],[3.974555,47.870071],[3.974401,47.870062],[3.974076,47.870108],[3.974052,47.870112],[3.974015,47.870116],[3.973908,47.870162],[3.973797,47.870221],[3.973703,47.870273],[3.973555,47.870379],[3.973376,47.870543],[3.973304,47.870609],[3.973095,47.870843],[3.972911,47.871056],[3.972778,47.871206],[3.972723,47.87127],[3.972606,47.871422],[3.972572,47.871469],[3.972532,47.871523],[3.97243,47.871698],[3.972358,47.871824],[3.972342,47.871854],[3.97228,47.872011],[3.972235,47.872131],[3.972207,47.872244],[3.972194,47.872307],[3.972168,47.87242],[3.972103,47.872703],[3.97208,47.872781],[3.974039,47.873626],[3.974307,47.873737],[3.974509,47.873824],[3.974753,47.873928],[3.975054,47.874055],[3.975198,47.874114],[3.975273,47.874148],[3.97534,47.874183],[3.975503,47.874105],[3.975641,47.874036],[3.975849,47.873939],[3.976169,47.873717],[3.976422,47.873542],[3.976557,47.87346],[3.976599,47.873433],[3.976628,47.873417],[3.97666,47.873403],[3.976683,47.873393],[3.976791,47.873358],[3.976887,47.873333],[3.976979,47.873319],[3.977066,47.873318],[3.977138,47.873317],[3.977309,47.873335],[3.97743,47.873355],[3.977511,47.873369],[3.97765,47.873403],[3.97767,47.873343],[3.977606,47.873211],[3.977608,47.873211],[3.977605,47.873202],[3.977564,47.873038],[3.977497,47.872732]]],[[[3.97978,47.872296],[3.979731,47.872278],[3.979699,47.872264],[3.979687,47.872257],[3.979661,47.872236],[3.979647,47.872221],[3.979637,47.872208],[3.979625,47.872188],[3.979616,47.872167],[3.97961,47.872148],[3.979601,47.872065],[3.979586,47.871918],[3.979577,47.871854],[3.979567,47.871817],[3.97956,47.871805],[3.979539,47.871772],[3.979512,47.871744],[3.9795,47.871733],[3.979465,47.871711],[3.97943,47.871692],[3.979349,47.87165],[3.979171,47.871557],[3.978987,47.871724],[3.978899,47.871805],[3.978839,47.87186],[3.978743,47.871954],[3.978663,47.872031],[3.978584,47.872108],[3.978512,47.872181],[3.978407,47.872284],[3.978156,47.872259],[3.977777,47.872221],[3.977637,47.872206],[3.97756,47.872199],[3.977564,47.872228],[3.977576,47.872299],[3.977609,47.872504],[3.977645,47.872698],[3.977672,47.872827],[3.977719,47.873063],[3.977867,47.873078],[3.978134,47.873108],[3.978513,47.87315],[3.978708,47.873173],[3.97884,47.873189],[3.979024,47.873222],[3.97912,47.873244],[3.979277,47.87328],[3.979434,47.873329],[3.979502,47.873301],[3.979554,47.87328],[3.979647,47.87324],[3.979847,47.873158],[3.979839,47.873149],[3.980095,47.873045],[3.98011,47.873049],[3.980234,47.872975],[3.980358,47.8729],[3.980383,47.872885],[3.980416,47.872863],[3.980546,47.872781],[3.980571,47.872763],[3.980657,47.872704],[3.980701,47.872672],[3.9807,47.872648],[3.980636,47.872623],[3.98019,47.872454],[3.979838,47.87232],[3.97978,47.872296]]],[[[3.980489,47.875083],[3.980408,47.875053],[3.980306,47.875009],[3.980086,47.874914],[3.979891,47.87483],[3.979739,47.874765],[3.979659,47.87473],[3.97959,47.8747],[3.979448,47.874639],[3.97945,47.874631],[3.979328,47.874579],[3.979325,47.874584],[3.979304,47.874574],[3.97922,47.874538],[3.979144,47.874506],[3.9791,47.874508],[3.978995,47.874751],[3.978909,47.874948],[3.978864,47.875054],[3.97876,47.875299],[3.978737,47.875353],[3.978726,47.875381],[3.978636,47.875585],[3.978575,47.875713],[3.978515,47.875844],[3.978464,47.875966],[3.978441,47.876021],[3.978433,47.876043],[3.978425,47.876072],[3.978424,47.876087],[3.978423,47.876109],[3.978426,47.876132],[3.978434,47.876146],[3.978442,47.876153],[3.978458,47.876163],[3.978481,47.876172],[3.978512,47.876183],[3.978573,47.876203],[3.978679,47.876231],[3.978884,47.876282],[3.978963,47.876299],[3.978964,47.876294],[3.97899,47.8763],[3.979172,47.876339],[3.979296,47.876365],[3.979381,47.876306],[3.979406,47.876214],[3.979419,47.876181],[3.979438,47.876143],[3.979446,47.87613],[3.979463,47.876106],[3.979485,47.876078],[3.979505,47.87608],[3.979524,47.876053],[3.979546,47.876027],[3.979563,47.876012],[3.979625,47.875972],[3.979661,47.875946],[3.979737,47.875905],[3.979882,47.875841],[3.97992,47.875825],[3.980049,47.875768],[3.980137,47.875732],[3.980191,47.875712],[3.980316,47.875668],[3.98035,47.875658],[3.980368,47.875655],[3.980483,47.875643],[3.980596,47.875632],[3.980851,47.875607],[3.981058,47.875587],[3.98109,47.875578],[3.981111,47.875569],[3.981134,47.875555],[3.981153,47.875537],[3.981188,47.875495],[3.981218,47.875411],[3.981183,47.875365],[3.980925,47.875258],[3.980654,47.875148],[3.980594,47.875124],[3.980489,47.875083]]],[[[3.970516,47.87416],[3.970186,47.874381],[3.969849,47.874605],[3.969475,47.874932],[3.96935,47.875042],[3.969037,47.875529],[3.968871,47.875746],[3.968754,47.8759],[3.96843,47.876324],[3.968284,47.876525],[3.96822,47.87661],[3.968177,47.876672],[3.967955,47.877101],[3.967942,47.877138],[3.967828,47.877544],[3.967699,47.878179],[3.967603,47.87855],[3.967638,47.878561],[3.967948,47.878437],[3.968323,47.878337],[3.968382,47.878327],[3.968755,47.878282],[3.969112,47.878262],[3.969467,47.878204],[3.969746,47.878116],[3.970114,47.877968],[3.970544,47.87773],[3.970665,47.877638],[3.970761,47.877565],[3.970933,47.877435],[3.97098,47.877395],[3.97142,47.877019],[3.971443,47.876998],[3.971586,47.876887],[3.971795,47.876725],[3.971919,47.876656],[3.97228,47.876448],[3.972654,47.876268],[3.973017,47.876093],[3.97334,47.875909],[3.973505,47.875775],[3.973609,47.87569],[3.974598,47.874764],[3.974587,47.874713],[3.972662,47.873904],[3.972045,47.873862],[3.971452,47.873849],[3.971094,47.873847],[3.970516,47.87416]]],[[[3.980553,47.875797],[3.980555,47.875838],[3.98056,47.875921],[3.980431,47.875927],[3.980433,47.875954],[3.980378,47.875956],[3.980294,47.875959],[3.980294,47.875893],[3.980287,47.875728],[3.980269,47.875735],[3.979961,47.87587],[3.979765,47.875954],[3.979714,47.87598],[3.979668,47.87601],[3.979638,47.876033],[3.9796,47.876068],[3.979561,47.876115],[3.979538,47.87615],[3.979513,47.876199],[3.979493,47.876249],[3.979488,47.876274],[3.979484,47.876295],[3.979486,47.876324],[3.979497,47.876353],[3.979824,47.876434],[3.979919,47.876459],[3.980052,47.876492],[3.980301,47.876559],[3.980469,47.876602],[3.980512,47.87662],[3.980585,47.876649],[3.980743,47.876714],[3.980973,47.876291],[3.981143,47.875979],[3.981149,47.875965],[3.980912,47.875971],[3.980889,47.875769],[3.980877,47.875661],[3.980602,47.875684],[3.980615,47.875791],[3.980553,47.875797]]],[[[3.97737,47.87593],[3.976969,47.875815],[3.976827,47.875998],[3.97679,47.875985],[3.976887,47.875855],[3.976927,47.875804],[3.976786,47.875768],[3.97628,47.875637],[3.976038,47.875531],[3.975927,47.875481],[3.975672,47.875344],[3.974941,47.874928],[3.974885,47.874896],[3.974802,47.874846],[3.974741,47.874813],[3.974671,47.87482],[3.974654,47.874842],[3.973715,47.875743],[3.973677,47.875776],[3.97343,47.875973],[3.973381,47.875999],[3.973366,47.87607],[3.973506,47.876135],[3.973598,47.876178],[3.973659,47.876205],[3.974167,47.876441],[3.97476,47.876713],[3.975015,47.87683],[3.975249,47.87694],[3.975441,47.877029],[3.976259,47.877406],[3.976903,47.877703],[3.977009,47.877688],[3.977222,47.877457],[3.97724,47.877437],[3.977288,47.877385],[3.977506,47.877144],[3.977537,47.87711],[3.977666,47.876969],[3.977707,47.876924],[3.977761,47.876851],[3.977865,47.876739],[3.977945,47.876653],[3.978347,47.876217],[3.978275,47.876195],[3.977898,47.876084],[3.977832,47.876065],[3.977587,47.875994],[3.97737,47.87593]]],[[[3.979787,47.877373],[3.979778,47.877355],[3.979711,47.877276],[3.97968,47.877222],[3.979666,47.877154],[3.979648,47.877057],[3.979647,47.876985],[3.979647,47.876831],[3.979658,47.876738],[3.979647,47.876621],[3.979644,47.876592],[3.979552,47.87651],[3.979342,47.876459],[3.979107,47.876406],[3.979028,47.876388],[3.979006,47.876383],[3.978698,47.876313],[3.978479,47.876263],[3.9784,47.87629],[3.97827,47.876432],[3.978149,47.876565],[3.977977,47.876754],[3.97781,47.876948],[3.977097,47.877728],[3.977124,47.877801],[3.977229,47.87784],[3.977258,47.877853],[3.977899,47.878098],[3.978257,47.878234],[3.978748,47.878424],[3.979039,47.878533],[3.979111,47.878521],[3.979179,47.878438],[3.979352,47.87825],[3.979456,47.878137],[3.979582,47.878],[3.979648,47.877911],[3.979665,47.877887],[3.979798,47.877702],[3.979835,47.877629],[3.979841,47.877604],[3.97985,47.877561],[3.97985,47.877553],[3.979848,47.877533],[3.979843,47.877508],[3.979821,47.877455],[3.979802,47.87741],[3.979787,47.877373]]],[[[3.973147,47.876119],[3.973078,47.876155],[3.97281,47.876284],[3.972346,47.876507],[3.972186,47.876595],[3.972058,47.876669],[3.971873,47.876776],[3.971534,47.877037],[3.971524,47.877045],[3.97141,47.877143],[3.971021,47.877477],[3.971006,47.87749],[3.970827,47.877624],[3.970619,47.877782],[3.970599,47.877793],[3.970177,47.878024],[3.9698,47.878178],[3.969511,47.87827],[3.969193,47.878322],[3.969145,47.878416],[3.969102,47.878569],[3.969116,47.87865],[3.969154,47.878701],[3.969237,47.878739],[3.969349,47.87879],[3.97013,47.879151],[3.970854,47.879485],[3.971488,47.879778],[3.971728,47.879889],[3.971358,47.880601],[3.97161,47.880649],[3.971986,47.880718],[3.972324,47.880762],[3.972821,47.880829],[3.973386,47.880901],[3.973607,47.88093],[3.973917,47.880971],[3.974003,47.880945],[3.974728,47.88016],[3.974749,47.880135],[3.975026,47.879838],[3.975204,47.879646],[3.975348,47.87949],[3.975691,47.879119],[3.975798,47.879003],[3.976192,47.878576],[3.976777,47.877944],[3.976884,47.877826],[3.976868,47.877776],[3.975625,47.877201],[3.974698,47.876772],[3.973276,47.876116],[3.973147,47.876119]]],[[[3.975363,47.879575],[3.974721,47.880268],[3.974088,47.880957],[3.974089,47.880994],[3.974653,47.881125],[3.974784,47.881153],[3.9751,47.881228],[3.975279,47.881268],[3.976185,47.881477],[3.976265,47.881458],[3.977119,47.880534],[3.977953,47.879627],[3.978029,47.879543],[3.978548,47.879144],[3.979001,47.878644],[3.978982,47.878596],[3.978229,47.878305],[3.97702,47.877845],[3.976947,47.877859],[3.976006,47.87888],[3.975363,47.879575]]],[[[3.982914,47.881541],[3.982565,47.881232],[3.982383,47.881069],[3.982346,47.881025],[3.98223,47.880886],[3.982101,47.880733],[3.981715,47.880069],[3.981501,47.879808],[3.981189,47.879498],[3.980865,47.879185],[3.980627,47.878847],[3.980433,47.878397],[3.980295,47.878125],[3.979957,47.877663],[3.979915,47.877664],[3.979847,47.877793],[3.97967,47.878032],[3.979328,47.878403],[3.979266,47.878473],[3.979204,47.878542],[3.979195,47.878552],[3.979085,47.878676],[3.978862,47.878924],[3.978783,47.879007],[3.97863,47.879178],[3.978094,47.879578],[3.978366,47.87974],[3.978637,47.879905],[3.978747,47.879971],[3.978858,47.880034],[3.979532,47.880298],[3.979711,47.880367],[3.979681,47.880398],[3.979095,47.880167],[3.978808,47.880056],[3.978596,47.879928],[3.978119,47.879641],[3.978066,47.879609],[3.977948,47.879733],[3.977059,47.880699],[3.977009,47.880753],[3.976336,47.881485],[3.976349,47.881531],[3.976371,47.88154],[3.97646,47.881575],[3.976709,47.881673],[3.976915,47.88175],[3.977508,47.881978],[3.977992,47.88223],[3.978141,47.882311],[3.978447,47.882468],[3.979885,47.883218],[3.980052,47.883305],[3.98033,47.883451],[3.98035,47.883462],[3.98074,47.883699],[3.980806,47.883741],[3.980904,47.883804],[3.981201,47.883985],[3.981246,47.884006],[3.981768,47.884251],[3.982257,47.884477],[3.982334,47.884472],[3.984524,47.882763],[3.984517,47.882713],[3.984065,47.882461],[3.984047,47.882452],[3.983509,47.882062],[3.983472,47.882036],[3.982914,47.881541]]],[[[3.983624,47.86598],[3.983523,47.866026],[3.983389,47.866089],[3.983359,47.866105],[3.983231,47.866166],[3.983193,47.866187],[3.983052,47.866261],[3.982965,47.866311],[3.982937,47.866327],[3.982831,47.866383],[3.982716,47.866446],[3.98269,47.866462],[3.982534,47.866547],[3.982367,47.866626],[3.982303,47.866656],[3.98195,47.866826],[3.981669,47.86696],[3.981618,47.866987],[3.981316,47.867136],[3.981212,47.867186],[3.980811,47.867388],[3.980776,47.867407],[3.980421,47.867581],[3.980331,47.867626],[3.980248,47.867663],[3.979905,47.867818],[3.979866,47.867835],[3.979465,47.867986],[3.979285,47.868055],[3.979131,47.868113],[3.978859,47.868192],[3.978848,47.868231],[3.979305,47.868521],[3.979663,47.868743],[3.980429,47.869228],[3.980506,47.869228],[3.980554,47.869195],[3.980826,47.869023],[3.980893,47.868979],[3.98097,47.868933],[3.981009,47.868906],[3.981128,47.86883],[3.981511,47.868585],[3.981612,47.86852],[3.98165,47.868494],[3.981843,47.868372],[3.982123,47.868195],[3.982189,47.868152],[3.982328,47.86802],[3.982392,47.867961],[3.982425,47.867925],[3.982617,47.867746],[3.982797,47.867574],[3.983046,47.867335],[3.983073,47.867309],[3.983197,47.867194],[3.983319,47.867077],[3.983343,47.867051],[3.983517,47.866889],[3.983542,47.866861],[3.983673,47.866739],[3.983827,47.866593],[3.983856,47.866575],[3.984176,47.866403],[3.984264,47.866356],[3.984507,47.866274],[3.984886,47.866148],[3.984506,47.865671],[3.984117,47.865805],[3.9839,47.865879],[3.983686,47.865953],[3.983624,47.86598]]],[[[3.98677,47.869001],[3.986747,47.868951],[3.986694,47.868842],[3.986618,47.868682],[3.986527,47.868491],[3.986417,47.868262],[3.986325,47.868073],[3.986276,47.867972],[3.98619,47.867866],[3.985917,47.867522],[3.985542,47.867059],[3.985338,47.866777],[3.985114,47.866468],[3.984943,47.86623],[3.984871,47.866213],[3.984775,47.866245],[3.984677,47.866278],[3.984329,47.866394],[3.984299,47.866406],[3.984166,47.866477],[3.983874,47.866635],[3.983665,47.866835],[3.983298,47.867187],[3.982993,47.867474],[3.98276,47.867701],[3.982594,47.867861],[3.982543,47.867907],[3.982501,47.867951],[3.982379,47.868064],[3.98225,47.868188],[3.982203,47.868219],[3.981995,47.868351],[3.98184,47.86845],[3.981688,47.868545],[3.98156,47.868629],[3.98142,47.868719],[3.981273,47.868811],[3.981114,47.868914],[3.980965,47.869011],[3.98092,47.869041],[3.980892,47.869055],[3.980733,47.869157],[3.980562,47.869268],[3.980562,47.869317],[3.980856,47.869494],[3.981326,47.869782],[3.981974,47.870173],[3.982209,47.870315],[3.982643,47.870572],[3.982803,47.870669],[3.982829,47.870689],[3.983142,47.87092],[3.983312,47.871046],[3.98342,47.871146],[3.983578,47.871308],[3.983703,47.87143],[3.983778,47.871479],[3.983968,47.871608],[3.984048,47.87161],[3.984386,47.871428],[3.984479,47.871375],[3.984812,47.871194],[3.985103,47.871035],[3.985428,47.870857],[3.985753,47.870678],[3.985819,47.870642],[3.986032,47.870524],[3.986524,47.870256],[3.987065,47.869958],[3.987189,47.869769],[3.987067,47.869547],[3.987028,47.869475],[3.987001,47.869424],[3.986931,47.869304],[3.986785,47.869033],[3.98677,47.869001]]],[[[3.990253,47.8714],[3.990219,47.871355],[3.990145,47.871255],[3.990089,47.871179],[3.990038,47.87111],[3.990009,47.87107],[3.989855,47.870916],[3.989753,47.87081],[3.989728,47.870786],[3.989666,47.870722],[3.989616,47.870671],[3.989379,47.870432],[3.98922,47.870272],[3.989189,47.870238],[3.98915,47.87019],[3.989042,47.870052],[3.988971,47.86996],[3.988941,47.86992],[3.988909,47.86987],[3.988887,47.869837],[3.988853,47.869784],[3.988782,47.869676],[3.988763,47.869646],[3.988741,47.869609],[3.988683,47.869521],[3.988665,47.869494],[3.988601,47.869398],[3.988578,47.869362],[3.988565,47.869338],[3.988471,47.86919],[3.988384,47.869054],[3.988366,47.869023],[3.98836,47.869003],[3.988297,47.868849],[3.988251,47.868731],[3.988236,47.868689],[3.988232,47.868667],[3.988179,47.868478],[3.988116,47.868251],[3.988077,47.8681],[3.988064,47.868054],[3.98806,47.868027],[3.988029,47.867919],[3.988025,47.867893],[3.988017,47.867854],[3.987971,47.867627],[3.987923,47.867392],[3.987881,47.86719],[3.987874,47.867142],[3.987873,47.867135],[3.987858,47.866992],[3.987853,47.866919],[3.987852,47.86689],[3.987838,47.866784],[3.987852,47.86678],[3.987847,47.866767],[3.987813,47.866734],[3.987816,47.866716],[3.987816,47.866642],[3.987819,47.866549],[3.987814,47.866465],[3.987801,47.866194],[3.987802,47.866138],[3.987796,47.866008],[3.987781,47.865605],[3.987776,47.865436],[3.987684,47.86525],[3.987514,47.864907],[3.987461,47.864801],[3.987337,47.864816],[3.987233,47.864829],[3.98701,47.864856],[3.986934,47.864866],[3.986879,47.864874],[3.98683,47.86488],[3.986535,47.864934],[3.986465,47.864948],[3.986373,47.864976],[3.986278,47.865003],[3.985948,47.865103],[3.985908,47.865117],[3.985842,47.865137],[3.98567,47.8652],[3.985473,47.865272],[3.985428,47.86529],[3.985377,47.865308],[3.985317,47.865332],[3.985261,47.865356],[3.984685,47.865609],[3.984606,47.865645],[3.984677,47.865736],[3.984978,47.866118],[3.985009,47.866161],[3.985168,47.866378],[3.985431,47.866739],[3.98544,47.866757],[3.985471,47.866795],[3.985566,47.866928],[3.985641,47.867031],[3.985657,47.867057],[3.985756,47.867183],[3.985817,47.86726],[3.985931,47.867406],[3.986291,47.867878],[3.98635,47.867951],[3.986359,47.867972],[3.986452,47.868159],[3.986524,47.868312],[3.986549,47.868368],[3.986744,47.868772],[3.986836,47.868963],[3.986861,47.869016],[3.986897,47.869085],[3.986988,47.869247],[3.987157,47.869557],[3.987233,47.869698],[3.987262,47.869749],[3.987296,47.869849],[3.987316,47.869902],[3.987321,47.869921],[3.987352,47.870004],[3.98737,47.870053],[3.987379,47.870087],[3.987436,47.870236],[3.987451,47.870278],[3.987455,47.870302],[3.987469,47.870336],[3.987553,47.870562],[3.987708,47.870988],[3.987737,47.87107],[3.987752,47.871101],[3.987867,47.871324],[3.987878,47.871348],[3.987914,47.871421],[3.987927,47.87145],[3.987948,47.871488],[3.98807,47.871723],[3.988117,47.871819],[3.988149,47.871867],[3.988193,47.871931],[3.988312,47.87211],[3.988323,47.872126],[3.988364,47.872186],[3.988384,47.87221],[3.988496,47.872333],[3.98857,47.872415],[3.988687,47.87254],[3.98876,47.872619],[3.9888,47.87268],[3.98885,47.872756],[3.988891,47.872818],[3.989114,47.873158],[3.989219,47.873322],[3.989311,47.873461],[3.989383,47.873477],[3.989591,47.873413],[3.989604,47.873381],[3.989641,47.873296],[3.98965,47.873279],[3.989672,47.873248],[3.989682,47.873227],[3.989723,47.873163],[3.989737,47.873143],[3.98992,47.8729],[3.990135,47.872612],[3.99026,47.872444],[3.990281,47.872395],[3.990352,47.872247],[3.990379,47.872149],[3.990411,47.872041],[3.990405,47.87184],[3.990405,47.871788],[3.990399,47.871764],[3.990371,47.871701],[3.990279,47.871468],[3.990253,47.8714]]],[[[3.988689,47.872643],[3.988582,47.872529],[3.98845,47.872384],[3.988408,47.872338],[3.98838,47.872305],[3.988296,47.872213],[3.988268,47.872173],[3.988181,47.872043],[3.988151,47.871999],[3.988043,47.871837],[3.987942,47.871643],[3.987879,47.871516],[3.98782,47.871397],[3.987718,47.871198],[3.987662,47.871087],[3.987651,47.871058],[3.987597,47.87091],[3.987539,47.870748],[3.98749,47.870612],[3.987396,47.870356],[3.987306,47.870102],[3.987285,47.870036],[3.98714,47.869987],[3.98709,47.870015],[3.986699,47.870228],[3.986424,47.870378],[3.986092,47.870561],[3.985805,47.870718],[3.985623,47.870817],[3.985593,47.870836],[3.985377,47.870953],[3.985332,47.870979],[3.985193,47.871055],[3.985124,47.871093],[3.985119,47.871096],[3.984886,47.871223],[3.984749,47.871298],[3.98469,47.871331],[3.984528,47.871418],[3.984475,47.871449],[3.984242,47.871574],[3.984106,47.871649],[3.984102,47.871698],[3.984167,47.871742],[3.984676,47.872083],[3.98487,47.872212],[3.985214,47.872443],[3.985318,47.872513],[3.985343,47.872531],[3.985545,47.872666],[3.985651,47.872737],[3.985684,47.872762],[3.985737,47.872795],[3.986288,47.873078],[3.98651,47.873192],[3.986543,47.87321],[3.986686,47.873281],[3.986751,47.873314],[3.986872,47.873381],[3.987289,47.873617],[3.987555,47.873766],[3.988026,47.874031],[3.988144,47.874098],[3.988227,47.874098],[3.989164,47.873585],[3.989215,47.873445],[3.989188,47.873405],[3.989068,47.873219],[3.98893,47.873012],[3.988789,47.872795],[3.988689,47.872643]]],[[[3.986167,47.873088],[3.986125,47.873066],[3.985948,47.872977],[3.98589,47.872947],[3.985868,47.872936],[3.985685,47.872843],[3.985597,47.872785],[3.985561,47.872762],[3.985354,47.872623],[3.985294,47.872583],[3.985273,47.872569],[3.985148,47.872487],[3.985038,47.872412],[3.984946,47.872351],[3.984789,47.872247],[3.984661,47.872161],[3.984597,47.872118],[3.984558,47.872092],[3.984379,47.871973],[3.984351,47.871954],[3.984108,47.87179],[3.984087,47.871777],[3.98399,47.871712],[3.983878,47.871637],[3.983831,47.871606],[3.983764,47.871561],[3.983636,47.871476],[3.983625,47.871466],[3.983506,47.871348],[3.98344,47.871281],[3.983422,47.871262],[3.983338,47.871174],[3.98331,47.871143],[3.983294,47.871129],[3.983095,47.870977],[3.982973,47.870883],[3.982886,47.870817],[3.982871,47.870807],[3.982853,47.870793],[3.982838,47.870782],[3.982755,47.870725],[3.982694,47.870683],[3.982624,47.870634],[3.982598,47.870617],[3.982472,47.870542],[3.982377,47.870485],[3.982282,47.870431],[3.982239,47.870406],[3.98223,47.870402],[3.982222,47.8704],[3.982212,47.870399],[3.982202,47.870398],[3.982188,47.870401],[3.982176,47.87041],[3.982087,47.870467],[3.982061,47.870485],[3.981994,47.87053],[3.981938,47.870569],[3.981893,47.870604],[3.981852,47.870646],[3.981821,47.870678],[3.981798,47.870709],[3.981767,47.870762],[3.981746,47.870805],[3.981724,47.87086],[3.981716,47.870898],[3.981704,47.870963],[3.98167,47.871166],[3.981643,47.871339],[3.981634,47.87139],[3.981616,47.871499],[3.981597,47.87158],[3.981582,47.871635],[3.981519,47.871814],[3.981451,47.871922],[3.981431,47.871949],[3.981368,47.872022],[3.981346,47.872045],[3.981315,47.872079],[3.981258,47.872142],[3.981104,47.872304],[3.981038,47.872382],[3.980953,47.872484],[3.980862,47.872597],[3.980878,47.872641],[3.981091,47.872713],[3.981222,47.872755],[3.981227,47.872744],[3.98128,47.872756],[3.981332,47.872768],[3.981506,47.872806],[3.981528,47.87282],[3.981803,47.872866],[3.981811,47.872849],[3.982005,47.872887],[3.982185,47.872922],[3.982177,47.872941],[3.982246,47.872959],[3.98248,47.873017],[3.982638,47.873054],[3.982723,47.873076],[3.982744,47.873044],[3.982842,47.873072],[3.982906,47.873094],[3.982965,47.873114],[3.983085,47.873155],[3.983132,47.873171],[3.983344,47.873242],[3.983416,47.873266],[3.983546,47.873309],[3.983637,47.87334],[3.983708,47.873364],[3.983691,47.873392],[3.983823,47.873436],[3.984013,47.873499],[3.984033,47.873473],[3.984383,47.873593],[3.984456,47.873618],[3.984757,47.873722],[3.984995,47.873805],[3.985081,47.873834],[3.985152,47.873859],[3.98523,47.873887],[3.985245,47.873895],[3.985316,47.873934],[3.98543,47.873994],[3.985547,47.874057],[3.985584,47.874077],[3.985641,47.874109],[3.985642,47.874109],[3.985725,47.874121],[3.985847,47.874137],[3.986038,47.873952],[3.986221,47.873775],[3.986518,47.87349],[3.986669,47.873346],[3.986563,47.873291],[3.986531,47.873274],[3.986516,47.873266],[3.986458,47.873237],[3.986328,47.873171],[3.986167,47.873088]]],[[[3.986963,47.873523],[3.986791,47.873428],[3.986718,47.873434],[3.986702,47.873452],[3.986387,47.873752],[3.986309,47.873826],[3.986262,47.873872],[3.986139,47.87399],[3.986077,47.874049],[3.986046,47.87408],[3.98603,47.874098],[3.98584,47.874267],[3.985729,47.874211],[3.985692,47.874201],[3.985659,47.8742],[3.98561,47.874211],[3.985592,47.874221],[3.985574,47.874237],[3.985547,47.874276],[3.985433,47.874463],[3.985367,47.874594],[3.98535,47.874633],[3.985342,47.874681],[3.985707,47.874853],[3.986784,47.875349],[3.986872,47.875392],[3.986941,47.875378],[3.987032,47.875264],[3.987237,47.875012],[3.987254,47.874991],[3.987305,47.874929],[3.987382,47.874836],[3.987408,47.874803],[3.987606,47.874585],[3.987713,47.874486],[3.987788,47.874414],[3.987931,47.874279],[3.987968,47.87425],[3.988063,47.87419],[3.988059,47.874141],[3.987557,47.873857],[3.987189,47.873654],[3.987142,47.873625],[3.987032,47.873562],[3.986963,47.873523]]],[[[3.98925,47.875171],[3.989042,47.874991],[3.988863,47.874839],[3.988774,47.874763],[3.988568,47.874583],[3.988174,47.874247],[3.988103,47.874244],[3.987991,47.874315],[3.987675,47.874615],[3.987479,47.874829],[3.987379,47.874958],[3.987236,47.875138],[3.987024,47.875407],[3.987028,47.875442],[3.987036,47.875465],[3.987105,47.875494],[3.987667,47.875724],[3.987942,47.875823],[3.988402,47.875993],[3.988495,47.876027],[3.988567,47.876053],[3.988603,47.876068],[3.988958,47.876216],[3.989107,47.876275],[3.989333,47.876365],[3.989394,47.876387],[3.989577,47.876445],[3.989652,47.876429],[3.989688,47.876376],[3.98999,47.875996],[3.990012,47.875962],[3.990039,47.875931],[3.990028,47.875842],[3.989985,47.875802],[3.989725,47.875581],[3.989532,47.875415],[3.98925,47.875171]]],[[[3.988674,47.876191],[3.988512,47.876123],[3.988448,47.876101],[3.988327,47.876056],[3.988129,47.875984],[3.987623,47.875798],[3.987481,47.87574],[3.986979,47.875531],[3.98638,47.875257],[3.986256,47.875201],[3.986192,47.875171],[3.985979,47.875074],[3.985721,47.874957],[3.985627,47.874916],[3.985603,47.874904],[3.985463,47.87484],[3.98541,47.874829],[3.985287,47.874805],[3.985123,47.874807],[3.984491,47.87491],[3.984198,47.874961],[3.983971,47.875005],[3.983827,47.875033],[3.98367,47.875065],[3.983377,47.875123],[3.983164,47.875165],[3.983161,47.875166],[3.982983,47.875202],[3.982959,47.875366],[3.983091,47.875392],[3.983281,47.875429],[3.983356,47.875443],[3.983464,47.875464],[3.983591,47.875488],[3.983624,47.875496],[3.983699,47.875513],[3.983864,47.875551],[3.983878,47.875554],[3.983881,47.875548],[3.984123,47.875607],[3.98432,47.875653],[3.984477,47.87569],[3.984659,47.875733],[3.98476,47.875758],[3.984858,47.87578],[3.984712,47.876004],[3.984831,47.876048],[3.984959,47.87609],[3.985233,47.876184],[3.985461,47.876262],[3.985545,47.87629],[3.985607,47.876312],[3.985655,47.876335],[3.985977,47.87649],[3.986482,47.876739],[3.986737,47.876846],[3.986877,47.876904],[3.987154,47.877021],[3.987526,47.877127],[3.987935,47.877161],[3.988471,47.877206],[3.989175,47.877064],[3.98959,47.876979],[3.989594,47.876971],[3.989686,47.876787],[3.989709,47.876741],[3.989764,47.876628],[3.989731,47.876576],[3.989351,47.876455],[3.989223,47.876408],[3.988903,47.876288],[3.988674,47.876191]]],[[[3.987114,47.877068],[3.987079,47.877054],[3.986958,47.877001],[3.986868,47.876965],[3.9867,47.876895],[3.986562,47.876838],[3.986439,47.876785],[3.986276,47.876704],[3.98582,47.876483],[3.985699,47.876423],[3.985564,47.876358],[3.985488,47.876331],[3.985097,47.876198],[3.984769,47.876086],[3.984677,47.876055],[3.984632,47.876043],[3.984444,47.875994],[3.984282,47.875956],[3.984155,47.875926],[3.983877,47.875858],[3.983744,47.875826],[3.983656,47.875807],[3.983524,47.875778],[3.982912,47.875643],[3.982753,47.875612],[3.982747,47.875593],[3.982744,47.875578],[3.982751,47.875523],[3.982777,47.875339],[3.982561,47.875372],[3.98244,47.87539],[3.98233,47.875407],[3.982252,47.875418],[3.982239,47.875537],[3.982086,47.875533],[3.98207,47.875656],[3.982035,47.875736],[3.98198,47.875825],[3.981888,47.875968],[3.981822,47.876069],[3.981817,47.876077],[3.981774,47.876142],[3.9819,47.876171],[3.982205,47.87624],[3.982313,47.876264],[3.982411,47.876287],[3.982437,47.876291],[3.982604,47.876315],[3.982715,47.876329],[3.983245,47.876408],[3.983374,47.876427],[3.983589,47.876459],[3.983838,47.876497],[3.984285,47.876674],[3.984418,47.876727],[3.984728,47.876854],[3.984731,47.876856],[3.985308,47.877088],[3.985394,47.877121],[3.985435,47.877137],[3.985937,47.877322],[3.986329,47.877468],[3.986394,47.877486],[3.986567,47.877541],[3.986662,47.877568],[3.986792,47.877606],[3.986944,47.877651],[3.987416,47.877753],[3.987745,47.877823],[3.988024,47.877883],[3.988102,47.877865],[3.988179,47.877785],[3.988384,47.877291],[3.988346,47.877251],[3.987931,47.877216],[3.98759,47.877187],[3.987507,47.877181],[3.987114,47.877068]]],[[[3.985681,47.87729],[3.98554,47.877237],[3.985432,47.877197],[3.985364,47.877172],[3.985132,47.877078],[3.985072,47.877053],[3.984996,47.877023],[3.984886,47.876981],[3.984784,47.876939],[3.984714,47.876911],[3.984289,47.876738],[3.984167,47.876689],[3.983812,47.876547],[3.983555,47.876509],[3.983102,47.876442],[3.982703,47.876382],[3.982467,47.876347],[3.982403,47.876338],[3.982373,47.876332],[3.982222,47.876298],[3.982004,47.876248],[3.981942,47.876233],[3.981745,47.876184],[3.981708,47.876175],[3.981415,47.87657],[3.981335,47.876678],[3.98115,47.876921],[3.981181,47.876937],[3.981295,47.877002],[3.981368,47.877031],[3.981561,47.877113],[3.981694,47.877169],[3.981774,47.877202],[3.98196,47.877295],[3.982231,47.877431],[3.982275,47.87746],[3.982609,47.877672],[3.98267,47.877713],[3.982922,47.877906],[3.983096,47.878007],[3.983205,47.878071],[3.983339,47.878148],[3.983603,47.878283],[3.983667,47.878316],[3.98367,47.878317],[3.983865,47.878417],[3.984014,47.878492],[3.984276,47.878625],[3.984324,47.878648],[3.984381,47.878668],[3.984526,47.878716],[3.984768,47.878801],[3.984832,47.878824],[3.984968,47.878871],[3.985147,47.878928],[3.985451,47.879032],[3.985696,47.879116],[3.985769,47.879099],[3.986326,47.878414],[3.98688,47.877729],[3.986858,47.877683],[3.986605,47.877609],[3.98629,47.877514],[3.986121,47.877453],[3.985923,47.877379],[3.985681,47.87729]]],[[[3.990993,47.876922],[3.990746,47.876856],[3.990742,47.876855],[3.989899,47.876631],[3.989835,47.87665],[3.989768,47.876783],[3.98965,47.877023],[3.988926,47.87717],[3.988529,47.87725],[3.988464,47.877296],[3.988363,47.877537],[3.98834,47.877592],[3.988254,47.877804],[3.988105,47.877957],[3.987562,47.87784],[3.987033,47.877724],[3.986957,47.877746],[3.986445,47.878376],[3.986365,47.878477],[3.986256,47.878609],[3.986174,47.878711],[3.986057,47.878859],[3.985839,47.879123],[3.985861,47.879171],[3.986267,47.879308],[3.986537,47.879424],[3.987102,47.879666],[3.987682,47.879917],[3.987899,47.880074],[3.987962,47.880071],[3.98812,47.879898],[3.988245,47.879756],[3.988357,47.879668],[3.988506,47.879555],[3.988583,47.879495],[3.988821,47.879378],[3.988949,47.879315],[3.989393,47.879123],[3.98972,47.878949],[3.989777,47.878884],[3.989871,47.878783],[3.98991,47.87874],[3.990164,47.878517],[3.990429,47.87832],[3.990674,47.878218],[3.990995,47.878085],[3.991197,47.877951],[3.991341,47.877829],[3.991535,47.877661],[3.99184,47.877497],[3.991899,47.877443],[3.991891,47.877381],[3.991832,47.877324],[3.991694,47.877257],[3.991657,47.877173],[3.991373,47.877051],[3.990993,47.876922]]],[[[3.983284,47.878193],[3.983033,47.878044],[3.982866,47.877948],[3.982609,47.877754],[3.982553,47.877717],[3.982389,47.87761],[3.982305,47.877557],[3.98221,47.877495],[3.982172,47.877471],[3.982109,47.877441],[3.981919,47.877346],[3.981729,47.877253],[3.981578,47.877189],[3.981477,47.877145],[3.981316,47.877076],[3.981304,47.877089],[3.981015,47.876941],[3.980739,47.876804],[3.980681,47.876774],[3.980485,47.876692],[3.980412,47.876663],[3.980019,47.87656],[3.979776,47.8765],[3.979763,47.876497],[3.979751,47.876502],[3.979741,47.876512],[3.979737,47.87652],[3.979737,47.876532],[3.979738,47.87655],[3.979744,47.876569],[3.979778,47.876659],[3.979779,47.876721],[3.979779,47.876743],[3.97977,47.876802],[3.97976,47.876906],[3.979753,47.87704],[3.979755,47.877052],[3.979816,47.877225],[3.979894,47.877398],[3.979946,47.877517],[3.980139,47.877782],[3.980368,47.878103],[3.980511,47.878378],[3.980703,47.878827],[3.980734,47.878872],[3.980893,47.879096],[3.980933,47.879155],[3.980969,47.87919],[3.981385,47.879595],[3.981569,47.879779],[3.981788,47.880046],[3.98196,47.880342],[3.98202,47.880352],[3.982898,47.87984],[3.983221,47.879651],[3.983393,47.879551],[3.983565,47.879453],[3.983826,47.8793],[3.984592,47.878855],[3.984585,47.878815],[3.984457,47.878765],[3.984274,47.878697],[3.983951,47.878531],[3.983284,47.878193]]],[[[3.985641,47.879159],[3.985176,47.879001],[3.984795,47.878872],[3.984672,47.878881],[3.983757,47.879411],[3.983636,47.879482],[3.983461,47.879586],[3.98329,47.879685],[3.982926,47.879896],[3.98205,47.880406],[3.982029,47.880462],[3.982155,47.880676],[3.982178,47.880711],[3.982451,47.88104],[3.982533,47.881115],[3.98261,47.881181],[3.982856,47.881399],[3.982898,47.881435],[3.982962,47.881493],[3.983302,47.881797],[3.983528,47.881996],[3.983768,47.88217],[3.983885,47.882255],[3.984009,47.882345],[3.984105,47.882414],[3.984286,47.882513],[3.984567,47.88267],[3.984643,47.882667],[3.986831,47.881118],[3.986871,47.881089],[3.98704,47.880971],[3.987265,47.880811],[3.987526,47.880566],[3.987594,47.880503],[3.987884,47.88023],[3.987883,47.880174],[3.987809,47.880111],[3.987634,47.87996],[3.986723,47.87957],[3.986524,47.879485],[3.986219,47.879354],[3.985641,47.879159]]],[[[3.985759,47.883507],[3.985569,47.883307],[3.985268,47.883106],[3.985093,47.883002],[3.98495,47.882922],[3.984673,47.882783],[3.984583,47.882792],[3.982366,47.884532],[3.982789,47.884619],[3.982915,47.88465],[3.983132,47.884711],[3.983238,47.884742],[3.983381,47.884783],[3.983588,47.884843],[3.983768,47.884877],[3.984351,47.884984],[3.984528,47.885055],[3.984584,47.885077],[3.9849,47.885266],[3.985147,47.885412],[3.98554,47.885645],[3.985924,47.885871],[3.986038,47.88594],[3.987279,47.884909],[3.987183,47.884826],[3.986756,47.884459],[3.986438,47.884169],[3.985995,47.883756],[3.985909,47.883663],[3.985759,47.883507]]],[[[4.00232,47.893652],[4.00205,47.893633],[4.001704,47.893607],[4.001521,47.893593],[4.001325,47.893622],[4.001241,47.893635],[4.000808,47.893699],[4.000564,47.893735],[4.000285,47.893776],[3.999839,47.893818],[3.999379,47.893745],[3.999077,47.893633],[3.998944,47.893583],[3.998433,47.893201],[3.998256,47.89307],[3.998095,47.892951],[3.997986,47.892868],[3.997834,47.892796],[3.997224,47.89252],[3.997033,47.892432],[3.997008,47.89242],[3.996822,47.892354],[3.996638,47.89229],[3.996623,47.892305],[3.996242,47.892171],[3.996048,47.892101],[3.995813,47.892016],[3.995609,47.891914],[3.995493,47.891855],[3.995374,47.891798],[3.995332,47.891774],[3.995141,47.891632],[3.99494,47.891484],[3.994694,47.891244],[3.994671,47.891195],[3.994582,47.890985],[3.994554,47.890753],[3.994512,47.890455],[3.994484,47.890241],[3.994444,47.889939],[3.99442,47.889826],[3.994016,47.889509],[3.993872,47.889433],[3.99376,47.889373],[3.993564,47.889271],[3.99341,47.889188],[3.993207,47.889078],[3.993053,47.889002],[3.992834,47.888892],[3.992687,47.888819],[3.992442,47.888692],[3.992251,47.888598],[3.991995,47.888467],[3.991821,47.88838],[3.991606,47.88827],[3.991583,47.888258],[3.991422,47.888244],[3.991283,47.888167],[3.99099,47.888005],[3.990869,47.887936],[3.990837,47.887917],[3.990748,47.887867],[3.99061,47.887791],[3.990326,47.887632],[3.990099,47.887579],[3.989839,47.887516],[3.989656,47.887475],[3.98948,47.887434],[3.989304,47.887393],[3.989131,47.887354],[3.988618,47.887234],[3.988258,47.887152],[3.987944,47.887075],[3.987672,47.887008],[3.987519,47.886974],[3.986747,47.886787],[3.986575,47.886728],[3.986054,47.886541],[3.985991,47.88652],[3.985732,47.886371],[3.985531,47.886255],[3.985531,47.886254],[3.985193,47.886057],[3.984916,47.885897],[3.984598,47.885711],[3.98445,47.885641],[3.984202,47.885524],[3.983923,47.885454],[3.983829,47.885444],[3.983537,47.885407],[3.983381,47.885389],[3.983322,47.885381],[3.983249,47.885373],[3.983175,47.885365],[3.983105,47.885356],[3.982577,47.885292],[3.982169,47.885245],[3.982049,47.885231],[3.981566,47.885172],[3.981019,47.885107],[3.980224,47.885011],[3.980152,47.885004],[3.979972,47.884991],[3.979819,47.884982],[3.979699,47.884974],[3.978935,47.884923],[3.978273,47.884722],[3.977944,47.884531],[3.977471,47.884222],[3.977045,47.883832],[3.976904,47.883702],[3.97642,47.883352],[3.976078,47.883105],[3.976004,47.883051],[3.975861,47.882947],[3.975758,47.882873],[3.975653,47.882762],[3.975394,47.882493],[3.975334,47.882476],[3.974831,47.882327],[3.974513,47.882233],[3.974113,47.882113],[3.973757,47.882008],[3.973713,47.881994],[3.973158,47.881882],[3.972791,47.881808],[3.972655,47.881794],[3.972446,47.881769],[3.972391,47.881763],[3.971999,47.881765],[3.971704,47.88177],[3.971445,47.881772],[3.971313,47.881773],[3.969749,47.881785],[3.96935,47.881766],[3.968917,47.881692],[3.968404,47.881607],[3.967631,47.881476],[3.96756,47.881464],[3.96751,47.881452],[3.966911,47.881279],[3.966761,47.881236],[3.966741,47.881231],[3.966666,47.881247],[3.966588,47.881346],[3.966512,47.881443],[3.966286,47.881691],[3.966311,47.881735],[3.966528,47.881799],[3.966678,47.881845],[3.96683,47.881889],[3.967168,47.881989],[3.967549,47.8821],[3.96781,47.882178],[3.968323,47.882309],[3.968816,47.882437],[3.969241,47.882519],[3.969704,47.88261],[3.970618,47.882736],[3.970959,47.882781],[3.970966,47.882782],[3.971087,47.882804],[3.97133,47.882848],[3.971513,47.882904],[3.971905,47.883028],[3.972098,47.883087],[3.972276,47.883143],[3.972445,47.883239],[3.972835,47.883462],[3.973042,47.883565],[3.973331,47.883711],[3.97342,47.883757],[3.973558,47.883841],[3.973877,47.884036],[3.974307,47.884264],[3.974392,47.884309],[3.974525,47.884378],[3.974603,47.884427],[3.974869,47.88459],[3.975493,47.885064],[3.975564,47.885117],[3.975991,47.885485],[3.976225,47.885662],[3.97647,47.885788],[3.977315,47.886101],[3.977669,47.886215],[3.978055,47.886335],[3.978634,47.886486],[3.978883,47.886551],[3.979096,47.886623],[3.979198,47.886658],[3.979309,47.886696],[3.979451,47.886744],[3.979688,47.886821],[3.979743,47.886837],[3.979884,47.886911],[3.980094,47.887021],[3.980122,47.887049],[3.980177,47.887096],[3.980261,47.887167],[3.980387,47.88735],[3.982402,47.888009],[3.982457,47.888026],[3.982604,47.888074],[3.982738,47.888119],[3.98299,47.888201],[3.983146,47.888253],[3.984272,47.888622],[3.984457,47.888683],[3.986295,47.889284],[3.986571,47.889376],[3.986572,47.889376],[3.987577,47.889704],[3.987911,47.889813],[3.988076,47.889866],[3.988327,47.889949],[3.988538,47.890019],[3.988677,47.889778],[3.988779,47.889816],[3.988818,47.889829],[3.988957,47.889882],[3.989089,47.889932],[3.989168,47.889962],[3.989196,47.889925],[3.989641,47.890083],[3.989883,47.890169],[3.990043,47.890229],[3.990077,47.890238],[3.990454,47.890369],[3.99057,47.89042],[3.99082,47.890529],[3.990982,47.890601],[3.991083,47.89065],[3.991267,47.890745],[3.991636,47.890935],[3.991556,47.89102],[3.991802,47.891164],[3.991951,47.891252],[3.992097,47.891335],[3.992116,47.891311],[3.992222,47.891221],[3.992466,47.891368],[3.992519,47.8914],[3.992602,47.891473],[3.992659,47.891523],[3.992711,47.891572],[3.992786,47.891645],[3.99281,47.891669],[3.992901,47.891752],[3.99294,47.89179],[3.993005,47.891849],[3.993022,47.891866],[3.99297,47.8919],[3.993006,47.891932],[3.993206,47.892081],[3.993457,47.892275],[3.993683,47.892464],[3.993868,47.892616],[3.993928,47.89266],[3.994121,47.892806],[3.994276,47.892898],[3.994398,47.892971],[3.994478,47.893019],[3.994566,47.893062],[3.995,47.893259],[3.99506,47.893285],[3.995193,47.893329],[3.995572,47.893463],[3.995749,47.893541],[3.99595,47.893628],[3.996141,47.893714],[3.996402,47.893831],[3.996765,47.893974],[3.996908,47.89403],[3.997057,47.894095],[3.997455,47.894279],[3.998009,47.894536],[3.998257,47.894629],[3.998365,47.894672],[3.998494,47.894712],[3.998987,47.894874],[3.999512,47.894968],[3.999771,47.894993],[4.000162,47.894993],[4.000698,47.894925],[4.000732,47.895068],[4.000965,47.895057],[4.001402,47.89504],[4.001485,47.895037],[4.001965,47.89502],[4.002106,47.895003],[4.002152,47.894998],[4.002329,47.894979],[4.002459,47.894987],[4.002967,47.895011],[4.003083,47.89503],[4.003391,47.895081],[4.003451,47.894947],[4.003952,47.89391],[4.003601,47.893832],[4.003353,47.893783],[4.003168,47.893742],[4.002982,47.893698],[4.00232,47.893652]]],[[[3.991746,47.870924],[3.9912,47.870559],[3.991049,47.870457],[3.990988,47.870416],[3.991163,47.870313],[3.991064,47.87024],[3.991176,47.870169],[3.991088,47.870098],[3.99097,47.87],[3.990963,47.869991],[3.990961,47.869988],[3.990791,47.869848],[3.99061,47.869698],[3.990487,47.869598],[3.990412,47.869536],[3.990339,47.869463],[3.990201,47.869323],[3.990177,47.869297],[3.990155,47.869276],[3.990045,47.869168],[3.990008,47.869129],[3.989974,47.869086],[3.989917,47.869008],[3.989904,47.868989],[3.989853,47.868918],[3.989839,47.868895],[3.989821,47.868867],[3.989702,47.868676],[3.989675,47.868635],[3.989653,47.868591],[3.989528,47.868424],[3.989396,47.868427],[3.989331,47.868397],[3.989293,47.868348],[3.989273,47.868293],[3.98928,47.868234],[3.989298,47.86819],[3.989298,47.868153],[3.989154,47.867944],[3.989069,47.867966],[3.988723,47.868046],[3.988341,47.868134],[3.988351,47.868174],[3.988371,47.868246],[3.988426,47.8684],[3.988455,47.868496],[3.988496,47.868628],[3.988504,47.86866],[3.988528,47.868824],[3.988541,47.868888],[3.988545,47.868907],[3.98858,47.869021],[3.988624,47.869123],[3.988669,47.869197],[3.988745,47.869304],[3.988735,47.869309],[3.98882,47.869435],[3.988839,47.869463],[3.988914,47.869574],[3.989056,47.869787],[3.989107,47.869865],[3.989165,47.869936],[3.989357,47.870163],[3.989673,47.87048],[3.989843,47.870653],[3.989888,47.870699],[3.990096,47.87091],[3.990121,47.870931],[3.990185,47.871],[3.990232,47.871063],[3.990438,47.871345],[3.990461,47.871394],[3.990557,47.871575],[3.990612,47.871687],[3.990648,47.871748],[3.99065,47.871792],[3.990683,47.872012],[3.990687,47.872044],[3.99064,47.872189],[3.990605,47.872297],[3.990517,47.872408],[3.990147,47.872877],[3.990173,47.872898],[3.990226,47.872886],[3.990351,47.872857],[3.990641,47.872751],[3.991075,47.872589],[3.991201,47.872541],[3.991256,47.872522],[3.991319,47.872486],[3.99135,47.872477],[3.991636,47.872339],[3.991786,47.872266],[3.991819,47.872254],[3.992088,47.872177],[3.992205,47.872141],[3.992413,47.872079],[3.992496,47.872057],[3.992564,47.872011],[3.992696,47.871928],[3.993152,47.871641],[3.993218,47.871599],[3.992929,47.871468],[3.992744,47.871391],[3.9923,47.871202],[3.992159,47.871139],[3.992109,47.871169],[3.991746,47.870924]]],[[[3.990521,47.875689],[3.990441,47.875598],[3.990212,47.875336],[3.990113,47.875221],[3.990082,47.875184],[3.990073,47.875167],[3.989981,47.875044],[3.989873,47.874895],[3.989845,47.874857],[3.989818,47.874782],[3.989741,47.87458],[3.989713,47.8745],[3.989701,47.874444],[3.989642,47.874153],[3.989603,47.873963],[3.989576,47.873827],[3.989558,47.87374],[3.989558,47.873702],[3.989557,47.87357],[3.989368,47.873542],[3.988737,47.873887],[3.988341,47.874106],[3.988263,47.874148],[3.988254,47.874198],[3.988346,47.874275],[3.98841,47.87433],[3.988433,47.874352],[3.988528,47.874434],[3.988635,47.874524],[3.988696,47.874578],[3.98878,47.874652],[3.988842,47.874705],[3.989285,47.875085],[3.989346,47.875137],[3.989402,47.875187],[3.989639,47.875392],[3.989844,47.875566],[3.990154,47.875835],[3.990203,47.875877],[3.990171,47.875918],[3.990022,47.876107],[3.989789,47.876405],[3.989748,47.876458],[3.989756,47.876476],[3.989772,47.876505],[3.989885,47.876541],[3.990346,47.876666],[3.990682,47.876758],[3.991022,47.876849],[3.991427,47.876975],[3.991625,47.877055],[3.991679,47.877016],[3.991621,47.87695],[3.991437,47.876736],[3.991301,47.876583],[3.99098,47.876219],[3.990591,47.87577],[3.990521,47.875689]]],[[[3.995294,47.876445],[3.995234,47.876424],[3.995071,47.876362],[3.994961,47.876321],[3.994869,47.876324],[3.994515,47.876483],[3.994329,47.876566],[3.994131,47.876362],[3.994033,47.876252],[3.993862,47.876079],[3.993791,47.876007],[3.993702,47.875914],[3.993627,47.875836],[3.993452,47.875702],[3.993401,47.875661],[3.993139,47.875453],[3.993044,47.87538],[3.99303,47.875367],[3.992898,47.875232],[3.992705,47.87504],[3.992639,47.874972],[3.992587,47.874919],[3.992478,47.874785],[3.992418,47.874714],[3.992286,47.874551],[3.992185,47.874428],[3.992094,47.874319],[3.99197,47.873779],[3.991957,47.873547],[3.991945,47.873305],[3.99194,47.873217],[3.9904,47.872904],[3.990157,47.872955],[3.990153,47.872964],[3.990151,47.872965],[3.990147,47.872966],[3.990135,47.872966],[3.990129,47.872966],[3.990064,47.873001],[3.989908,47.873217],[3.9898,47.873465],[3.989757,47.873731],[3.989792,47.873925],[3.989893,47.874478],[3.990022,47.874811],[3.990238,47.875119],[3.990353,47.875249],[3.990645,47.875582],[3.990781,47.87574],[3.990842,47.875811],[3.991081,47.876082],[3.991144,47.876151],[3.991328,47.876362],[3.991433,47.876481],[3.991588,47.876659],[3.991636,47.876713],[3.991651,47.87673],[3.991726,47.876818],[3.991947,47.877067],[3.991988,47.877115],[3.992109,47.877252],[3.992227,47.877345],[3.992258,47.877369],[3.992369,47.877437],[3.992459,47.877491],[3.992793,47.877653],[3.992834,47.877668],[3.993177,47.877769],[3.99349,47.877839],[3.993693,47.877885],[3.993896,47.877919],[3.994083,47.877949],[3.994151,47.877962],[3.994314,47.877991],[3.994385,47.878],[3.994562,47.878023],[3.994648,47.878013],[3.994777,47.877998],[3.994928,47.87798],[3.994992,47.877967],[3.995117,47.877942],[3.995725,47.877823],[3.995914,47.877762],[3.996143,47.87764],[3.996268,47.877543],[3.996271,47.877536],[3.996609,47.877159],[3.99674,47.877019],[3.996726,47.876972],[3.996042,47.87672],[3.995716,47.8766],[3.995503,47.876522],[3.995294,47.876445]]],[[[4.002344,47.876997],[4.002199,47.87692],[4.002166,47.876877],[4.001681,47.876331],[4.002116,47.876002],[4.001775,47.875726],[4.001468,47.875479],[4.001188,47.875302],[4.001057,47.875218],[4.000738,47.875071],[4.000118,47.874786],[3.999498,47.874501],[3.999435,47.874472],[3.999393,47.874452],[3.998988,47.874231],[3.998939,47.874205],[3.998626,47.874037],[3.99833,47.873874],[3.997793,47.873587],[3.997458,47.873404],[3.997279,47.873284],[3.997258,47.873269],[3.996887,47.873029],[3.996677,47.87289],[3.996378,47.872697],[3.996279,47.872631],[3.996119,47.872527],[3.995719,47.872223],[3.995543,47.872097],[3.995023,47.871736],[3.994729,47.871843],[3.993901,47.872144],[3.992996,47.872394],[3.992762,47.87256],[3.992661,47.872632],[3.992487,47.87282],[3.992147,47.87308],[3.992014,47.873238],[3.992049,47.873771],[3.992169,47.874302],[3.992622,47.874852],[3.992654,47.874889],[3.993005,47.875246],[3.993097,47.87534],[3.993696,47.87581],[3.993969,47.87609],[3.994323,47.876461],[3.994397,47.876472],[3.994912,47.876241],[3.995461,47.875654],[3.995458,47.875594],[3.994278,47.874528],[3.993863,47.874153],[3.993311,47.873658],[3.993363,47.87363],[3.993908,47.874116],[3.994171,47.874358],[3.994423,47.874585],[3.994604,47.874747],[3.994917,47.87503],[3.994938,47.875049],[3.995527,47.875582],[3.995947,47.87567],[3.996174,47.87572],[3.996362,47.875757],[3.996745,47.875861],[3.996806,47.875877],[3.997176,47.875979],[3.997366,47.87603],[3.99744,47.876049],[3.99768,47.876116],[3.997898,47.876235],[3.998956,47.876805],[3.998911,47.876839],[3.998206,47.876458],[3.997809,47.876245],[3.997643,47.876153],[3.996889,47.87595],[3.996702,47.875897],[3.996332,47.875797],[3.995607,47.875645],[3.995528,47.875665],[3.995007,47.876224],[3.995018,47.87628],[3.996004,47.876645],[3.996883,47.876971],[3.996695,47.877166],[3.996675,47.877187],[3.996333,47.877573],[3.996202,47.877679],[3.996024,47.877771],[3.995949,47.87781],[3.995756,47.877872],[3.995326,47.877958],[3.994947,47.878031],[3.994938,47.878071],[3.995242,47.87811],[3.995561,47.878142],[3.995604,47.878143],[3.995767,47.878145],[3.995816,47.878143],[3.996171,47.878125],[3.996443,47.878083],[3.99673,47.878041],[3.997255,47.877963],[3.997735,47.877918],[3.997952,47.877925],[3.998031,47.877927],[3.998428,47.877987],[3.999242,47.878146],[3.999267,47.87815],[3.999692,47.878219],[4.000051,47.878276],[4.000188,47.8783],[4.000434,47.878341],[4.000541,47.878358],[4.001155,47.87848],[4.00122,47.878505],[4.001737,47.8787],[4.001962,47.878811],[4.002111,47.878707],[4.002394,47.878785],[4.002748,47.878883],[4.002828,47.878907],[4.002989,47.878986],[4.003131,47.879058],[4.003315,47.879189],[4.004439,47.878131],[4.003584,47.87767],[4.002919,47.877309],[4.002613,47.877142],[4.002418,47.877038],[4.002344,47.876997]]],[[[4.001101,47.878557],[4.000503,47.878431],[3.999213,47.878219],[3.998603,47.878101],[3.998403,47.878062],[3.998052,47.878008],[3.99801,47.878002],[3.997861,47.877999],[3.997737,47.877994],[3.997612,47.878006],[3.99728,47.878036],[3.996856,47.878097],[3.996503,47.878149],[3.996502,47.878173],[3.996786,47.878253],[3.997197,47.878336],[3.997308,47.878357],[3.997502,47.87841],[3.997688,47.878464],[3.997751,47.878483],[3.99822,47.878707],[3.998415,47.878799],[3.999122,47.879071],[3.999619,47.87933],[3.9999,47.879463],[4.000138,47.879576],[4.000285,47.879648],[4.000378,47.879694],[4.000757,47.879879],[4.002053,47.878957],[4.001671,47.878774],[4.001669,47.878773],[4.001403,47.878673],[4.001146,47.878573],[4.001101,47.878557]]],[[[3.993756,47.878522],[3.993255,47.878376],[3.992914,47.878184],[3.992744,47.878045],[3.992623,47.877948],[3.992398,47.877759],[3.992216,47.877596],[3.99207,47.87744],[3.991946,47.877509],[3.991704,47.877638],[3.991591,47.877699],[3.991261,47.877984],[3.991047,47.878126],[3.990821,47.878218],[3.990485,47.878357],[3.990226,47.878551],[3.989978,47.878769],[3.989784,47.878979],[3.989441,47.879165],[3.989003,47.879355],[3.988788,47.87946],[3.988646,47.879529],[3.988643,47.87953],[3.988315,47.879783],[3.988003,47.88013],[3.988009,47.880189],[3.988162,47.880317],[3.988367,47.880495],[3.988798,47.880855],[3.989265,47.881254],[3.989351,47.881269],[3.989421,47.881235],[3.989797,47.881068],[3.990047,47.880907],[3.990307,47.880675],[3.990446,47.8806],[3.990501,47.880568],[3.990896,47.880486],[3.991151,47.880433],[3.991804,47.880331],[3.992041,47.880294],[3.99232,47.88025],[3.992584,47.880237],[3.993067,47.880211],[3.993527,47.880199],[3.993825,47.880192],[3.993886,47.88019],[3.993942,47.880188],[3.994003,47.880184],[3.994377,47.880168],[3.995092,47.880179],[3.995302,47.880183],[3.995369,47.880169],[3.995772,47.880079],[3.995872,47.879993],[3.995699,47.879888],[3.9954,47.879709],[3.994998,47.879384],[3.994721,47.87916],[3.993977,47.878559],[3.993756,47.878522]]],[[[4.000707,47.87992],[4.00063,47.879883],[4.000233,47.879687],[4.000075,47.879611],[3.999997,47.879575],[3.999755,47.879461],[3.999576,47.879374],[3.99923,47.879195],[3.999076,47.879115],[3.998961,47.879072],[3.9987,47.87897],[3.99854,47.87891],[3.99837,47.878844],[3.99814,47.878734],[3.998003,47.878671],[3.997719,47.878534],[3.997537,47.878481],[3.997315,47.878419],[3.997277,47.878409],[3.996858,47.878323],[3.996763,47.878304],[3.99676,47.878303],[3.996543,47.878243],[3.996355,47.878191],[3.996253,47.878186],[3.996183,47.878196],[3.995814,47.878214],[3.995766,47.878216],[3.995558,47.878217],[3.995557,47.878217],[3.995381,47.8782],[3.995224,47.878188],[3.995188,47.878183],[3.994546,47.878102],[3.994059,47.878026],[3.993532,47.877923],[3.993504,47.877948],[3.993516,47.87792],[3.993145,47.877843],[3.992733,47.877715],[3.992393,47.877541],[3.992655,47.877784],[3.993052,47.878086],[3.993352,47.878247],[3.993383,47.878257],[3.993436,47.878274],[3.993923,47.87839],[3.993973,47.8784],[3.994453,47.878492],[3.994974,47.878586],[3.995005,47.878594],[3.995184,47.878645],[3.995345,47.87869],[3.995556,47.87876],[3.996199,47.878975],[3.996399,47.879046],[3.996442,47.879061],[3.996836,47.879202],[3.996869,47.879217],[3.997069,47.879305],[3.997403,47.879497],[3.997531,47.879571],[3.997736,47.879689],[3.997858,47.879759],[3.997984,47.879832],[3.998181,47.879941],[3.998283,47.879999],[3.998422,47.880089],[3.9989,47.880409],[3.999105,47.880556],[3.999174,47.880609],[3.999295,47.880702],[3.999606,47.88094],[3.999715,47.881025],[4.000092,47.881359],[4.00012,47.881384],[4.000139,47.881402],[4.000231,47.881485],[4.000325,47.881434],[4.000744,47.881144],[4.000785,47.881113],[4.000816,47.881096],[4.001013,47.881028],[4.001416,47.880887],[4.001936,47.880702],[4.001746,47.880588],[4.001508,47.880446],[4.001429,47.880398],[4.001306,47.880324],[4.001172,47.88023],[4.000707,47.87992]]],[[[4.000791,47.882344],[4.000582,47.882054],[4.000532,47.881986],[4.000189,47.881662],[4.000156,47.881631],[3.999965,47.881456],[3.999954,47.881445],[3.999952,47.881444],[3.999846,47.881351],[3.999759,47.881277],[3.999568,47.881108],[3.999528,47.881078],[3.999262,47.88088],[3.998913,47.880625],[3.998745,47.880498],[3.998721,47.880482],[3.998215,47.880125],[3.998095,47.880058],[3.997963,47.879983],[3.997778,47.879876],[3.997655,47.879805],[3.99746,47.879693],[3.997306,47.879608],[3.997059,47.879467],[3.996803,47.879344],[3.996725,47.879307],[3.996421,47.879195],[3.996134,47.879091],[3.995837,47.878994],[3.995776,47.878975],[3.995271,47.878815],[3.995144,47.878781],[3.995083,47.878765],[3.994909,47.87872],[3.994743,47.878693],[3.994163,47.878591],[3.994146,47.87861],[3.99461,47.878989],[3.994885,47.879208],[3.994923,47.879239],[3.995458,47.879673],[3.995517,47.879707],[3.995793,47.879873],[3.996039,47.880021],[3.996049,47.880027],[3.996321,47.880168],[3.996756,47.880391],[3.99686,47.880462],[3.996996,47.880557],[3.997038,47.880593],[3.997138,47.880677],[3.997239,47.880764],[3.997434,47.880873],[3.998089,47.881259],[3.998118,47.881282],[3.998146,47.881304],[3.998353,47.881473],[3.998614,47.881692],[3.998813,47.881857],[3.998901,47.88193],[3.998936,47.881959],[3.999005,47.882024],[3.999187,47.882189],[3.999219,47.88222],[3.99963,47.8826],[3.999648,47.882619],[3.99992,47.882914],[4.00017,47.883269],[4.000263,47.883229],[4.000769,47.883602],[4.000814,47.883583],[4.001309,47.883382],[4.001156,47.883009],[4.001082,47.882876],[4.00099,47.882707],[4.000842,47.88243],[4.000791,47.882344]]],[[[3.989621,47.881606],[3.989511,47.881535],[3.989321,47.881415],[3.989281,47.881371],[3.989225,47.881311],[3.989203,47.881288],[3.989171,47.88126],[3.988953,47.881063],[3.989067,47.881308],[3.989105,47.881388],[3.989138,47.881457],[3.989181,47.881548],[3.989256,47.881705],[3.989299,47.881794],[3.989309,47.881815],[3.989403,47.882012],[3.989413,47.882033],[3.989447,47.882113],[3.989459,47.88214],[3.989487,47.882207],[3.989497,47.882231],[3.989572,47.882402],[3.989604,47.882473],[3.989657,47.882594],[3.990215,47.882234],[3.990367,47.882126],[3.990257,47.882046],[3.990186,47.881995],[3.99001,47.881863],[3.989952,47.881818],[3.989919,47.881796],[3.989621,47.881606]]],[[[3.99387,47.886485],[3.993803,47.886438],[3.993548,47.88626],[3.993129,47.885964],[3.993058,47.885913],[3.992779,47.885719],[3.99235,47.885416],[3.99202,47.885184],[3.991742,47.884946],[3.991496,47.884726],[3.991316,47.884539],[3.991081,47.884294],[3.990804,47.88401],[3.990648,47.883836],[3.99015,47.88328],[3.989818,47.882898],[3.989622,47.88267],[3.98959,47.882634],[3.98955,47.882542],[3.989511,47.882449],[3.989429,47.882264],[3.989352,47.882084],[3.98934,47.882053],[3.989162,47.881678],[3.989106,47.881566],[3.989088,47.881526],[3.988818,47.880949],[3.988539,47.880712],[3.988379,47.880578],[3.988003,47.880274],[3.987939,47.880274],[3.987359,47.880815],[3.987326,47.880846],[3.984709,47.8827],[3.984728,47.882744],[3.985002,47.882881],[3.98526,47.883027],[3.985325,47.883067],[3.985432,47.883134],[3.985639,47.883264],[3.985697,47.88333],[3.985818,47.883454],[3.985945,47.883589],[3.986069,47.883721],[3.986152,47.883798],[3.986495,47.884116],[3.986644,47.884248],[3.986791,47.884386],[3.986822,47.884414],[3.986861,47.884447],[3.986971,47.884541],[3.987048,47.884609],[3.987207,47.884746],[3.987234,47.884772],[3.987372,47.884888],[3.987589,47.885072],[3.987754,47.88525],[3.987982,47.885494],[3.988092,47.885612],[3.988185,47.885694],[3.988408,47.88588],[3.988678,47.886109],[3.988856,47.886242],[3.989186,47.88649],[3.989366,47.886611],[3.989619,47.886783],[3.990134,47.887133],[3.990818,47.887595],[3.990913,47.887654],[3.991624,47.888096],[3.991853,47.888215],[3.992838,47.888718],[3.992927,47.888761],[3.993325,47.888964],[3.994103,47.889427],[3.994502,47.889769],[3.994568,47.88979],[3.994606,47.889803],[3.995306,47.889693],[3.996713,47.88835],[3.99639,47.888143],[3.995131,47.887329],[3.994769,47.887094],[3.994691,47.887044],[3.994402,47.886859],[3.99387,47.886485]]],[[[3.996506,47.887711],[3.996471,47.887689],[3.996413,47.887653],[3.996198,47.887519],[3.995855,47.887302],[3.995766,47.887247],[3.995737,47.887228],[3.995591,47.887137],[3.995445,47.887045],[3.995338,47.886955],[3.995257,47.886889],[3.995118,47.886775],[3.995049,47.886719],[3.99502,47.886697],[3.99486,47.886572],[3.994798,47.886528],[3.994744,47.88649],[3.994453,47.886285],[3.994418,47.886264],[3.994199,47.886128],[3.99372,47.885867],[3.993684,47.885839],[3.99344,47.885649],[3.993101,47.885385],[3.992535,47.884949],[3.992531,47.884947],[3.992361,47.884852],[3.992047,47.884676],[3.992042,47.884672],[3.992024,47.884659],[3.991815,47.884498],[3.991806,47.88449],[3.99179,47.884476],[3.991637,47.884356],[3.991501,47.884247],[3.991328,47.884107],[3.99132,47.884101],[3.991147,47.883967],[3.990964,47.883822],[3.990957,47.883816],[3.990889,47.883759],[3.990683,47.88358],[3.990676,47.883574],[3.990375,47.883364],[3.990218,47.883252],[3.990874,47.883983],[3.991135,47.884253],[3.991234,47.884358],[3.991557,47.884692],[3.991758,47.88487],[3.992085,47.885151],[3.992136,47.885189],[3.992387,47.885365],[3.992705,47.88559],[3.993144,47.885896],[3.993472,47.886129],[3.993764,47.886331],[3.994462,47.886823],[3.994738,47.887],[3.994817,47.887051],[3.995179,47.887288],[3.996765,47.888309],[3.997066,47.887979],[3.996915,47.887924],[3.996881,47.887912],[3.996799,47.887868],[3.996723,47.887827],[3.996506,47.887711]]],[[[3.998226,47.889183],[3.997922,47.88915],[3.997595,47.889194],[3.997173,47.889254],[3.997127,47.889273],[3.996983,47.889334],[3.996839,47.889395],[3.996757,47.88943],[3.996334,47.889549],[3.996029,47.889635],[3.995406,47.889731],[3.995324,47.889744],[3.994972,47.889799],[3.994615,47.889854],[3.99455,47.889907],[3.994526,47.889932],[3.994561,47.890036],[3.994635,47.890576],[3.994676,47.890874],[3.994689,47.89097],[3.994792,47.891213],[3.995022,47.891439],[3.995405,47.891723],[3.995869,47.891956],[3.996547,47.892197],[3.99663,47.892187],[3.996659,47.892168],[3.998145,47.891283],[3.998898,47.891156],[3.998812,47.891058],[3.998788,47.891024],[3.998513,47.89064],[3.998443,47.890579],[3.998294,47.890451],[3.998029,47.890223],[3.998427,47.890224],[3.998495,47.890217],[3.998586,47.890207],[3.998682,47.890183],[3.998806,47.89013],[3.998966,47.890061],[3.999391,47.889876],[3.999502,47.889848],[3.99985,47.889764],[3.999789,47.889474],[3.999751,47.889355],[3.999228,47.889297],[3.998924,47.889263],[3.998548,47.88922],[3.998226,47.889183]]],[[[3.999593,47.891037],[3.999355,47.891083],[3.999282,47.891095],[3.998929,47.891205],[3.998554,47.891268],[3.998343,47.891303],[3.99818,47.891331],[3.998517,47.89152],[3.998594,47.891565],[3.998768,47.891796],[3.999049,47.892148],[3.99923,47.892364],[3.999487,47.892284],[3.999376,47.892122],[3.9994,47.892024],[3.999463,47.89198],[3.999523,47.891937],[3.999666,47.891836],[4.000027,47.891656],[4.000211,47.891563],[4.000498,47.891557],[4.000801,47.891539],[4.001633,47.891488],[4.001556,47.890955],[4.001123,47.890946],[4.000561,47.890959],[4.000253,47.890965],[3.999962,47.89097],[3.999593,47.891037]]]]}},{"type":"Feature","id":"commune-89153","properties":{"id":"commune-89153","name":"Épineuil","kind":"commune","tier":"commune"},"geometry":{"type":"MultiPolygon","coordinates":[[[[3.987909,47.86464],[3.987632,47.864685],[3.987509,47.864706],[3.987358,47.864731],[3.986834,47.86483],[3.986609,47.864872],[3.986362,47.864925],[3.985754,47.865104],[3.985321,47.865267],[3.984968,47.865422],[3.9846,47.865584],[3.984476,47.865628],[3.984372,47.865661],[3.983963,47.865809],[3.983621,47.865944],[3.983166,47.866141],[3.982737,47.866371],[3.982407,47.866545],[3.981756,47.866866],[3.98111,47.867194],[3.98083,47.867334],[3.98052,47.867482],[3.97989,47.867786],[3.979437,47.867956],[3.979045,47.868101],[3.978718,47.868203],[3.978449,47.868246],[3.978265,47.868282],[3.978116,47.86832],[3.977911,47.868384],[3.977683,47.868465],[3.977479,47.868537],[3.97741,47.868566],[3.977189,47.86866],[3.97709,47.868702],[3.977053,47.868719],[3.977018,47.868739],[3.976909,47.868799],[3.976883,47.868829],[3.976821,47.868945],[3.976772,47.869074],[3.97668,47.869368],[3.976613,47.869402],[3.976438,47.869487],[3.976364,47.869524],[3.976228,47.869589],[3.976157,47.869636],[3.976104,47.869672],[3.976021,47.869754],[3.975914,47.86986],[3.975857,47.869915],[3.975736,47.870002],[3.975713,47.870017],[3.975601,47.87005],[3.975416,47.870084],[3.975343,47.870094],[3.975301,47.870095],[3.975218,47.870092],[3.974987,47.870081],[3.974691,47.870055],[3.974621,47.87005],[3.974546,47.870046],[3.974452,47.870039],[3.974394,47.870037],[3.974152,47.87007],[3.973995,47.870093],[3.973891,47.870137],[3.973791,47.870189],[3.973678,47.870253],[3.973466,47.870411],[3.97329,47.870572],[3.973083,47.870807],[3.972878,47.871041],[3.972613,47.871359],[3.972538,47.871459],[3.972502,47.871513],[3.972424,47.871645],[3.972311,47.871842],[3.972199,47.872121],[3.972152,47.872299],[3.972111,47.872474],[3.972067,47.872696],[3.972005,47.872896],[3.971943,47.873003],[3.971651,47.87329],[3.971611,47.873331],[3.971542,47.873405],[3.971475,47.87347],[3.971228,47.87369],[3.97107,47.873824],[3.970962,47.873884],[3.970645,47.874055],[3.970479,47.874143],[3.970398,47.874196],[3.969774,47.87462],[3.96936,47.874989],[3.969301,47.875048],[3.969087,47.875391],[3.968991,47.875534],[3.968848,47.875718],[3.968443,47.876238],[3.968333,47.876387],[3.968233,47.876528],[3.968115,47.876708],[3.96805,47.876835],[3.967906,47.877116],[3.967846,47.877322],[3.967784,47.877553],[3.967674,47.878042],[3.967565,47.878541],[3.967534,47.878651],[3.967488,47.878771],[3.967376,47.879067],[3.967154,47.879683],[3.967069,47.879938],[3.966729,47.881033],[3.966696,47.881105],[3.966563,47.881304],[3.966249,47.881668],[3.966194,47.881736],[3.966279,47.881762],[3.967752,47.88219],[3.968153,47.882295],[3.968853,47.882471],[3.969616,47.882623],[3.970609,47.882762],[3.971138,47.882843],[3.971284,47.882868],[3.971495,47.88293],[3.972256,47.883169],[3.972817,47.883489],[3.973331,47.883745],[3.973906,47.884084],[3.974566,47.884441],[3.974842,47.88461],[3.975123,47.884821],[3.975471,47.885093],[3.975852,47.885408],[3.976166,47.885665],[3.976235,47.885705],[3.976443,47.885811],[3.977001,47.886017],[3.977585,47.88622],[3.978074,47.886371],[3.978832,47.886568],[3.979082,47.886649],[3.979501,47.886791],[3.979632,47.886835],[3.979676,47.886847],[3.979713,47.886858],[3.979815,47.886913],[3.980042,47.887033],[3.980214,47.887164],[3.980246,47.88721],[3.980317,47.887308],[3.980338,47.887334],[3.980388,47.88735],[3.982402,47.888009],[3.982457,47.888026],[3.982604,47.888074],[3.982739,47.888119],[3.98299,47.888201],[3.983146,47.888253],[3.984272,47.888622],[3.984457,47.888683],[3.986295,47.889284],[3.986571,47.889376],[3.986572,47.889376],[3.987577,47.889704],[3.987912,47.889813],[3.988076,47.889866],[3.988327,47.889949],[3.988538,47.890019],[3.989043,47.890244],[3.989599,47.890486],[3.989745,47.890549],[3.989741,47.890554],[3.989874,47.890606],[3.990129,47.89072],[3.99046,47.890861],[3.990629,47.890965],[3.990897,47.891133],[3.990954,47.891095],[3.991257,47.89127],[3.991369,47.891334],[3.991413,47.89137],[3.991504,47.891442],[3.991598,47.891618],[3.991668,47.891744],[3.991674,47.891749],[3.991868,47.891893],[3.992376,47.892259],[3.992499,47.892348],[3.992721,47.892119],[3.992946,47.891914],[3.992947,47.891913],[3.99297,47.8919],[3.993006,47.891932],[3.993206,47.892081],[3.993457,47.892275],[3.993683,47.892464],[3.993868,47.892616],[3.993928,47.89266],[3.994121,47.892806],[3.994277,47.892898],[3.994398,47.892971],[3.994478,47.893019],[3.994566,47.893062],[3.995,47.893259],[3.99506,47.893285],[3.995193,47.893329],[3.995572,47.893463],[3.995486,47.89357],[3.995188,47.89393],[3.995172,47.893947],[3.995475,47.894092],[3.995937,47.894303],[3.996457,47.894548],[3.996962,47.894781],[3.997062,47.894831],[3.997547,47.895032],[3.997678,47.895086],[3.998055,47.895213],[3.998703,47.89539],[3.999189,47.895521],[3.99926,47.895539],[3.999377,47.895573],[3.999614,47.895636],[4.000386,47.895754],[4.000903,47.895801],[4.002072,47.895863],[4.00218,47.895869],[4.002394,47.89587],[4.00276,47.895907],[4.002847,47.895922],[4.003359,47.896021],[4.003965,47.896133],[4.004016,47.896144],[4.004085,47.896158],[4.004456,47.896239],[4.004188,47.896709],[4.004167,47.896744],[4.00452,47.896801],[4.004884,47.896861],[4.005433,47.896912],[4.006344,47.896965],[4.007262,47.897017],[4.008448,47.897081],[4.009026,47.897119],[4.009955,47.897126],[4.011275,47.897094],[4.011732,47.897087],[4.01192,47.897034],[4.012118,47.896975],[4.01222,47.896947],[4.013602,47.896562],[4.013666,47.896546],[4.013754,47.896553],[4.013875,47.896565],[4.014505,47.896392],[4.014957,47.896267],[4.014526,47.895906],[4.014211,47.895637],[4.014066,47.895518],[4.013998,47.895388],[4.013956,47.895304],[4.01378,47.894955],[4.013689,47.894777],[4.013592,47.894582],[4.013445,47.894292],[4.013362,47.894207],[4.013188,47.894032],[4.013145,47.893985],[4.012935,47.893734],[4.012719,47.893466],[4.012504,47.893198],[4.012332,47.892989],[4.012244,47.892893],[4.012014,47.892637],[4.011807,47.892408],[4.011671,47.892254],[4.011522,47.892086],[4.011362,47.89191],[4.011208,47.89178],[4.010815,47.891457],[4.010586,47.891267],[4.010387,47.8911],[4.01015,47.890899],[4.00998,47.890756],[4.009509,47.890345],[4.009036,47.88994],[4.008639,47.889601],[4.008344,47.889347],[4.008328,47.889302],[4.0075,47.888842],[4.007592,47.888715],[4.007252,47.888417],[4.00671,47.887939],[4.006062,47.887503],[4.005584,47.88718],[4.005497,47.887207],[4.004976,47.886627],[4.004904,47.886679],[4.004603,47.88646],[4.003895,47.885937],[4.003682,47.885784],[4.003126,47.885373],[4.003036,47.885417],[4.002739,47.885172],[4.00249,47.884987],[4.002144,47.884736],[4.002032,47.884651],[4.001801,47.884482],[4.00172,47.884423],[4.001504,47.884242],[4.001365,47.884128],[4.001312,47.884072],[4.001089,47.883858],[4.000816,47.883585],[4.000814,47.883583],[4.001309,47.883382],[4.001156,47.883009],[4.00125,47.882983],[4.000879,47.882289],[4.000628,47.881959],[4.000709,47.88192],[4.000325,47.881434],[4.000744,47.881144],[4.000785,47.881113],[4.000816,47.881096],[4.001014,47.881028],[4.001416,47.880887],[4.001936,47.880702],[4.002019,47.880682],[4.00232,47.880605],[4.002951,47.880448],[4.00292,47.880383],[4.002838,47.880398],[4.002699,47.880338],[4.002492,47.880242],[4.002405,47.880204],[4.00233,47.88017],[4.002196,47.880108],[4.002445,47.879858],[4.002561,47.879747],[4.002761,47.879599],[4.003315,47.879189],[4.004155,47.879435],[4.004157,47.879472],[4.004409,47.87949],[4.004668,47.87957],[4.005075,47.87979],[4.005543,47.880034],[4.005739,47.880136],[4.00587,47.880197],[4.006505,47.880489],[4.006836,47.880593],[4.006786,47.880534],[4.006497,47.880147],[4.006147,47.879747],[4.005781,47.879343],[4.005416,47.878967],[4.004941,47.87852],[4.004582,47.878239],[4.004439,47.878131],[4.00502,47.877681],[4.005061,47.87765],[4.004863,47.877483],[4.004266,47.877179],[4.003891,47.876949],[4.00368,47.876822],[4.003173,47.876628],[4.002922,47.876525],[4.002826,47.876466],[4.002457,47.876204],[4.002145,47.87598],[4.001945,47.875814],[4.001498,47.875457],[4.001105,47.875205],[4.000194,47.874789],[3.999564,47.874497],[3.999398,47.874416],[3.998407,47.873882],[3.997791,47.873548],[3.997365,47.873307],[3.99689,47.872995],[3.996323,47.872619],[3.99609,47.872463],[3.995695,47.872162],[3.99505,47.871707],[3.994992,47.871684],[3.994927,47.871659],[3.994806,47.87161],[3.994698,47.871562],[3.994187,47.871331],[3.993822,47.871137],[3.993508,47.870965],[3.993269,47.870822],[3.992854,47.870571],[3.992548,47.870369],[3.992183,47.870172],[3.991791,47.869916],[3.991693,47.869843],[3.991063,47.869336],[3.990781,47.869107],[3.990651,47.868996],[3.990347,47.86867],[3.990064,47.868272],[3.989832,47.867944],[3.989638,47.867604],[3.989483,47.86728],[3.98943,47.867138],[3.989242,47.866601],[3.989113,47.866238],[3.989033,47.86601],[3.988891,47.865573],[3.988779,47.865292],[3.988705,47.865144],[3.98862,47.864998],[3.988456,47.864856],[3.988339,47.864775],[3.988148,47.864683],[3.988017,47.864628],[3.987909,47.86464]]]]}}]}
