{"type":"FeatureCollection","features":[{"type":"Feature","id":"inao-denom-1286","properties":{"id":"inao-denom-1286","name":"Bouzeron","tier":"village","kind":"appellation","appellationId":245,"denominationId":1286,"sourceName":"Bouzeron","communes":["71051","71109"],"areaHa":155.89},"geometry":{"type":"MultiPolygon","coordinates":[[[[4.71731192510971,46.878659095286814],[4.717309541643858,46.87867752979515],[4.717471057750886,46.87888357012105],[4.717675111341423,46.87911554291595],[4.717696846171846,46.879142803596324],[4.717867272894203,46.87934769278817],[4.7180033646212065,46.879504039171536],[4.71807576372707,46.879108538515936],[4.718099581051279,46.878967178455504],[4.7182269710196065,46.87828576764519],[4.717686983176594,46.87850329195077],[4.717562000803746,46.878556246648],[4.71731192510971,46.878659095286814]]],[[[4.726098729899964,46.885643642868686],[4.726057492209589,46.8856125873982],[4.725985141807677,46.88554009400113],[4.725886410283431,46.885435304696536],[4.72581033151848,46.88533937979718],[4.725535457223371,46.88499199145266],[4.7254997901590805,46.88494858633553],[4.725403533313052,46.884827413915716],[4.725187847955219,46.88455985737711],[4.7251846074537855,46.88455173761323],[4.725428559020833,46.88444385767835],[4.725409811294484,46.88441654464401],[4.725386033411303,46.88437194368182],[4.725356522823616,46.884334579262905],[4.725331196317183,46.884287957163416],[4.725315350710926,46.884258556300615],[4.725273509088957,46.88420809297668],[4.7252338210453395,46.884132056755924],[4.725177878187641,46.88406034370727],[4.725130564066182,46.88397828871547],[4.725094637513955,46.883926710042545],[4.72505025805608,46.88384358438492],[4.725031627393921,46.88377335661661],[4.7250081756877105,46.88373897234117],[4.724981808197994,46.883659665484146],[4.724955310931269,46.88362327348593],[4.724918831751146,46.88355433973997],[4.724898718132644,46.88353113574524],[4.724841176259779,46.88350236841694],[4.724813605549071,46.88347927610949],[4.724787043662619,46.883440849717324],[4.7247521263168695,46.88337392784983],[4.724731101931034,46.883322134857934],[4.724704312170799,46.88327655220156],[4.72467859609968,46.88321766981395],[4.7246363847323485,46.883108970905276],[4.724622023304082,46.883032546133784],[4.7246516495292665,46.88297999449424],[4.724692662546155,46.88291091764966],[4.724654700359335,46.88284199702503],[4.724619081239959,46.88279961759027],[4.724595304718326,46.882755016444165],[4.724569491548308,46.882740075079],[4.724514670486358,46.882750091112314],[4.724468594697557,46.882753843156976],[4.724421790034374,46.882735127470674],[4.724392099143397,46.882691641525426],[4.72435109221709,46.8826207220709],[4.724348489597607,46.8825860254409],[4.724327888555343,46.882547500673276],[4.724304470418449,46.88246713182849],[4.724260516062091,46.88244428473566],[4.724237618221526,46.88242725531222],[4.72426688665359,46.88236346980618],[4.724245732665408,46.882307580997384],[4.724207921471208,46.882196771706084],[4.724193671787396,46.88212341619942],[4.724177632483122,46.882040883497],[4.724151644724523,46.881926835146295],[4.724084207878512,46.881868577330756],[4.724067010308031,46.88184328520111],[4.7240610180284275,46.88179535566702],[4.72403422958782,46.88174977283489],[4.724020942994831,46.88170705883783],[4.723989625920983,46.881659499470246],[4.723893280551279,46.88153525613858],[4.723769874485992,46.88135726559464],[4.723682684937675,46.88124003567795],[4.723669757191931,46.8811615539874],[4.7236282972279575,46.881076339747636],[4.723593956057956,46.88098080628206],[4.723590314667719,46.88081941268011],[4.723583464024934,46.88074491966072],[4.723568012415902,46.88063377544004],[4.723545981977078,46.88055031465419],[4.723536996817799,46.88050242087831],[4.723496319126067,46.88039472524459],[4.723468913980097,46.880329734867736],[4.723442191816477,46.880286195236295],[4.723415144721052,46.88023244781191],[4.7234175719739575,46.88021503916851],[4.723356814427083,46.88013215799794],[4.723295926971141,46.88004519007793],[4.7232705718655446,46.879997550290014],[4.723197796929801,46.879911777896915],[4.723166774451678,46.87987341789248],[4.72308118287885,46.879759234610994],[4.723009339633049,46.87965608485176],[4.722944347348879,46.87958041749649],[4.722843239004357,46.87944704958834],[4.7227648113621585,46.87937056550531],[4.722743887827411,46.87932183262826],[4.722714955193929,46.87925584726561],[4.722693100871768,46.87922450061977],[4.722620718015674,46.879150987994656],[4.722563528042322,46.87908645202413],[4.722498407032558,46.879006697687394],[4.722422784981474,46.87892506508069],[4.722380332710321,46.87885519321982],[4.7223585953509435,46.87882792441967],[4.722286733542362,46.87877075844841],[4.72225390390762,46.87872220357988],[4.722205849458988,46.87866365477468],[4.722128385463774,46.87861781182375],[4.722087330886611,46.87859185857032],[4.722055300468445,46.878568832327716],[4.7220333686798215,46.87853544238757],[4.722023337532214,46.87850085679271],[4.722015579663188,46.87839776560072],[4.722011430047292,46.87836103870123],[4.721960201533038,46.878296413279195],[4.721902720638944,46.87822267734603],[4.721890313558872,46.878207534912384],[4.721853365451125,46.87817028084529],[4.721814804009095,46.87812896223021],[4.721773901538841,46.87806111130607],[4.721725445439921,46.87799031132854],[4.721662181062191,46.87792177709527],[4.721604752825312,46.87785008456172],[4.721584512785506,46.877822793230436],[4.721505956986096,46.87778923219057],[4.721471761789026,46.87774477717998],[4.721440027339999,46.87768394872681],[4.721387952782175,46.877639761011515],[4.7213371152321555,46.87758738645893],[4.721270244553294,46.877452487669345],[4.721260453088844,46.877332063510806],[4.721253291831613,46.87729436394254],[4.721233412204879,46.87723130486598],[4.721215100468868,46.87717129334687],[4.721199684194894,46.8771081675383],[4.721155416817085,46.87698110809533],[4.720518770412811,46.87692317869048],[4.720297721725242,46.876907065090464],[4.719461398533616,46.876802049602496],[4.7189441842479205,46.876750514163234],[4.718541255107774,46.87673199720081],[4.718578203045898,46.87686326448545],[4.718623380430403,46.877065933461346],[4.718718646942888,46.87729748398208],[4.71876492936302,46.87739386724559],[4.7188816644306435,46.87759751219074],[4.719010806268722,46.87781629075112],[4.719059505075052,46.87789526551593],[4.719157686153904,46.87803072466103],[4.719205866526349,46.87809336147108],[4.719289542214795,46.87819429249192],[4.719519942777751,46.878457542319985],[4.719555600772274,46.87850094936944],[4.7195912780063685,46.87854537378293],[4.719759703442847,46.87878094612182],[4.719808436523419,46.87886093772761],[4.719892309274706,46.87896799836937],[4.7199620001891,46.879050747848915],[4.719988686340582,46.87909326212234],[4.719998145700213,46.879109475454435],[4.7201134191015965,46.87922014651293],[4.720143994446382,46.879291223268446],[4.720301477970914,46.879557605239306],[4.720366258436861,46.87972012969401],[4.720385845606153,46.87977398925689],[4.720419823615923,46.87985829873728],[4.720448967793042,46.879931432118546],[4.720479381483984,46.87999739587141],[4.720512710354203,46.88006127172595],[4.720540131016582,46.88012728018624],[4.720533579909249,46.880295976734956],[4.720526285056921,46.880582192804916],[4.720542519411768,46.88076485916041],[4.7205528194933875,46.88085461971438],[4.720557715037826,46.880914840765456],[4.72058369816068,46.880981888349076],[4.720613622248055,46.88107953296761],[4.72064764016143,46.88125886254807],[4.720681681125682,46.881392216879995],[4.720707878976368,46.88146642087777],[4.720757242648885,46.88161282083081],[4.720833973723491,46.8818701961618],[4.720890564688524,46.882056338942306],[4.720934576036689,46.88217523387345],[4.7209988421126035,46.88232141999048],[4.721073110174076,46.88245416393413],[4.721111522019846,46.88253738024796],[4.721133127358946,46.88260756412944],[4.7212140680656995,46.88280968839605],[4.721239400898628,46.8829033218117],[4.7213047492185956,46.88303722560478],[4.721366808620875,46.883113955343994],[4.72147070545112,46.88324114978345],[4.721581342782499,46.88339276628942],[4.721660261860633,46.883484571764605],[4.721790352117332,46.88359196667542],[4.721833751699321,46.88364445225003],[4.721861808276814,46.88368285694056],[4.721911935079858,46.883759764826145],[4.722040737661484,46.88387330269772],[4.722121904447474,46.883941577984814],[4.722159214087006,46.883990065861944],[4.72228251201061,46.88411798709063],[4.722341580634976,46.884194761052655],[4.722404293023217,46.88429192376531],[4.722563677365191,46.884523529639],[4.722631523648315,46.8846420673691],[4.7226922643131335,46.8847709330027],[4.7227132873110795,46.8848227263453],[4.722802008417651,46.884987962219036],[4.7229059431877936,46.88516317402748],[4.72294834917229,46.8852310020172],[4.723003346275309,46.88532010253522],[4.7231534063479925,46.885492588629795],[4.723412638270584,46.88577072738712],[4.723682148202543,46.88604360541564],[4.7238648533808805,46.886211513302484],[4.724064563442385,46.88639858293031],[4.724252418361029,46.886587874061675],[4.724428430878389,46.886779377556074],[4.724592119758045,46.8869588173947],[4.7246791899829885,46.88707195072344],[4.72476609822309,46.8871799891032],[4.725022993134672,46.88710359001482],[4.725113062685159,46.88707669115177],[4.725440679214149,46.886974708701025],[4.725465778415144,46.88696718197737],[4.72549229611721,46.886957589664895],[4.725509690253675,46.88694200106959],[4.725554518117147,46.88685243258302],[4.725625908011644,46.88670728717773],[4.725666759890281,46.88663310617949],[4.725705360707876,46.88658143750906],[4.725756539345456,46.88650403072026],[4.725789700103136,46.886468789169484],[4.725834411363878,46.88642214419973],[4.725872231500201,46.88639296577928],[4.726035776964127,46.88624030587578],[4.726063074498696,46.88620822311841],[4.726278721445243,46.88600675364128],[4.726378416767593,46.885908184924745],[4.7263027125132355,46.88577751012818],[4.726276278488877,46.88574316180869],[4.726162593670763,46.885683554139064],[4.726098729899964,46.885643642868686]]],[[[4.724608857458452,46.8870627914294],[4.724542994865447,46.88696057074688],[4.72447815456271,46.88689001729888],[4.724311538109435,46.8867126744742],[4.724228230148784,46.8866239984673],[4.724129513178075,46.88651920749263],[4.723824182054239,46.88624482238832],[4.723731837006893,46.886153219326296],[4.723659476153955,46.88608073367763],[4.723607112181258,46.88602735628312],[4.723387258864279,46.88581606442227],[4.723302522395266,46.88572946247918],[4.723208565396252,46.88563379447781],[4.723115585375328,46.88552176616496],[4.723039985671961,46.885441151292255],[4.722971518393099,46.885350208012625],[4.722902453437545,46.885240892695286],[4.722830453653609,46.88513262990158],[4.722741386555651,46.88500317046659],[4.722658397434501,46.88487770869452],[4.722620210657083,46.88475463863508],[4.722553834712913,46.88463607890548],[4.722528218014169,46.88458026559471],[4.7224962506486055,46.8845122813062],[4.722474218504315,46.884475821972565],[4.722244283152852,46.88460290254014],[4.722137175999523,46.884421595609226],[4.72219290278923,46.884112176684155],[4.722016203046359,46.88394520308565],[4.721928003796469,46.883843314980844],[4.721873952295912,46.88378383807804],[4.72160573180898,46.88350377701517],[4.721409303277458,46.88327885663854],[4.7212508689448525,46.88307685525911],[4.721201285588123,46.88297030971806],[4.72109961862526,46.88267856280415],[4.7209974601237406,46.882465516281485],[4.720866220782849,46.88218136179015],[4.720775912885344,46.881872081523674],[4.720766063370888,46.88184361712119],[4.720656145667109,46.88152645248793],[4.720568079983475,46.88128764536554],[4.720527004526689,46.8811676797501],[4.7205090236450955,46.88102387275777],[4.720450053040423,46.88057515456793],[4.720448138005125,46.88051489797992],[4.720448243106577,46.880142954519606],[4.72038181623033,46.87997534839802],[4.720357265487648,46.879906235029175],[4.720305151548524,46.87976702661554],[4.720280957702424,46.879709138201854],[4.720250330423639,46.87963602693689],[4.720201290536012,46.879546836112176],[4.720131635036943,46.879418111337976],[4.720020296020184,46.87924402530825],[4.719978105998446,46.87918231700696],[4.719813145353816,46.87896203020609],[4.719752394730537,46.87887914710433],[4.719719586487718,46.87883160889033],[4.719613764746793,46.87869014034358],[4.719531408705293,46.87858407451587],[4.719444395193287,46.878471954200485],[4.71925862467235,46.87825299505763],[4.719119811789133,46.87810485903908],[4.719053938156052,46.878001617776015],[4.71899727722188,46.87790641625043],[4.718835652574829,46.87765030700506],[4.718776879712746,46.877535720267275],[4.718679605399426,46.8773348557201],[4.718626914437232,46.87717725618703],[4.718580378143117,46.877025697749744],[4.718531438029865,46.87726757817538],[4.7184634161364984,46.87761295050972],[4.718320230987064,46.87831298746964],[4.7181795681544525,46.878998676113945],[4.7181485215898205,46.879147303724245],[4.718143760925161,46.879185181340276],[4.71808311837769,46.879481397195875],[4.7180637893062505,46.879576715378015],[4.7180214127981115,46.879790903472426],[4.71797346494126,46.880017440631],[4.717943868124724,46.8801650198277],[4.717908027032708,46.88035050773918],[4.717866757131603,46.88055242223901],[4.717851113028318,46.8806231624384],[4.717836965204867,46.88069387130445],[4.71783570881731,46.88070104969909],[4.717740736060994,46.88076070740457],[4.717760780742956,46.88078186930729],[4.717847424859329,46.88088275703584],[4.717904708519093,46.88095036485648],[4.718086019217985,46.881169392617586],[4.718284182355755,46.88140246990308],[4.718380158009262,46.88151548395446],[4.718313902839325,46.881540995633834],[4.718419286111844,46.881668170548856],[4.718582104544476,46.88186806592403],[4.7187455532223055,46.882087359270805],[4.718776606419068,46.88212674662226],[4.7189291052633,46.882282847021735],[4.719093999408424,46.88245409912785],[4.719132432067869,46.88249133188571],[4.7191832526278406,46.882542680962196],[4.718581598756303,46.88288477956337],[4.718003260259575,46.883210172400744],[4.71756113601021,46.88346097944493],[4.717259493051152,46.883629988063014],[4.717451181903268,46.88375281468831],[4.717485539532733,46.883802374712715],[4.717598039155516,46.883966224043725],[4.717672488474462,46.884058098819864],[4.717717335731742,46.88410954662994],[4.7178124528573155,46.88419498003278],[4.717968835232436,46.88433263379622],[4.718037033403403,46.88441540664366],[4.718206867459323,46.884553886060736],[4.718295590930961,46.88462613086384],[4.7184936217246065,46.88452610169596],[4.7185098121656655,46.88451972709314],[4.718681872237563,46.88472867933882],[4.718879040752452,46.8849770983825],[4.718992317401661,46.88511846522394],[4.719110104014357,46.8852607822879],[4.719283795015507,46.88547378895744],[4.719369975956525,46.8855593545339],[4.719618115458423,46.88581724191586],[4.71963495503006,46.88583129171996],[4.7197612967624885,46.885961223431075],[4.719800056698321,46.88600866370833],[4.719883810654722,46.88611163742502],[4.71989612173825,46.88612371950725],[4.720057475106564,46.8863236256985],[4.720119078423363,46.88643306308654],[4.720308315504096,46.8866662792933],[4.720396645911059,46.88677224626524],[4.720509670476968,46.88690543811996],[4.720577694043699,46.886982079139834],[4.720668863170283,46.88708392384942],[4.720764441353345,46.88723065075238],[4.72085717300275,46.88733451629428],[4.721044204931873,46.887545276697054],[4.721051955160953,46.88755436483659],[4.720890485269009,46.887632390953975],[4.7209427310234195,46.887681673652004],[4.72105090513904,46.887802680528246],[4.721163509515821,46.88773457951778],[4.72121127834432,46.887783929010375],[4.721286161279574,46.887889078651966],[4.721323602856288,46.887941653453325],[4.721486778177008,46.88810475061597],[4.721509774895252,46.888124841088846],[4.721605381773181,46.88817859059672],[4.721677157999542,46.88823269630911],[4.721744424412751,46.88828584273883],[4.721773544947494,46.88831095691993],[4.721723799252805,46.888340312223036],[4.721706565927535,46.888361004123894],[4.72169439488493,46.88840001926738],[4.721715323422189,46.8884017506974],[4.72182707878605,46.88840109747614],[4.721837517120568,46.88840094140458],[4.721843497646273,46.888401878650434],[4.721897458354197,46.88841128444663],[4.721933666340124,46.8884250533264],[4.721954952289971,46.88843801865683],[4.722026261011366,46.888477820869106],[4.722047481993578,46.88848874282872],[4.722091102132548,46.8885013741556],[4.722164495042843,46.88851254256956],[4.722203228561223,46.88851196331786],[4.722238851531837,46.88850734192079],[4.722315538596818,46.88848167211584],[4.722403744347831,46.88844356402223],[4.72258231741552,46.8883407570657],[4.722744555549374,46.88824023851279],[4.722795849319242,46.88821290392505],[4.72290035614623,46.888171489581474],[4.722802080777365,46.88808099218338],[4.722740676851428,46.88802468766285],[4.723158416634313,46.887803855368844],[4.7233554422709,46.88800016132719],[4.7236897456042835,46.887826559523056],[4.723733678516206,46.88780240567243],[4.723985853839254,46.887670900799414],[4.724308556589214,46.887554693948374],[4.724578175938395,46.88745664442853],[4.7248316171837565,46.887364978568236],[4.7248309853452355,46.8872985698902],[4.724816831255546,46.88727527662305],[4.724759825128933,46.887216862949906],[4.724656563727477,46.88711009614971],[4.724608857458452,46.8870627914294]]],[[[4.72339831756644,46.891406248846536],[4.7233516696113105,46.89134564417913],[4.7234784003404675,46.89129980821906],[4.723380574767523,46.891176613380374],[4.723302767625802,46.8910735531533],[4.723193856145432,46.891117077979054],[4.723159618758465,46.891071606464656],[4.723121371181977,46.89108750667198],[4.723027523186317,46.89094891509181],[4.72296976749676,46.89086701555422],[4.722891669022238,46.890754764458656],[4.722709038963177,46.89049591300656],[4.722516851187081,46.89021778764538],[4.722432663336449,46.89010153867589],[4.722223669256919,46.889810380590426],[4.72250328728441,46.88969788541694],[4.722295204391124,46.889435325363436],[4.72205314833486,46.889135466457766],[4.72168359957103,46.88890393124403],[4.721634332493244,46.888854604340736],[4.721603923013675,46.888835642369834],[4.721517418891294,46.888786863087496],[4.72143763464054,46.888668503253676],[4.721705196351058,46.888552101486844],[4.721421644406267,46.88844700953971],[4.721298164369462,46.88840696011757],[4.721234775047179,46.88838236703177],[4.721165080387839,46.88834661985978],[4.721073710571352,46.888285656032124],[4.721012568095657,46.8882375240104],[4.720940402716714,46.8881711577581],[4.720773469100609,46.88798359310855],[4.720600361624755,46.887788969834084],[4.72044424511374,46.88761350905139],[4.720372799275777,46.88752261781314],[4.720223719702199,46.88733375899561],[4.720127424969917,46.88721156526865],[4.7200251826462605,46.88708945129355],[4.71991703172609,46.88696946980383],[4.719675652979746,46.88664302871031],[4.719506619525701,46.88638907557462],[4.719297729011044,46.8861469565714],[4.719194123616135,46.88602895088132],[4.719100108747256,46.88593124518162],[4.719047703981089,46.88587684873037],[4.718761216610488,46.88558479702064],[4.718699592779162,46.88552134305633],[4.718269793544033,46.88569124914419],[4.717509483005787,46.885872207574806],[4.717537589663625,46.88591266584918],[4.717621727925647,46.88602789235697],[4.717456661761481,46.88608655975647],[4.717501620734909,46.88614106796019],[4.71760706276463,46.886270287004],[4.717733818755829,46.886225474475374],[4.71795483815224,46.8861455467109],[4.718184506014877,46.886056285504644],[4.718257345846469,46.88614409527027],[4.718285064009687,46.88617229321713],[4.7183779430405375,46.88623425433242],[4.71845431509118,46.886339383526746],[4.718524486587702,46.88643745457228],[4.718593792927382,46.8864139416842],[4.718691185765264,46.88657087378227],[4.718778762114418,46.88670035843548],[4.7188902614248915,46.88687954937966],[4.719213684025902,46.886785824694925],[4.719319825894626,46.88693649268804],[4.719329500037306,46.88695984447809],[4.719319626659055,46.88697736415097],[4.719290808780259,46.88700845027672],[4.7192914901372225,46.88702990101301],[4.719363777022548,46.88714734755878],[4.71941656409897,46.88716700264918],[4.719357662664096,46.887189334001704],[4.719208656208821,46.88723754246181],[4.718997345946859,46.88729485807716],[4.719083732432762,46.887433555219246],[4.719235427065927,46.887658129575335],[4.719365377715493,46.887854425855046],[4.719424997879397,46.88794856525005],[4.719521255679342,46.888116743876935],[4.719744360988504,46.888055171566755],[4.7198971727263945,46.888361474358916],[4.719662579264332,46.888436502100795],[4.7198267672429575,46.8888192747252],[4.719823819319219,46.88882034541514],[4.719939517237005,46.88908428958478],[4.720027726605919,46.889280181862766],[4.720075764779601,46.88938470652301],[4.720109313250857,46.88945573875835],[4.720404106505935,46.89000821985758],[4.720485994629002,46.89009896406389],[4.720564889004933,46.890189743935274],[4.720602104262132,46.890235171700546],[4.720782424736422,46.89051552175532],[4.720887051933739,46.890618182850474],[4.720969967646915,46.890741602535115],[4.7210202427990655,46.890822597161915],[4.721068858629958,46.89089850125273],[4.721171478258248,46.89107885838582],[4.721222111286355,46.89117108685412],[4.721238170574225,46.89120762664873],[4.72126155842347,46.89123997726718],[4.721284783694758,46.89126721499909],[4.7213859752666805,46.8914026271752],[4.7214512200249805,46.89148544218835],[4.721561698674439,46.89163195467078],[4.721580524799276,46.891661302428815],[4.721609027206554,46.89171401075167],[4.721645897666711,46.89179520549476],[4.721721350069446,46.891964719987456],[4.721748550866328,46.89202358070455],[4.721816298663223,46.892185033023594],[4.721829770317254,46.89218687593724],[4.722108229605908,46.89208462093751],[4.722183633072793,46.8920651034882],[4.722346238718389,46.892022820998605],[4.722673676035277,46.891913699139],[4.723011654573146,46.891808498260694],[4.72313994892635,46.89176469263631],[4.723552449977949,46.891612400303586],[4.72342877397495,46.891473237779365],[4.723380641871657,46.89141264632763],[4.72339831756644,46.891406248846536]]],[[[4.725496621639762,46.889384340045886],[4.725537620012751,46.8893612471546],[4.72544848827646,46.88927674792262],[4.725387099536781,46.889221462203885],[4.725452905080622,46.889181652054994],[4.725530489285185,46.889137576725],[4.725590626262074,46.88910703739328],[4.725707659450866,46.88903784789767],[4.725587940278743,46.88888228268591],[4.725556702118879,46.88883778456532],[4.7255292384998,46.88877076028958],[4.725339690110076,46.88880936250383],[4.725259730536771,46.88882588839155],[4.725195181171569,46.88885852897764],[4.725038223430768,46.88893751998233],[4.724472202875398,46.88843406900469],[4.725105951743187,46.88816299320703],[4.725061146100167,46.88811359188296],[4.724987297170293,46.88804112933477],[4.724958305529524,46.88802010266854],[4.724878216464179,46.887985540074325],[4.724798537467202,46.88796425490959],[4.724738661285804,46.88795595672829],[4.724683477014739,46.88795473889018],[4.724560028414917,46.8879627206539],[4.72446976152451,46.887983480018754],[4.7244700546241685,46.88799267960541],[4.7244125078533115,46.888010904615136],[4.724292365041608,46.888029058223324],[4.724094918021448,46.88810047691737],[4.7239474748822445,46.88815070343703],[4.723776396168763,46.88820742554587],[4.723700673286231,46.88821672729596],[4.723185999971752,46.88820195121601],[4.723678385763185,46.88864009240575],[4.723475051321859,46.88880765441798],[4.723543959458636,46.88891186539961],[4.7237440838219245,46.88948619858492],[4.723414443029795,46.88966586351456],[4.723606003602478,46.889830568293725],[4.723652065454808,46.889872800721825],[4.723729969006088,46.88997892127535],[4.723945147572925,46.89027713480223],[4.724004433666532,46.89036003763282],[4.72406310173971,46.89042353309519],[4.724135553588876,46.890499088123676],[4.724193310936656,46.890533985603305],[4.724220611465077,46.89054890480482],[4.724285163226326,46.89056326626314],[4.724349292015522,46.89056435040473],[4.72439534176642,46.89055957223995],[4.724447092338742,46.890546531390285],[4.724596838655494,46.89047480894694],[4.724735098351776,46.89041654194679],[4.724988279276838,46.89031669361144],[4.725073909422119,46.89029088804655],[4.725171481485952,46.89026593019035],[4.725492649124819,46.890194700471945],[4.7255829710388335,46.89017597486434],[4.725564188820224,46.89014764472568],[4.725709078351746,46.890110729105196],[4.725676095340867,46.89005808886596],[4.725812465023848,46.88998758289222],[4.725786224715038,46.88995936455337],[4.725730809443909,46.8899039985011],[4.7259477113243715,46.88978834601238],[4.725852519506772,46.88970087591882],[4.725688480866531,46.889558240954806],[4.7255841527525755,46.889464774571536],[4.725496621639762,46.889384340045886]]],[[[4.726283599014017,46.890365746624546],[4.726226311300392,46.89039215492949],[4.7262140436923366,46.89038109951777],[4.726200116151414,46.890364953665674],[4.726117923202878,46.89040501884309],[4.726069466187453,46.89042822371624],[4.726026983490979,46.89045133902751],[4.726040910715423,46.8904674758986],[4.725901429471214,46.89053394910354],[4.725915337086933,46.890549059616816],[4.7259036752393255,46.89055741169445],[4.725873035400263,46.8905313036354],[4.725799475137245,46.89046803223343],[4.725782554238922,46.89045194019599],[4.725701792285345,46.89048993029228],[4.725609664978066,46.89040548507472],[4.725605070329744,46.89040146526788],[4.7256827537402115,46.89036045037563],[4.725656656746722,46.890336318514244],[4.725732921438338,46.8902973691708],[4.725688374056938,46.890256141522585],[4.725593685278701,46.89027799463073],[4.725562967471512,46.89024984333338],[4.72520928656322,46.89032973762026],[4.72507622071505,46.89036340449252],[4.724992074197157,46.89038918783416],[4.724905187894784,46.89042216278763],[4.724755377303882,46.8904918512837],[4.724684044631788,46.890545027377144],[4.7246043103912765,46.8906157105117],[4.724564287005351,46.89066944432282],[4.724533986431982,46.890747555426074],[4.724492329554041,46.89093721178966],[4.724481135947544,46.8910068594551],[4.724481409463111,46.89106203413658],[4.7245156937676285,46.89120253418556],[4.724548969191358,46.89126436531593],[4.724596776919582,46.89131473953014],[4.724779502726155,46.89148264571108],[4.724800972783541,46.89150174075125],[4.725128159720132,46.891291452925],[4.725306018988507,46.89144717424518],[4.725282609997563,46.89146080854916],[4.725495411128925,46.89159045655169],[4.7257253796611165,46.89165035785867],[4.7256725689026,46.89172370024974],[4.725595568373537,46.891833167253594],[4.725652631303324,46.89184662251728],[4.725932088679128,46.891916003505145],[4.726003274332412,46.89171772676043],[4.726230949649909,46.89109816161348],[4.7263754341098005,46.891141970645904],[4.7264207343569025,46.89092670931826],[4.726453620477853,46.8907893004646],[4.726485776313759,46.890629414946055],[4.726504377795386,46.89051162780711],[4.726508088982127,46.890394054887764],[4.7265091491880105,46.890380755370494],[4.726332595020813,46.89031290434666],[4.72629732952045,46.89032876093176],[4.726318864542497,46.890349890043815],[4.726283599014017,46.890365746624546]]],[[[4.725768826222343,46.892872825872594],[4.725548072510159,46.89272796955493],[4.725447044697511,46.89264466621681],[4.725281463057284,46.89254701093412],[4.725062684098812,46.89241745206377],[4.724942647828875,46.892345681306935],[4.7248094198624475,46.89228125862949],[4.724613232744769,46.89215851121222],[4.724588898874839,46.89214354767227],[4.724483916860842,46.892076657325845],[4.724199592880137,46.891901076836],[4.724074820931088,46.89182119879862],[4.724237763231877,46.89174212872555],[4.72414946240505,46.89168418329636],[4.723897427334058,46.89153979221238],[4.723195688741819,46.891830276659704],[4.723084901547652,46.89186156346906],[4.722759828324275,46.89195123457739],[4.722480818617239,46.89203613617382],[4.722411539138745,46.89206066853761],[4.72215659938135,46.89219936140161],[4.722104153110146,46.892143949264515],[4.722087830779033,46.89214623765597],[4.722023223658643,46.89217683288548],[4.722001362330172,46.892192487684845],[4.721992008679316,46.89222634536939],[4.7219877348048,46.892326545094356],[4.721983777671987,46.89248294546102],[4.722029166803069,46.89259773053307],[4.722067292753308,46.89271875715946],[4.722099296792209,46.89278775858103],[4.722155288318537,46.89290750037514],[4.722248875406748,46.893084920632816],[4.722286971477837,46.893157919546915],[4.722314021992716,46.89325866848227],[4.722350764793318,46.893335785264064],[4.722356171869787,46.893365333575616],[4.722397021604711,46.8934311406444],[4.722446878827615,46.89349885730913],[4.722560553028293,46.893651445021206],[4.7226037989712575,46.89369882627902],[4.722601338476377,46.89371521766352],[4.72262436871859,46.89378332649414],[4.722654758843863,46.893895273672605],[4.7227223918902625,46.89414665034453],[4.722782806333435,46.89445229598511],[4.7227126786286915,46.89445027397026],[4.7226594592983435,46.89446435359079],[4.722576607126709,46.89448398269759],[4.722517504213319,46.89450019457152],[4.722491405156747,46.894523072451925],[4.722495141601372,46.894687525975804],[4.722499206474639,46.89476818438921],[4.722565928230592,46.89503797362249],[4.722569266667431,46.89504916296027],[4.722600155879974,46.89503643503518],[4.7228134893176,46.89480742303822],[4.722807495222381,46.89480649504245],[4.722790229091678,46.89477915946699],[4.722814051161134,46.89473180172407],[4.722825911001522,46.894682578591784],[4.723138783103629,46.89491188740035],[4.723184426160757,46.89494084268526],[4.723239434346853,46.89498293241788],[4.723346164598991,46.89505797503458],[4.723570260574967,46.89521402478258],[4.723678293508064,46.89528291463803],[4.723745212835254,46.89532482587481],[4.724058938895975,46.895533685254364],[4.724108767369191,46.89564738539838],[4.724140255243024,46.895700048411314],[4.724145058659306,46.89571019811798],[4.724228067578205,46.89588265983661],[4.724362690093831,46.89594400038206],[4.724539683541758,46.89602514057526],[4.724600056845376,46.89604875944679],[4.724683021483645,46.89607919062474],[4.724758462208119,46.89610769009239],[4.724836753977891,46.89613206717569],[4.724955561615749,46.896165032368444],[4.725075866143444,46.896197966014626],[4.725221730322499,46.89623767631451],[4.725347932188137,46.89626848602726],[4.725534052153493,46.89630861055312],[4.725637154736678,46.896316260805634],[4.725754953717497,46.89631756679857],[4.725969632805273,46.89631843857554],[4.726062355660044,46.8963742630754],[4.726397699433566,46.89641930944925],[4.726546531235948,46.89641197218188],[4.726795158989041,46.896402111896634],[4.726926541856759,46.89640831934207],[4.72699530534505,46.89641443892805],[4.72706864478723,46.896423560845435],[4.727283861299972,46.89648776914409],[4.72754306484134,46.89657584017231],[4.727638073370708,46.89661018626032],[4.727719674003288,46.89664472439271],[4.7278695005980875,46.896715027798535],[4.72791493856109,46.89673784235335],[4.727986308497726,46.896778666756404],[4.728141644415138,46.89688158734089],[4.7284286785369,46.89709389758429],[4.7285098600739675,46.897162168305734],[4.728561505865976,46.89723905053089],[4.728592849103441,46.89728660824444],[4.728611210992637,46.897301651590226],[4.72871158027883,46.89736350122726],[4.728801411681465,46.89742243796162],[4.7288399765874365,46.89750973802677],[4.728870425971035,46.89752971521092],[4.728912407995153,46.897537262335746],[4.729003524099405,46.897543045215336],[4.729051500658472,46.89755151996206],[4.729209528158499,46.897645203785125],[4.72939655447734,46.897759903884506],[4.729461997352388,46.89780183405107],[4.7296184636212715,46.89789348744023],[4.7297081990681855,46.897949362943734],[4.729799562409752,46.89800930257985],[4.73003886047788,46.89822029051058],[4.730064990933254,46.89819843711716],[4.730352254761193,46.89799793878657],[4.730751867876903,46.89772114716645],[4.730877189722999,46.897631393974166],[4.73138946107137,46.89728853322468],[4.731719298591413,46.897067974701415],[4.73203020180603,46.896860983532555],[4.732090180341325,46.89682533701911],[4.732624316093925,46.89646784037326],[4.732542476822469,46.89637915711189],[4.73247784361384,46.89631575555935],[4.732406405489033,46.896272890590595],[4.732191843314475,46.896136121844904],[4.732114247900857,46.89608722532792],[4.7320441440420336,46.89603923376043],[4.731856202889452,46.89589594009392],[4.731819562501891,46.89586889713068],[4.731724644588718,46.895790622589985],[4.731706170995176,46.89577251041498],[4.731637029028227,46.89570815853592],[4.732043273483367,46.895499724642576],[4.731947015777916,46.89537957523204],[4.731752919558288,46.89523024999019],[4.731719260544925,46.895203162169324],[4.731668788793525,46.89516305250712],[4.731593195431494,46.895083460644884],[4.731494062865332,46.89501342659641],[4.73141356704789,46.89496660855065],[4.7312121261208775,46.894820454825904],[4.731091780099931,46.89487948688071],[4.73070752702494,46.8950763387095],[4.7306361247531425,46.89503449880062],[4.730407007480188,46.89490816716519],[4.73034318160813,46.894870292895455],[4.730061021234368,46.894670171092315],[4.7300032231749585,46.89463425942491],[4.72982816222589,46.89452039829635],[4.729707821236744,46.89443944199484],[4.729664992823751,46.89440534066077],[4.729628387335703,46.8943793231625],[4.72956884482031,46.894335260175254],[4.729506223485806,46.89428817239951],[4.7293853611390215,46.894190868988446],[4.729327335373248,46.894147800765154],[4.729264845332831,46.8941048085493],[4.729171450545714,46.89402752675759],[4.729066002528064,46.893946346201815],[4.728985184002888,46.893889309712954],[4.728954540791517,46.89386320249881],[4.728844778699536,46.89378719282261],[4.728796035668111,46.89375420662621],[4.72876573833697,46.89373933346334],[4.728657878450858,46.893675561018895],[4.72861524709776,46.893647589327095],[4.728528520052128,46.89359268553518],[4.728475267160851,46.893558749232575],[4.728421590020652,46.89351152664925],[4.728334746300369,46.893452544819844],[4.728293729617292,46.89342863743378],[4.72825129439878,46.89340679564646],[4.728114932102523,46.893384309920286],[4.727987675773253,46.89336681173418],[4.727950337792899,46.893364300949116],[4.727869459268633,46.89335223076647],[4.727713696631175,46.8933290269734],[4.72766122667437,46.89331959245815],[4.727629804683686,46.893315975163794],[4.727440386586006,46.8932656819601],[4.727201369036382,46.89320284869116],[4.726800022536009,46.89323747855876],[4.726686842931936,46.893194218319664],[4.726593501062287,46.89316496184241],[4.726582833810569,46.89315797112694],[4.72652640596229,46.89311793955962],[4.726471573060844,46.89308095504705],[4.726407491661668,46.8930349141849],[4.7262762116180825,46.89293776376504],[4.726149041414497,46.892923324264196],[4.725847178640561,46.892899236639266],[4.725806502395119,46.89288554491073],[4.725768826222343,46.892872825872594]],[[4.7259508260590115,46.8930642373619],[4.725761278502366,46.893196851920585],[4.726149041414497,46.892923324264196],[4.7259508260590115,46.8930642373619]]],[[[4.730823531360492,46.88910207629191],[4.730798916384702,46.889077923287324],[4.730789354468347,46.88905865936891],[4.730761838314563,46.88899061036774],[4.73050258573535,46.888713505584455],[4.730401708119771,46.88863531956525],[4.730149698197548,46.88844495769872],[4.730054898630914,46.8884167526497],[4.729978034044217,46.88839031342086],[4.72991294181332,46.88835859998166],[4.729737122556225,46.88826722883285],[4.72965857905186,46.88823469062893],[4.729571453151516,46.8882135205847],[4.72933709579776,46.88815572828381],[4.729037353701558,46.88805702199372],[4.729001163805305,46.888044281718535],[4.728969040220445,46.88801819674027],[4.728957212506755,46.88797444374261],[4.728944213786322,46.887940911962176],[4.728920953597519,46.887912658574486],[4.728796412156808,46.88783993278414],[4.7286840539516115,46.88777520129433],[4.728500989836392,46.88769007004795],[4.728238696471872,46.88750394712766],[4.728885767503578,46.887137620239585],[4.72881224110669,46.8870753768759],[4.728722543966233,46.887020517870404],[4.728627874588677,46.88694939680594],[4.728598914602826,46.8869293882241],[4.728517882559135,46.886912214598325],[4.7283176174856125,46.88675479907614],[4.728272076593606,46.88672891528412],[4.728221843210861,46.886695942239776],[4.727685384832996,46.88702587039615],[4.727474272835594,46.886855323533325],[4.727335943372254,46.88695754369059],[4.727279423764409,46.88691445189419],[4.7268616792633855,46.88722828507171],[4.727073698281517,46.88733340990226],[4.727169602840913,46.887396354385075],[4.7271806143762785,46.88741457918569],[4.727118314305799,46.88747069245121],[4.72709235069491,46.88749764912136],[4.727094323211136,46.88751294750318],[4.727109909646878,46.88753416568743],[4.727170450882841,46.88756289595156],[4.727178384335256,46.88757810492755],[4.7271434465860915,46.88760416953823],[4.727133575619182,46.88762168987765],[4.727155207837861,46.88764588837725],[4.727180665586126,46.887649595211634],[4.72721350271838,46.88765114703029],[4.727263961786122,46.88764425721038],[4.727291767543338,46.887628512178566],[4.7273462645336,46.88756127655995],[4.72736766873085,46.887578327792255],[4.727604011768125,46.887838410797585],[4.727631099576442,46.88789318329701],[4.7276986018986555,46.888093469463115],[4.727781531549342,46.88835687130373],[4.727793521608394,46.88840573729383],[4.727799061382888,46.88853236654584],[4.727802647477539,46.88864470579811],[4.727818515059134,46.888675123652924],[4.728002934483267,46.888849132440136],[4.72821306111782,46.88903501212239],[4.7283080273556894,46.88911533305903],[4.728498182702184,46.88928210434583],[4.728582072131202,46.88934215703704],[4.728651609673751,46.889372786836645],[4.7287539661768125,46.889403950601775],[4.728790502613993,46.8894279250662],[4.728902933449512,46.88954170126649],[4.729127985853569,46.88977435680341],[4.729455269884343,46.88970813939304],[4.729527869286744,46.88969478312517],[4.729653648970266,46.88966632679125],[4.729882579654357,46.88960055864101],[4.7300572572742965,46.88956319001706],[4.730131385982234,46.88955083705621],[4.730183572055382,46.88955107969285],[4.730228417382206,46.88955551224965],[4.730311114225288,46.88957777503986],[4.730513456555787,46.889659542815345],[4.730659979870674,46.88972069715444],[4.73072324436251,46.88974119834761],[4.730775548174585,46.88974552760903],[4.730833649636625,46.889744654383165],[4.730904862903011,46.88973438006811],[4.731074161597726,46.88966848813667],[4.731286560177033,46.88959887701431],[4.731228950863117,46.88947508395875],[4.7314961686628925,46.88934844273621],[4.7313568099855985,46.88923201183585],[4.731249100023388,46.88912633529841],[4.731040683456071,46.88922756914939],[4.730823531360492,46.88910207629191]]],[[[4.7278342022964495,46.89056729682208],[4.727699040045035,46.89067559363225],[4.727635220253841,46.890730703208675],[4.7276033107391005,46.89071176528751],[4.727616306321869,46.89069828671113],[4.727547958060041,46.89065844347062],[4.727377770781691,46.89055677161302],[4.727386223675192,46.890541316872074],[4.727316391750507,46.89050148674606],[4.727335335455668,46.890487918985926],[4.72711374244823,46.89036352151466],[4.726956016294514,46.890465005192915],[4.726869491615325,46.89041623015017],[4.72695994170407,46.89035458867879],[4.7268414561368095,46.890284831956286],[4.726794364339526,46.890256935506315],[4.726738984030556,46.89029659009048],[4.726649297071271,46.89024173832595],[4.726573881996574,46.89035424430873],[4.726557933653873,46.89041476854558],[4.726544739650195,46.890515102352964],[4.726536401063133,46.89062762932435],[4.7264926829072875,46.89084592899592],[4.726430589222088,46.891142170498284],[4.726408158034647,46.89118644627221],[4.726436647696265,46.891472125825494],[4.726444011646697,46.89156295643452],[4.726456391141541,46.89176406944606],[4.726462075840522,46.891848792242506],[4.726471995352304,46.891879299424886],[4.726486151070936,46.89190258345615],[4.726505975300651,46.89191659654825],[4.7265391081874695,46.89192733912675],[4.726548115459612,46.89192924841857],[4.726450577112285,46.892049236529104],[4.726687585554449,46.8921427572957],[4.727020915976838,46.8922654890909],[4.727281044313377,46.89238318486739],[4.727553283438312,46.89213284571771],[4.727628440749158,46.8920591672204],[4.727654732126034,46.892042418204525],[4.727778692639557,46.891956777190664],[4.727939966824062,46.89182561000497],[4.728076517234388,46.89171422116084],[4.728189756769681,46.89161953656845],[4.728375546197159,46.89150946178388],[4.728436972494846,46.89147277767599],[4.728533533768452,46.8914161495848],[4.728612452266021,46.89136693686903],[4.728618120057156,46.89135765682477],[4.728499267933488,46.891229666441305],[4.728321971020028,46.89104533889999],[4.728016837620048,46.89073212837936],[4.7278342022964495,46.89056729682208]]],[[[4.741753080083974,46.89951924585912],[4.7417765015432805,46.899505608041395],[4.74161327858094,46.899390567697324],[4.7415626640720845,46.89934637574734],[4.741447768856167,46.89920403715986],[4.741231271494522,46.89896207162186],[4.741023122614513,46.89874757345439],[4.740851588769096,46.898559079807704],[4.7407766203433175,46.89845292604688],[4.740672188867878,46.89831144622664],[4.740549726701586,46.898119157544826],[4.74029514667379,46.89780521456699],[4.73999443619969,46.897447010682846],[4.739827638018768,46.89726663034269],[4.739704143689312,46.897088657684264],[4.739597642874704,46.89692881820285],[4.73944165519372,46.896713529426535],[4.739367020170787,46.89661758238407],[4.739220153887392,46.89645426348362],[4.739018286762558,46.896202877998384],[4.73888655715533,46.89604648979834],[4.738769449626478,46.89592767831081],[4.738693713749182,46.89584401344837],[4.73863218616337,46.89578465701862],[4.738527285436183,46.89567485600812],[4.73844524077804,46.89558004690029],[4.738370740354657,46.89548818586089],[4.7382866085623725,46.89537500916841],[4.738222141686257,46.89527073962256],[4.738154398729555,46.895157315491005],[4.738103962664334,46.895072241765426],[4.738065581423006,46.894991074762146],[4.738006970726582,46.89492962965933],[4.737891679772103,46.89482102055392],[4.737719852974736,46.89466931575208],[4.737551414719745,46.89452982556553],[4.737390857408295,46.89435751596667],[4.737309131285199,46.89427291391696],[4.737000861793832,46.89395671174502],[4.736681820093113,46.89367644249861],[4.736488066686661,46.893491348600556],[4.736383207676378,46.893382571736566],[4.736091467319973,46.89307020666084],[4.736066749726954,46.89304298529476],[4.735827713195665,46.89284018294181],[4.735659370527284,46.8927037506267],[4.735618364307714,46.89267984564589],[4.73549429446865,46.89262245677434],[4.735178027984566,46.89247496913468],[4.735040421126137,46.89241368607328],[4.734841022611406,46.89233085504475],[4.734751900104822,46.89229439091423],[4.73466130706094,46.892257948865605],[4.734629558057199,46.89224412576046],[4.734451372593655,46.8921722138769],[4.734263566897819,46.89212599621931],[4.7341684968513835,46.89208962120831],[4.734112686330595,46.89206900061735],[4.733943660347703,46.8920041097042],[4.733854388319127,46.891962531815565],[4.733770934049876,46.8919167866215],[4.733652567480188,46.89185113262849],[4.733517781142569,46.89178469900564],[4.733246823699171,46.89165491413089],[4.732933419097148,46.89150329773859],[4.732781691503374,46.891419745891696],[4.732642978579407,46.89132374107309],[4.732488885600172,46.891212639492025],[4.732246235929662,46.89098944097813],[4.73209268070711,46.890848701519076],[4.731978031065815,46.89075948465618],[4.73149198337674,46.89038258550265],[4.731441287358535,46.89033531946934],[4.731323051894567,46.890226748260694],[4.731270924667512,46.89018154800094],[4.7311958942443635,46.89011931971473],[4.731117733291886,46.89005203211748],[4.7310626911708145,46.89000891991272],[4.7309589410472235,46.88993384853812],[4.730852589282237,46.8898710731477],[4.730711438729596,46.88979144834042],[4.73055851636905,46.889717106583866],[4.730519226901471,46.88970032468813],[4.730401554914555,46.889656117965764],[4.730332407678036,46.88963774031242],[4.730226042786119,46.88962094846249],[4.730146927177779,46.88961702176804],[4.730088989274153,46.889623007519],[4.729983799517693,46.889642977711205],[4.729766399528685,46.88969631589694],[4.729494106291306,46.889757619704945],[4.729384386754816,46.88977562204638],[4.7292524496700805,46.88979803755125],[4.728994308014292,46.88983563138907],[4.728920276708087,46.88985105314107],[4.72880954901059,46.88988438902021],[4.7286826145747485,46.88997008493738],[4.728626241524966,46.890025083319735],[4.728594381517581,46.89005417313656],[4.72865633623625,46.89022082407097],[4.728660262707776,46.890250394384736],[4.728583527829402,46.89032103534219],[4.728168500279874,46.890113699364015],[4.728124616456178,46.89009289694825],[4.7280379968308015,46.89018105815309],[4.727997585751145,46.890222533069384],[4.727946488409821,46.890256000005174],[4.727710159071102,46.89041690493392],[4.727861011559988,46.890519884060126],[4.7279666143308985,46.89060617867243],[4.7280095691445245,46.89064436737316],[4.728184714635741,46.890808293394365],[4.728289969011839,46.89074335771981],[4.7284490273595345,46.89063674588627],[4.728517996059026,46.890695995902696],[4.728545558895072,46.8907190874725],[4.728695569576494,46.89084252144837],[4.728697098947381,46.89084351615249],[4.729025333903738,46.89108688895577],[4.728934656629059,46.891141384818695],[4.729074896136854,46.8912853992811],[4.72914746704463,46.891364011461874],[4.729337996004581,46.89158901663381],[4.729422575370432,46.89167051932083],[4.729511762886814,46.891756032394724],[4.7296216717733435,46.89183714554454],[4.7297789178807985,46.89195331884311],[4.729892069510956,46.89204256034893],[4.729939458509357,46.89207965507986],[4.7297407861293275,46.8922062805045],[4.729982777775236,46.89240905075103],[4.730079216682731,46.89248832148902],[4.729795326803359,46.89256003060489],[4.72982447275232,46.89258616008914],[4.729960954148563,46.89270570702547],[4.730098671805587,46.89281705792296],[4.730179914069756,46.89288736189693],[4.7301966607407655,46.892898349609375],[4.730342929942745,46.89299731479185],[4.730422231944961,46.8930533464634],[4.730487931263121,46.89310344948852],[4.730539753359858,46.89313945070428],[4.7306316647520505,46.89321675370351],[4.730686644449327,46.89325782272849],[4.7307355188744555,46.89329489482109],[4.730740094464339,46.893297888048934],[4.730985252832842,46.893459740122985],[4.731120726359936,46.893547627302866],[4.731399609987305,46.89373860083452],[4.731530816093144,46.893832675676826],[4.73170489101781,46.89400887857192],[4.7317311363751555,46.89403709552924],[4.73201580976961,46.89426884910246],[4.732366580859415,46.894562963953774],[4.732407946962968,46.894598112972076],[4.732446246863745,46.89463022809785],[4.732602467786211,46.89476071437165],[4.732677231450891,46.894814768480664],[4.732733501918795,46.89484968415507],[4.732767154061944,46.89482977025891],[4.732860489652316,46.8949049967721],[4.732875688202814,46.89491396307079],[4.733046835019499,46.895045250852725],[4.7331387529400235,46.895122542807236],[4.733268861075181,46.895228898218456],[4.73352286843538,46.89543352475368],[4.733675491962847,46.89554465615349],[4.733692305624234,46.89555768669198],[4.733706236447749,46.8955738226123],[4.733717546271791,46.895601237286215],[4.733856763195624,46.895712570261686],[4.733970302477022,46.89581304134923],[4.734147056349359,46.8959329948228],[4.734264570477493,46.896018077823385],[4.734937928158909,46.895632932981805],[4.735040353711942,46.89557314918605],[4.735298866785251,46.895778721695265],[4.735385983917868,46.89584587160059],[4.735477775773885,46.89591908398911],[4.735681207562892,46.89608052840431],[4.735195247464025,46.89631265483753],[4.735000283472455,46.89641572798797],[4.734965278277777,46.89643975156319],[4.735305948439948,46.89665022844953],[4.735648124656318,46.896861699321434],[4.73588382680728,46.8970063024705],[4.735997434803492,46.897062840036924],[4.736104897277729,46.897113328135916],[4.736179418892682,46.897159215376874],[4.7362630338983305,46.897210062804355],[4.7362705911037475,46.89721301087192],[4.7363602667279325,46.897266837864294],[4.736675690176561,46.897433751854315],[4.736763836573562,46.89748657493128],[4.736795950021862,46.89751164029677],[4.736864805456767,46.89756679851749],[4.73690184271921,46.89760609089915],[4.736908755521794,46.89763562491613],[4.736902194512033,46.89766330878462],[4.736870452486877,46.89769648770345],[4.7369096512094595,46.89771019788363],[4.737182663216471,46.89799525845758],[4.737551282702266,46.89824004291746],[4.737825518676825,46.89842392080211],[4.73857438366287,46.8988111286706],[4.738428355475368,46.898906318203366],[4.738562304813876,46.898992166549824],[4.73866456619305,46.89906623611058],[4.738783545518035,46.899150274854875],[4.73908578871264,46.899370515939204],[4.739277037563081,46.89952294316666],[4.739429848203541,46.899639161650484],[4.739645296215932,46.89980247115182],[4.739983793173336,46.90008346524391],[4.740269420683811,46.90034277855063],[4.740739582730372,46.900082258348725],[4.740953716655329,46.90025069164828],[4.74115869808679,46.90041312992504],[4.741210777387533,46.90045627323844],[4.741305631851372,46.90053147915497],[4.741365289514675,46.90057860549935],[4.741553521727049,46.90073004799307],[4.741778818052789,46.90059687598788],[4.742289053805877,46.900284653176136],[4.742549429353534,46.9001294880069],[4.742332244316656,46.89995906842795],[4.742154801322844,46.8998186943012],[4.741952984455652,46.89966234288972],[4.741753080083974,46.89951924585912]],[[4.737206085522966,46.89422031601689],[4.737173866776255,46.89423816529239],[4.737152444014175,46.89422112511496],[4.737189074664083,46.89420115596164],[4.737206085522966,46.89422031601689]]],[[[4.730425546864907,46.898844935166],[4.730191702352526,46.89866452194996],[4.729885433438653,46.89878356827899],[4.729727735606035,46.898840097676356],[4.729683032629107,46.898840768990624],[4.72952843902488,46.898761344489216],[4.729245214937363,46.899088482991104],[4.7292633945244535,46.899377387250794],[4.729330605634524,46.899801453304676],[4.729456911762603,46.90006829083419],[4.729771257516972,46.900248523296234],[4.730148606328997,46.900487066948216],[4.730696274034867,46.90087734730503],[4.731027821100074,46.90075587483936],[4.731076364318034,46.90068872731467],[4.7312214307083975,46.90051693125585],[4.731211099743384,46.90014719000115],[4.731186269134758,46.899743948796164],[4.7309766540459135,46.89948244466689],[4.73058159772574,46.89901630416428],[4.730425546864907,46.898844935166]]],[[[4.735963921955964,46.89834163557753],[4.735865367373909,46.898289986414184],[4.7357557634372,46.89821908707245],[4.735642982439154,46.89814211152736],[4.735593038896412,46.898072357326356],[4.735456030217479,46.89798348071176],[4.735183901192318,46.89777197165705],[4.735089322126775,46.89770493400253],[4.73481694343675,46.897532270090764],[4.734545310230685,46.89733608005678],[4.734421625774964,46.8971979557394],[4.734308783318205,46.897118935523885],[4.734182664056512,46.89704419475446],[4.734122951066239,46.89699502130067],[4.734008121523013,46.89690070276389],[4.733828579948752,46.89678691500926],[4.733605363991925,46.89665948307873],[4.733348783102773,46.896514162917725],[4.7330517309604545,46.896315290014186],[4.732694872343266,46.896064181612175],[4.732577406566905,46.8959801229862],[4.732484953474177,46.896072454752975],[4.732521254481285,46.89613525582407],[4.732592392858805,46.896261915622105],[4.732678194000797,46.89638119514751],[4.732761432829489,46.896466804278575],[4.732918783995745,46.89658603384561],[4.733049137229519,46.896699536460204],[4.7332039872198255,46.89688010607687],[4.733322862875945,46.89700809139604],[4.733512447541062,46.89720244816697],[4.733604991491368,46.89729914694739],[4.733695940663412,46.897392807673235],[4.733831416773599,46.89752666658273],[4.734048148400976,46.89773083547605],[4.7341130796421975,46.89780342665588],[4.734187936022973,46.89790652426202],[4.734270873764707,46.89802891674199],[4.734369653043882,46.898180699855224],[4.734449793915595,46.8983092673046],[4.7345769859953775,46.898463693377664],[4.7346825909007135,46.89859595683515],[4.734740143448083,46.89867070312501],[4.734757898805361,46.898666347056746],[4.734831044516152,46.898762319379315],[4.734823781802104,46.89876856174867],[4.734914748684896,46.89886222127441],[4.734977890685656,46.89892564396355],[4.735041176994343,46.89899315309887],[4.735195605191007,46.899113441345065],[4.735217212991149,46.89913662108074],[4.735326568390786,46.89929233271919],[4.735390215819238,46.89937107552225],[4.735461014882225,46.89944051557001],[4.73562626553298,46.899572897148886],[4.735689357079005,46.89963428489931],[4.735737411817354,46.89969180155294],[4.7357529069808315,46.89970995798473],[4.735812273904038,46.89979489804688],[4.735894693836185,46.899900942578995],[4.735980803146299,46.90002941904354],[4.736035443425155,46.90010625292357],[4.736123420376746,46.90019995658751],[4.736208364057799,46.90029166158101],[4.736310897160244,46.900420907904135],[4.73640436926337,46.90054620207938],[4.736515781252842,46.9006732700498],[4.736570422941189,46.900750103661665],[4.736652823991595,46.90090214079589],[4.736733293018808,46.9010868982142],[4.736775149211675,46.90118333209716],[4.7368117538942895,46.90125533124256],[4.736933106232499,46.90145990632258],[4.73697404539048,46.90152775140323],[4.737026975121554,46.901597459978404],[4.737093477769967,46.90167207015624],[4.737195261652601,46.90177783076599],[4.737239925538431,46.90182211433021],[4.7373778321049125,46.901938560268846],[4.737496184333661,46.9020491770328],[4.737608659689678,46.902162944317794],[4.7376983367568055,46.90226275414727],[4.737809033761362,46.90236735310456],[4.737971842852545,46.90251612287275],[4.738185780882754,46.902678431189294],[4.738215974360807,46.90269024153076],[4.738679179678001,46.9024441456385],[4.738793175836784,46.902511905004275],[4.738664303778011,46.902584357026306],[4.73857682785802,46.90264596247239],[4.738727714760748,46.90279491114746],[4.7387409404219545,46.90278858753857],[4.738919106033691,46.90295142548773],[4.738864923784131,46.90298188164665],[4.739035611023573,46.90314381465118],[4.739035676693142,46.903145857986345],[4.739367618795833,46.90326857606332],[4.739557608211923,46.90333518718324],[4.739767232878578,46.90340967874743],[4.739892356445198,46.90345274608008],[4.740158564591302,46.90320042467437],[4.740342995755227,46.903001454989415],[4.740264837539121,46.902935191018024],[4.740221864612618,46.9028970160259],[4.7401428068981,46.902803180652036],[4.740039222585094,46.90268825478864],[4.739992624820916,46.90262969119565],[4.739906022880591,46.902532907634786],[4.73985163745498,46.90246424898552],[4.739785195438326,46.90239167475087],[4.739723679070324,46.902333345384015],[4.739659227125255,46.902276068975425],[4.739626880040073,46.902243866271384],[4.739534842083572,46.9021635101506],[4.739490385938589,46.90212534828725],[4.739297190512742,46.901912665629226],[4.739198318113782,46.90180482753329],[4.739152135612107,46.90175954096619],[4.738893934638035,46.90147221701134],[4.738800849123294,46.90135918490818],[4.738629577347723,46.90117886144233],[4.738590921055184,46.901135505383365],[4.738501638090867,46.90104795623619],[4.73843860764067,46.90098862238956],[4.738015744151373,46.90058729993349],[4.737604614663461,46.90017966597836],[4.737521395412777,46.90009508660925],[4.737413094591146,46.89997206129905],[4.737317230138536,46.89986519392719],[4.737226738215542,46.899739855505736],[4.7370420421638135,46.89941974530939],[4.7368195145262995,46.899081815342186],[4.7368100139914295,46.89906458631684],[4.736702512411828,46.898920087366875],[4.736503062549913,46.8986972728277],[4.73622539001648,46.8984991423705],[4.73605639666767,46.89838928764219],[4.735963921955964,46.89834163557753]],[[4.736066416424569,46.89930570677997],[4.736633768291878,46.898960974749365],[4.736702512411828,46.898920087366875],[4.736066416424569,46.89930570677997]],[[4.738034831517934,46.90108871868453],[4.738008506000358,46.90110444385632],[4.737974741906996,46.90107429740494],[4.738001133047698,46.90106061557771],[4.738034831517934,46.90108871868453]]],[[[4.737227445700372,46.901897915604316],[4.737127965381912,46.90181766985844],[4.73705706282517,46.901745170378355],[4.736976626476179,46.90165441568514],[4.7368925538894295,46.9015432905164],[4.736791838083519,46.90137825509671],[4.736739586424533,46.90128298661633],[4.736694879889308,46.901190675345426],[4.736626182303474,46.90104763561547],[4.7365461727099625,46.90087718148582],[4.736500048389561,46.900786935839584],[4.736479562910263,46.9007525001248],[4.736414460893507,46.90067479749514],[4.736265636719712,46.9004972032242],[4.736163300254081,46.90037408687902],[4.736099912742442,46.900303517880225],[4.736030333526868,46.900225882521546],[4.73587306317236,46.90001674150257],[4.73578402542167,46.899890353418634],[4.7356319098046225,46.89970258631981],[4.735548792815127,46.89962107502358],[4.735311662170973,46.899385542639735],[4.735150409789755,46.89919177959574],[4.734983415445461,46.899051246313064],[4.7348843143148684,46.89893624843208],[4.734686748843755,46.8987256684385],[4.734674444724746,46.898713587783725],[4.734463352572615,46.89845313863837],[4.734279046032453,46.89819126814548],[4.734118687220515,46.89793208979645],[4.734060743753168,46.89784509213463],[4.73375902377433,46.89754717292506],[4.7333975293982835,46.897198044732185],[4.733177886830123,46.89699596278271],[4.732835286439225,46.896678231127524],[4.732732154473773,46.89657657571586],[4.732449822886349,46.89674431490658],[4.732272705325029,46.89684609722485],[4.73257234052708,46.89712565262825],[4.733117869736245,46.89763550635017],[4.732647933473169,46.89785715881256],[4.732003197976815,46.898160112956226],[4.7314434223625055,46.89841581143578],[4.7314316940082035,46.898422111710246],[4.7315424559430665,46.898575770324925],[4.731846424504227,46.898944159036986],[4.731877856430401,46.89899477654242],[4.732219433673517,46.89941982189379],[4.732204855190312,46.89943026276158],[4.732403040620345,46.89956726885767],[4.7324509089775235,46.89961866566416],[4.732510884731145,46.8996760043094],[4.732542186863221,46.899722534940956],[4.732600960246232,46.899789095591395],[4.732716945121553,46.89996616176543],[4.732736250494763,46.899963827027165],[4.73280664209881,46.90006699263593],[4.73283636270329,46.90011048499725],[4.732865592752195,46.90013865679761],[4.732954963398158,46.90022927984698],[4.73297834872802,46.900261619197416],[4.73300161663033,46.90028988066608],[4.732988437193318,46.900297238595535],[4.733108031681117,46.90040068140128],[4.733238643156518,46.90052235723345],[4.7336898835807135,46.90032141849189],[4.7337090583969825,46.900315005912546],[4.733772508272179,46.90038761956638],[4.733485870013661,46.90051454818998],[4.733507608556321,46.900541814916615],[4.733604979084904,46.90050969360268],[4.733632941575266,46.900545034926644],[4.733524248303761,46.90059571658869],[4.733655384605139,46.90073372965794],[4.733579274705132,46.90077779697889],[4.733548744393083,46.900801752692765],[4.733546777403919,46.90083345582236],[4.733618099713193,46.90091924369008],[4.73373320696773,46.90106873720184],[4.7337860991969825,46.901137421104835],[4.733853786368432,46.90120282029891],[4.733932732773329,46.90129359952392],[4.73408226950796,46.90144768072586],[4.734212451774477,46.90150907688249],[4.7343024623974665,46.90148013680591],[4.734355465061724,46.901505905982575],[4.734395156954962,46.90153493754338],[4.7344181641712675,46.90155502536043],[4.73443815533162,46.90166712618927],[4.734483875338011,46.901698111276886],[4.7345660775022695,46.901751034555566],[4.734777620903488,46.901885791214156],[4.73462084657768,46.90192494103313],[4.734775804306858,46.902154552726344],[4.734740468058086,46.902168368503716],[4.734844956979439,46.90231189687979],[4.7349676808343775,46.90246638078915],[4.735070457688867,46.90260278411951],[4.735171573900344,46.90273409706129],[4.73520048823258,46.90279905287452],[4.7352424845356085,46.90285359899492],[4.735300173440497,46.90293243158709],[4.735379245508335,46.90307327139352],[4.735447208649044,46.903193844272806],[4.735664680498622,46.90309452043301],[4.735705783089974,46.90307448451944],[4.735838480285214,46.90302854546946],[4.7359657848548435,46.90300005979084],[4.735970250234948,46.902999992495644],[4.73604586057907,46.902986596045054],[4.736122725364935,46.90296602099704],[4.736369021875736,46.902882606941105],[4.7364543584137735,46.902847602692916],[4.736734757372078,46.90271155695463],[4.737100313578271,46.902535402155756],[4.737267406427994,46.902446029875485],[4.73759999471115,46.9022642376603],[4.7375198847360664,46.90218370004296],[4.73744728715927,46.90210509338466],[4.737337911578815,46.901995367847086],[4.737227445700372,46.901897915604316]]]]}},{"type":"Feature","id":"commune-71051","properties":{"id":"commune-71051","name":"BOUZERON","kind":"commune","tier":"commune"},"geometry":{"type":"MultiPolygon","coordinates":[[[[4.7185153,46.8767317],[4.718541,46.876732],[4.7189443,46.8767505],[4.7194613,46.876802],[4.7202978,46.8769073],[4.7205191,46.8769231],[4.7211558,46.8769813],[4.7212548,46.8769835],[4.7214227,46.8772424],[4.7219579,46.8779948],[4.7224372,46.8786142],[4.722927,46.8792711],[4.7233566,46.8798326],[4.7238553,46.8804714],[4.7240682,46.8805871],[4.7240761,46.8807569],[4.7242643,46.8808517],[4.7246397,46.880972],[4.7249146,46.8810005],[4.7257463,46.8814075],[4.7267762,46.8819158],[4.7291071,46.8830667],[4.7337799,46.8854737],[4.7363043,46.8867994],[4.7364212,46.886812],[4.7370934,46.8875252],[4.7369759,46.8875727],[4.7368096,46.8877222],[4.7368763,46.8878746],[4.7368934,46.8879609],[4.7369828,46.8880053],[4.7370365,46.8880453],[4.737184,46.8880447],[4.7375492,46.8880016],[4.7380067,46.8884929],[4.7392595,46.8898116],[4.739418,46.8905911],[4.7396969,46.8921537],[4.740026,46.8939503],[4.7401557,46.8946544],[4.7402783,46.8960211],[4.7408951,46.897589],[4.7413065,46.8986231],[4.7421387,46.8994896],[4.7428207,46.9002048],[4.742854,46.9002673],[4.7429348,46.9003231],[4.7431089,46.9005156],[4.7426106,46.9009254],[4.7417095,46.9019185],[4.7413231,46.9022732],[4.7408475,46.9026144],[4.7406175,46.9027734],[4.7403432,46.9030017],[4.7401585,46.9032005],[4.7398921,46.9034526],[4.7398195,46.9034997],[4.739417,46.9039108],[4.7392367,46.9040779],[4.7389907,46.9042858],[4.738752,46.9043848],[4.7385574,46.9044522],[4.7384637,46.9044875],[4.7381756,46.9046037],[4.7377217,46.9047709],[4.7374681,46.9048295],[4.7369827,46.9049396],[4.7368882,46.9049422],[4.7366708,46.9049269],[4.7366374,46.9049837],[4.7341042,46.9048912],[4.7339765,46.9047432],[4.7328477,46.903434],[4.731784,46.9021868],[4.7309316,46.9011592],[4.7306957,46.9008776],[4.730149,46.9004866],[4.7297713,46.9002481],[4.7294566,46.9000685],[4.7288219,46.8998871],[4.728462,46.8997927],[4.7279923,46.8996441],[4.7269389,46.8992572],[4.7260562,46.8989338],[4.7198426,46.8966699],[4.7199066,46.896637],[4.7198043,46.8963606],[4.7197926,46.8961538],[4.7198747,46.895814],[4.7198951,46.8956424],[4.7197967,46.8953107],[4.7196745,46.8951202],[4.7193388,46.8946448],[4.7188324,46.894212],[4.7186493,46.8940606],[4.7185715,46.8939713],[4.7184697,46.8938594],[4.718334,46.8936407],[4.7180127,46.8933742],[4.7178522,46.8932827],[4.7177157,46.893134],[4.7169556,46.8921959],[4.7166465,46.8918194],[4.7163237,46.8915712],[4.7163576,46.8914182],[4.7160999,46.8911986],[4.7160821,46.891035],[4.7158075,46.8906118],[4.7156169,46.8903744],[4.7154484,46.8901979],[4.715397,46.8901276],[4.7152146,46.8898343],[4.7148218,46.8893985],[4.7146541,46.8892432],[4.7144576,46.888825],[4.7143731,46.888766],[4.71438,46.8886649],[4.714124,46.8884116],[4.7138162,46.8882424],[4.7135307,46.8878653],[4.7130274,46.8872283],[4.7125424,46.8867675],[4.7119685,46.8861001],[4.7126893,46.8857737],[4.7138581,46.8848695],[4.7151707,46.8832922],[4.7155111,46.8828669],[4.7155546,46.8828365],[4.7154947,46.8827822],[4.7155157,46.8827396],[4.7156642,46.8824423],[4.7157714,46.8822173],[4.715905,46.881937],[4.7168456,46.8813356],[4.7173604,46.8810054],[4.717741,46.8807612],[4.717836,46.8807009],[4.7178363,46.8806944],[4.7178514,46.8806228],[4.717867,46.8805524],[4.7179075,46.8803502],[4.7179439,46.8801653],[4.7179739,46.8800179],[4.7180214,46.8797913],[4.7180642,46.8795762],[4.7180832,46.8794813],[4.7181444,46.8791852],[4.7181488,46.8791475],[4.7181799,46.8789981],[4.7183209,46.878313],[4.7184628,46.8776134],[4.7185314,46.8772672],[4.718581,46.8770261],[4.7186007,46.8770297],[4.7185153,46.8767317]]]]}},{"type":"Feature","id":"commune-71109","properties":{"id":"commune-71109","name":"CHASSEY-LE-CAMP","kind":"commune","tier":"commune"},"geometry":{"type":"MultiPolygon","coordinates":[[[[4.699025,46.8645146],[4.6993409,46.8647113],[4.6996977,46.8648977],[4.7002595,46.8651682],[4.7006395,46.8653816],[4.7009752,46.8655833],[4.7011942,46.8656941],[4.7014436,46.8657764],[4.7016832,46.8658311],[4.7018213,46.8658497],[4.7022634,46.8659256],[4.7028334,46.866068],[4.7033211,46.866213],[4.7037251,46.8663884],[4.704044,46.8665582],[4.7042411,46.8666664],[4.7046176,46.8668017],[4.7048616,46.8668551],[4.7052151,46.8668878],[4.7058422,46.866947],[4.7061201,46.8669835],[4.706441,46.8670527],[4.7067656,46.8671415],[4.7069041,46.8671646],[4.7073609,46.8671982],[4.7075721,46.8672304],[4.7077086,46.8672786],[4.7078417,46.8673786],[4.70803,46.8675733],[4.7081976,46.867645],[4.7083504,46.8676736],[4.7086016,46.8676415],[4.7085992,46.8678044],[4.7086225,46.8680868],[4.7086964,46.8681214],[4.7091862,46.8682691],[4.7095538,46.8683837],[4.7098086,46.868434],[4.7100712,46.8684957],[4.7103081,46.8686192],[4.7104509,46.8687187],[4.7106222,46.8690363],[4.7106813,46.869132],[4.7108091,46.8692286],[4.7110427,46.8693197],[4.7114525,46.869467],[4.7119818,46.8696907],[4.7122332,46.8697804],[4.7123485,46.8697805],[4.7125439,46.8698221],[4.7129226,46.8699559],[4.7134155,46.8701184],[4.7134707,46.8701409],[4.7137792,46.8704612],[4.7139713,46.8706765],[4.7141148,46.8707959],[4.7142681,46.8709828],[4.7144212,46.8711523],[4.7147045,46.8714191],[4.7149741,46.8716569],[4.7152008,46.871837],[4.7155117,46.8721433],[4.7157883,46.8724481],[4.7160275,46.8727571],[4.7162677,46.8730849],[4.7164797,46.8733328],[4.7165986,46.8735054],[4.7167549,46.8737592],[4.7172253,46.8744668],[4.717706,46.8752113],[4.7179006,46.8754382],[4.7180898,46.8757552],[4.7184189,46.8763801],[4.7184439,46.8764691],[4.7184914,46.8767503],[4.7184926,46.8768779],[4.7183983,46.877355],[4.7183578,46.877554],[4.7182276,46.8782862],[4.7180995,46.8789676],[4.7180759,46.8791089],[4.7180033,46.8795043],[4.7179857,46.8795978],[4.7179636,46.8797012],[4.7179156,46.8799509],[4.7178865,46.8800982],[4.7178538,46.8803084],[4.7178089,46.8805138],[4.7178053,46.8805781],[4.717804,46.8806075],[4.7178037,46.8806149],[4.717803,46.880649],[4.7176988,46.8807059],[4.7168053,46.8812745],[4.7158659,46.8818896],[4.7157458,46.8821559],[4.715688,46.8822825],[4.7156355,46.8823992],[4.7155016,46.8826888],[4.7154734,46.8827445],[4.7151193,46.8831558],[4.7149241,46.883382],[4.7143468,46.8840618],[4.7137857,46.8847322],[4.7133831,46.8850452],[4.7128028,46.8854753],[4.712582,46.885646],[4.712277,46.8857915],[4.7118361,46.8859901],[4.7118721,46.8860326],[4.7119493,46.886137],[4.7121354,46.8863756],[4.7123509,46.8866304],[4.7124325,46.8867155],[4.7125374,46.886813],[4.7125859,46.8868588],[4.7126466,46.886914],[4.7126969,46.8869644],[4.7127514,46.887013],[4.7128298,46.8870913],[4.7128782,46.8871424],[4.7129214,46.8871842],[4.7129781,46.8872409],[4.7130039,46.8872673],[4.7130527,46.8873221],[4.7131366,46.8874253],[4.7131752,46.8874747],[4.7132201,46.8875406],[4.7133681,46.8877392],[4.7134789,46.887891],[4.7136706,46.8881439],[4.71397,46.8883104],[4.7140368,46.888367],[4.7140789,46.8884095],[4.7141747,46.8884978],[4.7142479,46.8885738],[4.7142649,46.8886996],[4.7143382,46.8887424],[4.7144332,46.8889392],[4.7144612,46.8890005],[4.7144995,46.8890726],[4.7145315,46.889141],[4.7145614,46.8891715],[4.7146243,46.8892308],[4.7146783,46.889286],[4.71479,46.8894084],[4.7148223,46.8894392],[4.7148896,46.8895108],[4.7149197,46.8895453],[4.7149652,46.8895953],[4.7150278,46.8896577],[4.7150839,46.889722],[4.715107,46.8897552],[4.7151417,46.8898103],[4.7152014,46.8898995],[4.715231,46.8899491],[4.7152566,46.8900007],[4.7153091,46.8900842],[4.7154114,46.8901934],[4.7155602,46.8903533],[4.7156454,46.8904534],[4.7158196,46.8907243],[4.7159977,46.8909926],[4.7160167,46.8911493],[4.7160723,46.8911978],[4.716263,46.891363],[4.7162721,46.8913676],[4.7162135,46.8914911],[4.7162593,46.8915323],[4.7165253,46.8917389],[4.7165581,46.891761],[4.716684,46.8919253],[4.7163429,46.8920642],[4.7166818,46.8919316],[4.7167112,46.8919722],[4.7167534,46.892026],[4.7167886,46.8920723],[4.7168755,46.89218],[4.7171341,46.8924944],[4.7171583,46.8925215],[4.717184,46.8925553],[4.7173999,46.8928163],[4.717469,46.8929028],[4.7175563,46.8930057],[4.7176171,46.8930839],[4.717668,46.8931432],[4.7177182,46.8931854],[4.7177926,46.8932433],[4.7178636,46.8932965],[4.7178871,46.893287],[4.7179278,46.8933233],[4.7179684,46.893358],[4.7180363,46.8934111],[4.7180997,46.8934606],[4.7181545,46.8935044],[4.718265,46.8935951],[4.7182904,46.8936284],[4.7183551,46.8937551],[4.7183707,46.8937807],[4.7184255,46.8938365],[4.7184643,46.8938777],[4.7185173,46.8939295],[4.7185455,46.8939611],[4.7186075,46.8940243],[4.7189711,46.8943479],[4.7190451,46.8944097],[4.7191239,46.894478],[4.7192977,46.8946284],[4.7193125,46.8946435],[4.7193472,46.8947309],[4.7193945,46.8948457],[4.7194307,46.8949438],[4.7194728,46.8950416],[4.7194896,46.8950851],[4.7195289,46.8951857],[4.7195633,46.8952704],[4.719588,46.8953325],[4.7196043,46.8953633],[4.7196499,46.895442],[4.7197558,46.895586],[4.7198183,46.8956726],[4.7198438,46.8957086],[4.7198383,46.8957398],[4.719814,46.8958152],[4.7197986,46.8958698],[4.7197658,46.8960002],[4.7197377,46.8960965],[4.7197253,46.8961435],[4.7197374,46.8962119],[4.7197545,46.8963257],[4.7197782,46.8964018],[4.719849,46.8965476],[4.7198808,46.896658],[4.7199873,46.896761],[4.7201498,46.8968472],[4.7203651,46.8969664],[4.7204744,46.8970435],[4.720556,46.8971203],[4.7205958,46.8971644],[4.7206041,46.8971905],[4.7205969,46.8972262],[4.7205692,46.8973072],[4.7205288,46.8974022],[4.7205383,46.8974347],[4.7205534,46.8974599],[4.7206007,46.8975216],[4.7206682,46.8975903],[4.7207197,46.8976396],[4.7207438,46.8976659],[4.7207862,46.8977102],[4.7208563,46.8977858],[4.7210093,46.8979468],[4.7210339,46.8979726],[4.7211767,46.8981277],[4.7212125,46.8981672],[4.7213227,46.8982873],[4.7213752,46.8983427],[4.7214609,46.8984357],[4.7215444,46.8985201],[4.7216144,46.8986184],[4.7217097,46.8987335],[4.721829,46.8988859],[4.7218851,46.8989699],[4.7219296,46.8990309],[4.7219744,46.899091],[4.7220548,46.899208],[4.7221446,46.8993409],[4.7221753,46.8993892],[4.7222714,46.8995305],[4.722283,46.8995696],[4.7223251,46.89965],[4.7223509,46.8996978],[4.7223801,46.8997766],[4.7224016,46.8998753],[4.7225067,46.9000526],[4.7225378,46.9000949],[4.7225595,46.9001201],[4.7220445,46.9004535],[4.7218731,46.900558],[4.7216103,46.9007392],[4.7208945,46.9012688],[4.7205801,46.9014968],[4.7204629,46.9015758],[4.7199197,46.9020226],[4.7196215,46.9025473],[4.7195456,46.902619],[4.7193143,46.902834],[4.7190593,46.9030416],[4.7188273,46.9032369],[4.7188758,46.9032722],[4.7187,46.9034002],[4.7184925,46.903528],[4.7184653,46.9035162],[4.7182694,46.9036573],[4.7179804,46.9038914],[4.7178949,46.9039429],[4.7177294,46.9040476],[4.7174145,46.9042827],[4.7173141,46.9044038],[4.7172616,46.9046128],[4.7172353,46.9046411],[4.7169852,46.9047493],[4.7168053,46.9048468],[4.7165553,46.9049394],[4.7164917,46.9049727],[4.7161548,46.90518],[4.716098,46.9052125],[4.7159275,46.9052697],[4.7157973,46.9053084],[4.7156736,46.9053637],[4.715338,46.9055393],[4.7149048,46.905763],[4.7148493,46.9057898],[4.7147798,46.9058274],[4.7147022,46.9058686],[4.7145587,46.9059416],[4.7144135,46.9060169],[4.7143274,46.9060608],[4.7142632,46.9060972],[4.7141493,46.9060649],[4.7140452,46.9061738],[4.7139563,46.9061978],[4.7136384,46.9062679],[4.7134615,46.9063085],[4.7132462,46.9063568],[4.7131101,46.9063909],[4.7123849,46.9063238],[4.7120436,46.9062735],[4.7118173,46.906207],[4.7113454,46.9060278],[4.7102816,46.9055965],[4.7096279,46.9053238],[4.7093511,46.9052157],[4.7086305,46.9050626],[4.7084743,46.9049849],[4.7079924,46.9049507],[4.7079909,46.904935],[4.7079867,46.9048937],[4.7079754,46.9048144],[4.7079714,46.9047817],[4.7079379,46.9047682],[4.7076475,46.9046735],[4.7072116,46.9045505],[4.7070254,46.9044778],[4.7067422,46.904341],[4.706154,46.9041224],[4.7058683,46.9040452],[4.7056576,46.903999],[4.7055353,46.9039909],[4.7049135,46.9039956],[4.7042573,46.9039914],[4.7040188,46.9039944],[4.7038965,46.9040013],[4.7023434,46.9038622],[4.702189,46.9038633],[4.7013397,46.9040536],[4.7008935,46.9041132],[4.6998021,46.904208],[4.6992429,46.9041906],[4.6987681,46.9041533],[4.6977443,46.9040139],[4.6971663,46.9039268],[4.6969467,46.9038456],[4.6967643,46.9037756],[4.6956517,46.9031872],[4.6951395,46.9029304],[4.6943313,46.9025523],[4.6936785,46.902216],[4.6924481,46.9014892],[4.6923499,46.9014362],[4.6919847,46.9017032],[4.6920275,46.9017242],[4.6919757,46.9017657],[4.6919049,46.9018182],[4.6918751,46.9018451],[4.6918567,46.9018627],[4.6918298,46.9018897],[4.6917949,46.9019228],[4.6917636,46.9019553],[4.6917211,46.902002],[4.6916399,46.9020821],[4.6915547,46.9021676],[4.6914677,46.9022547],[4.6913757,46.9023537],[4.6913941,46.9023714],[4.6913991,46.9023867],[4.6912876,46.9024112],[4.6911051,46.9024114],[4.6909006,46.9024027],[4.6906758,46.9024331],[4.6905562,46.9024324],[4.6903558,46.9024052],[4.6902223,46.9024164],[4.6897997,46.9025003],[4.6895671,46.9025118],[4.6894813,46.9024951],[4.689287,46.9024161],[4.6889539,46.9022228],[4.6888732,46.9021408],[4.6888329,46.9020636],[4.6888455,46.901831],[4.6888304,46.9016424],[4.6887854,46.9014673],[4.6887298,46.9013862],[4.6886187,46.9012714],[4.6883628,46.9011069],[4.6882643,46.9009765],[4.6882413,46.9008997],[4.6882669,46.9008259],[4.6886312,46.9006855],[4.6886797,46.900618],[4.6886701,46.90057],[4.6886441,46.9005137],[4.6885616,46.9004607],[4.6883381,46.9004259],[4.6881346,46.9004191],[4.6879508,46.9003774],[4.6878591,46.9003443],[4.6877428,46.9002667],[4.6877022,46.900178],[4.6876253,46.8998904],[4.6875711,46.8999084],[4.6872681,46.9000269],[4.6860124,46.9005158],[4.6856981,46.9006425],[4.6855734,46.9006939],[4.6854198,46.9007542],[4.6851983,46.9008442],[4.6851867,46.9008475],[4.6851012,46.9007322],[4.6849475,46.9004064],[4.6846858,46.8999977],[4.6846197,46.8999234],[4.6843533,46.8997328],[4.6839839,46.899471],[4.6836319,46.8992107],[4.6832099,46.8989472],[4.6831098,46.8988797],[4.6830348,46.8988672],[4.6828843,46.8988692],[4.6827855,46.8988705],[4.6827366,46.8988601],[4.6827315,46.8988411],[4.6828818,46.8987343],[4.682648,46.8985894],[4.6827144,46.8985229],[4.6823638,46.8983103],[4.6823464,46.8982976],[4.6827083,46.8977818],[4.6827717,46.8977147],[4.6831125,46.8974161],[4.6831023,46.89741],[4.6832836,46.8972517],[4.6833245,46.8972125],[4.6833312,46.8969948],[4.6833726,46.8968862],[4.683427,46.8968404],[4.6837041,46.8967257],[4.6837671,46.8966749],[4.6838115,46.8965391],[4.6838201,46.8964408],[4.6837774,46.8963366],[4.6837754,46.8962768],[4.6838031,46.8962477],[4.6839882,46.8961598],[4.6842031,46.8961024],[4.6844305,46.8960598],[4.6845489,46.8959946],[4.6846055,46.8959389],[4.6846901,46.8958021],[4.6850435,46.8956166],[4.6850043,46.8955413],[4.6850539,46.8955235],[4.6852165,46.8954385],[4.6853913,46.8952882],[4.685551,46.8951381],[4.6855821,46.89511],[4.6857096,46.8949885],[4.6857837,46.894916],[4.6858184,46.8948786],[4.6859304,46.8947631],[4.6860335,46.8946693],[4.6861602,46.8945527],[4.68625,46.8944714],[4.6864591,46.8942788],[4.6871204,46.8938527],[4.687188,46.8938169],[4.6873897,46.8936832],[4.6875446,46.8938158],[4.6877439,46.8939594],[4.6878245,46.8940328],[4.6883135,46.8943952],[4.6886219,46.8945215],[4.6887085,46.8945948],[4.6887894,46.8946799],[4.6887407,46.8947053],[4.6887743,46.8948084],[4.6888198,46.8949175],[4.6889492,46.8950845],[4.6892096,46.8950059],[4.6892337,46.8949995],[4.6892911,46.8950473],[4.6893448,46.8951889],[4.689497,46.8954734],[4.6894158,46.8951536],[4.6893953,46.8950308],[4.6894226,46.8950236],[4.6895385,46.8949947],[4.6896829,46.8949732],[4.689812,46.8949685],[4.6898929,46.8949852],[4.6899331,46.8950047],[4.6900592,46.895049],[4.6901511,46.8950513],[4.6903167,46.8950431],[4.6903812,46.8950378],[4.6906542,46.8949838],[4.6908602,46.8949308],[4.6909143,46.8949015],[4.6911246,46.8947847],[4.6912285,46.8947239],[4.6913892,46.8946571],[4.6917067,46.8945146],[4.6917848,46.8944776],[4.6919176,46.8944184],[4.6920204,46.8943734],[4.69227,46.894261],[4.6926431,46.8940904],[4.692855,46.8939957],[4.6928906,46.8939787],[4.6929046,46.8939878],[4.6930389,46.8939494],[4.6932174,46.8938632],[4.6933217,46.8938301],[4.6938029,46.893693],[4.6940508,46.8935676],[4.693991,46.8935512],[4.6930778,46.892344],[4.6920632,46.8909953],[4.6906363,46.8891203],[4.6904437,46.8888817],[4.6901029,46.8883823],[4.6899716,46.8882563],[4.6894381,46.8876397],[4.6883917,46.8863852],[4.6871614,46.8849194],[4.6856939,46.8831626],[4.6850408,46.882402],[4.6841553,46.8816707],[4.6826301,46.8804095],[4.6846804,46.8794749],[4.6848604,46.8793914],[4.6860565,46.8780405],[4.686738,46.8773001],[4.6870604,46.8769485],[4.6875686,46.8763736],[4.6877253,46.876199],[4.6881,46.8761066],[4.6880624,46.8760318],[4.6884644,46.875849],[4.6884657,46.8758269],[4.6886114,46.875783],[4.6887183,46.8757312],[4.6889322,46.8756762],[4.6890777,46.8756366],[4.689055,46.875571],[4.6895497,46.8753418],[4.6900075,46.8751266],[4.6900696,46.8750882],[4.6905207,46.8748771],[4.6912463,46.8745375],[4.6917574,46.8742971],[4.6922087,46.8740891],[4.6922592,46.8740716],[4.6922774,46.8741009],[4.6923271,46.8740881],[4.6924458,46.874037],[4.6925972,46.8739682],[4.6927468,46.8738982],[4.6931356,46.8737196],[4.6934815,46.8740457],[4.6934984,46.8740448],[4.6935815,46.8742362],[4.6936049,46.8743468],[4.6936251,46.8743692],[4.6936573,46.8744174],[4.6938975,46.874343],[4.6946318,46.8741111],[4.6946566,46.8740997],[4.6948537,46.8744877],[4.6950409,46.8749061],[4.6951863,46.8752551],[4.695214,46.8753052],[4.6953803,46.8755376],[4.6955226,46.8757868],[4.6955367,46.8757866],[4.6978717,46.875504],[4.6979173,46.8754996],[4.6984354,46.8754377],[4.6984576,46.8754359],[4.6982763,46.8752095],[4.6978005,46.8744884],[4.6976969,46.8742711],[4.6975874,46.8741033],[4.697493,46.8739517],[4.6974041,46.873853],[4.6970346,46.8735623],[4.6969459,46.8734615],[4.6968005,46.8732541],[4.6965808,46.8728979],[4.6965246,46.8727933],[4.6964196,46.8724811],[4.6963886,46.8724195],[4.6962826,46.8722452],[4.6961369,46.8720366],[4.6960706,46.8718916],[4.6959344,46.8716953],[4.6959216,46.8716463],[4.6959041,46.8716397],[4.6958586,46.8716221],[4.6957313,46.8715863],[4.6956974,46.8715475],[4.695671,46.8715234],[4.6956277,46.8714815],[4.695606,46.871461],[4.6955832,46.8714381],[4.6955587,46.8714139],[4.6953666,46.8712258],[4.6953081,46.8711696],[4.6952544,46.8711178],[4.6950414,46.8709098],[4.6948631,46.870733],[4.6946634,46.8705394],[4.6947696,46.8705442],[4.6948367,46.8705237],[4.6949686,46.8704771],[4.6950107,46.870456],[4.6951189,46.8704073],[4.6954655,46.8701936],[4.6957794,46.8699706],[4.6958603,46.8699352],[4.69605,46.869869],[4.6962234,46.8698189],[4.6969391,46.8696363],[4.6971967,46.8695619],[4.6973081,46.8695245],[4.697761,46.8692909],[4.6982106,46.8689481],[4.698294,46.8688833],[4.6984882,46.8686146],[4.6984245,46.8685973],[4.698318,46.8685285],[4.6982398,46.8684447],[4.69817,46.8683105],[4.6981358,46.8681456],[4.6981484,46.8679322],[4.6982797,46.8674991],[4.6983137,46.867355],[4.6982761,46.867142],[4.6981794,46.8667685],[4.6981494,46.86668],[4.6980971,46.866241],[4.6979465,46.8656972],[4.6979035,46.8654943],[4.6979276,46.8654608],[4.6979365,46.8654489],[4.6979813,46.8652779],[4.6979886,46.8652307],[4.6979369,46.8650193],[4.6990079,46.8645229],[4.699025,46.8645146]]]]}}]}
