{"type":"FeatureCollection","features":[{"type":"Feature","id":"chapelle-chambertin-plot-en-la-chapelle","properties":{"id":"chapelle-chambertin-plot-en-la-chapelle","name":"En la Chapelle","kind":"named_plot","tier":"grand_cru","appellationId":151,"denominationId":null,"parentFeatureId":"inao-denom-475","parentAppellation":"Chapelle-Chambertin","sourceName":"EN LA CHAPELLE","communes":["21295"],"areaHa":3.659581,"matchId":"","atlasUrl":null,"bounds":[4.967249166797503,47.2145577784677,4.970009439774917,47.217097728668094],"labelPoint":[4.9687150038069525,47.215816057240374]},"geometry":{"type":"Polygon","coordinates":[[[4.9681615,47.217097],[4.9685246,47.2170308],[4.9687407,47.2169926],[4.9686947,47.2169108],[4.9689262,47.2168582],[4.9694724,47.2167323],[4.970009439774917,47.21660608826921],[4.969790005985039,47.216334214216985],[4.969747140466279,47.21626955398326],[4.969738865583548,47.21624823454336],[4.969739996347887,47.21624084794754],[4.9697384,47.2162365],[4.9697465,47.2161812],[4.9697561,47.2160958],[4.9697624,47.2160101],[4.9697653,47.2159243],[4.969764781856024,47.215850291768795],[4.969744819311996,47.21579650734897],[4.969589200116583,47.21556005665073],[4.969587469890346,47.215553953314014],[4.969588143693694,47.21554723374284],[4.9695872,47.2155414],[4.9695942,47.2154649],[4.9696947,47.2152751],[4.9696998,47.2152254],[4.969709424830462,47.21500002649462],[4.9696937771471745,47.21493499886667],[4.96964148596913,47.21473561432939],[4.969634517089253,47.21470916654997],[4.969619161581035,47.2146583393404],[4.969592196720973,47.214577054729475],[4.969583983755649,47.2145577784677],[4.969096873810226,47.21468765019937],[4.968685589042983,47.214799886509034],[4.968638351724038,47.21482010498651],[4.968556597698641,47.21475814030401],[4.968518016817496,47.2147281410557],[4.968493282609171,47.21470812779355],[4.9682071146208635,47.21475590054149],[4.9680299297170345,47.21479059162359],[4.968030303115929,47.21480079752108],[4.968023211527057,47.214812156842626],[4.967945272644024,47.2149360995631],[4.967940781685255,47.21493617584102],[4.967249166797503,47.2150102477458],[4.96746369937233,47.215381594051024],[4.96756109388443,47.215543426030074],[4.967660580844242,47.21576244332856],[4.967684259226915,47.21583560713179],[4.967721375031916,47.21594839205567],[4.967762944841463,47.21606008370254],[4.967807488942851,47.216170698192926],[4.967923826669601,47.21648138419353],[4.9679486621671405,47.216545333669636],[4.968015068567333,47.21672097466659],[4.968138128863342,47.217050962092266],[4.968156809199181,47.217097728668094],[4.9681615,47.217097]]]}},{"type":"Feature","id":"chapelle-chambertin-plot-les-gemeaux","properties":{"id":"chapelle-chambertin-plot-les-gemeaux","name":"Les Gémeaux","kind":"named_plot","tier":"grand_cru","appellationId":151,"denominationId":null,"parentFeatureId":"inao-denom-475","parentAppellation":"Chapelle-Chambertin","sourceName":"LES GEMEAUX","communes":["21295"],"areaHa":1.791896,"matchId":"","atlasUrl":null,"bounds":[4.968156809199181,47.21660608826921,4.97042651282484,47.21806174703654],"labelPoint":[4.969321099385541,47.21732201807522]},"geometry":{"type":"Polygon","coordinates":[[[4.9694724,47.2167323],[4.9689262,47.2168582],[4.9686947,47.2169108],[4.9687407,47.2169926],[4.9685246,47.2170308],[4.9681615,47.217097],[4.968156809199181,47.217097728668094],[4.968161234764103,47.21710880815399],[4.968180907225691,47.21715445605319],[4.968262980171264,47.21734821999767],[4.968282676812173,47.21739488508841],[4.968302648520041,47.21744870487071],[4.968342989539721,47.21756756752013],[4.968378652478036,47.21768139450245],[4.968388720702445,47.217751727473924],[4.968398788953183,47.21782206044257],[4.968410325887316,47.21789135083842],[4.9684375780363785,47.21806174703654],[4.9684384,47.2180617],[4.9693815,47.2178633],[4.9694345,47.2178503],[4.9695543,47.2178213],[4.9699927,47.2177135],[4.97042651282484,47.21760447637903],[4.970425830091125,47.21760267083884],[4.9704159740293745,47.217579334090374],[4.970401626802199,47.21755607371406],[4.970387813203793,47.21750624704292],[4.970389021925843,47.217501517680134],[4.9703869,47.217494],[4.970409501829513,47.217405966823705],[4.970400815754259,47.217370123932064],[4.970384598613803,47.21729581615278],[4.970385175268973,47.21728669256913],[4.9703845,47.2172835],[4.9703869,47.217239],[4.970387534685242,47.21723074909185],[4.970379352159745,47.21719372895867],[4.970353853148818,47.21711139300977],[4.970352085532274,47.21710427270004],[4.970332274783664,47.217054538991505],[4.970309489956485,47.217005882479256],[4.9702867183797075,47.21695722573699],[4.9702851376979265,47.21695520836665],[4.970266150234322,47.21692794738368],[4.9702456941955315,47.21690172899099],[4.9700916270903095,47.21670816380123],[4.970017792688437,47.21661643736106],[4.970009439774917,47.21660608826921],[4.9694724,47.2167323]]]}}]}
