{"type":"FeatureCollection","features":[{"type":"Feature","id":"clos-des-lambrays-plot-clos-des-lambrays","properties":{"id":"clos-des-lambrays-plot-clos-des-lambrays","name":"Clos des Lambrays","kind":"named_plot","tier":"grand_cru","appellationId":163,"denominationId":null,"parentFeatureId":"inao-denom-547","parentAppellation":"Clos des Lambrays","sourceName":"LES LARRETS OU CLOS DES LAMBRAYS","communes":["21442"],"areaHa":5.631826,"matchId":"","atlasUrl":null,"bounds":[4.957247230526088,47.197083211462754,4.9608735,47.1993643],"labelPoint":[4.9588826644152295,47.1982267512487]},"geometry":{"type":"MultiPolygon","coordinates":[[[[4.9572857,47.1992023],[4.9573189,47.1991992],[4.9573212,47.1992115],[4.9575111,47.1992099],[4.9575358,47.1992583],[4.957566,47.199257],[4.9575797,47.1992715],[4.9576256,47.1992501],[4.9586719,47.1991945],[4.9586823,47.1992495],[4.9587843,47.1992402],[4.9587957,47.1992833],[4.9588578,47.1992809],[4.9588734,47.1993516],[4.9591164,47.1993268],[4.9593594,47.1993007],[4.9596018,47.199273],[4.9597066,47.1992606],[4.9597293,47.1993643],[4.960237684209696,47.19924237167157],[4.960230554611253,47.19915473858453],[4.96023171715872,47.1991546196064],[4.9602308,47.1991426],[4.9602653,47.1991388],[4.9602957,47.1991355],[4.96036522834822,47.199127860584824],[4.9603499768519965,47.199058717734395],[4.960312032354826,47.19892243975079],[4.9603147087521915,47.19892192311819],[4.9603113,47.1989099],[4.9605375,47.1988671],[4.960578824840819,47.19885933292149],[4.960575330649561,47.19882500121848],[4.960249529681131,47.19827671088137],[4.9602561316927805,47.198275337695804],[4.9602496,47.1982643],[4.960612210846949,47.1981892024974],[4.960463487270381,47.197935904340554],[4.960443737941759,47.197805451155496],[4.9604446809733655,47.19780468075716],[4.9604429,47.1977931],[4.960447746068981,47.19780217676412],[4.960787305888817,47.19752477744923],[4.960711098617857,47.197325793255736],[4.9606556911551465,47.19720412071901],[4.960615307937204,47.197083211462754],[4.960241116912706,47.19718150046298],[4.960120773203191,47.19721113007186],[4.960022666780657,47.19723425048122],[4.959922993435646,47.197255344056884],[4.95975729251754,47.197274501856896],[4.959588668154187,47.19729574412938],[4.959517017178364,47.197304106717816],[4.959456747742666,47.19729593166575],[4.959417162549522,47.19727922964357],[4.95932536587884,47.19726954360293],[4.9588313807649484,47.197248270599225],[4.958564468498436,47.19716389059827],[4.958350586082526,47.19709495844325],[4.958004066838975,47.19708855121783],[4.957382424498588,47.19710212909885],[4.957269894021457,47.197181685444306],[4.957247230526088,47.197221714485536],[4.9573244,47.1979941],[4.9573656,47.1980315],[4.95737,47.1980733],[4.95736907823067,47.198074756300514],[4.957370213515971,47.19808528927231],[4.9573319593063845,47.19814621873785],[4.957339864809288,47.19840458887213],[4.957333850555195,47.19844556660021],[4.95732485170028,47.198486585756555],[4.95726506292285,47.198656197574934],[4.957280198280666,47.1991136927718],[4.95728031503316,47.19911596957924],[4.9572857,47.1992023]]],[[[4.9604618,47.1978285],[4.9604776,47.1977931],[4.9608735,47.1976963],[4.9608126,47.1975768],[4.960793773641996,47.197531751214775],[4.960790675207209,47.19753493269592],[4.96045719558924,47.19780419674545],[4.9604595646141005,47.19782431308673],[4.9604618,47.1978285]]]]}},{"type":"Feature","id":"clos-des-lambrays-plot-les-bouchots","properties":{"id":"clos-des-lambrays-plot-les-bouchots","name":"Les Bouchots","kind":"named_plot","tier":"grand_cru","appellationId":163,"denominationId":null,"parentFeatureId":"inao-denom-547","parentAppellation":"Clos des Lambrays","sourceName":"LES BOUCHOTS","communes":["21442"],"areaHa":1.993299,"matchId":"","atlasUrl":null,"bounds":[4.957133433916648,47.1991945,4.960433596932485,47.2002247],"labelPoint":[4.958748111434887,47.19970552289905]},"geometry":{"type":"Polygon","coordinates":[[[4.9597293,47.1993643],[4.9597066,47.1992606],[4.9596018,47.199273],[4.9593594,47.1993007],[4.9591164,47.1993268],[4.9588734,47.1993516],[4.9588578,47.1992809],[4.9587957,47.1992833],[4.9587843,47.1992402],[4.9586823,47.1992495],[4.9586719,47.1991945],[4.9576256,47.1992501],[4.9575797,47.1992715],[4.957566,47.199257],[4.9575358,47.1992583],[4.9575111,47.1992099],[4.9573212,47.1992115],[4.9573189,47.1991992],[4.9572857,47.1992023],[4.9572893,47.1992215],[4.95728868861236,47.19922649979225],[4.9572905393111775,47.19923306639282],[4.957377774980968,47.19924078690895],[4.957370156865295,47.19927872084321],[4.957291950995139,47.19927187436675],[4.957288944851976,47.19950401917427],[4.957294595475788,47.19961982027003],[4.957297556604743,47.199673336017504],[4.957296361708337,47.1996815332249],[4.957283045336998,47.19972773144304],[4.957268237102322,47.199773963872694],[4.95725598049054,47.199807887659894],[4.957219254418629,47.19986981783339],[4.9571840574274075,47.199932739780095],[4.957143324323331,47.200008020775606],[4.957133730897246,47.200032704907706],[4.957133433916648,47.20003923547161],[4.9571424,47.2000503],[4.9571633,47.2000651],[4.9573865,47.2001308],[4.9574106,47.2001371],[4.9577556,47.2002054],[4.957908,47.2002247],[4.958008,47.2002237],[4.958192,47.2001981],[4.9587516,47.200107],[4.9589968,47.200065],[4.9592424,47.2000245],[4.9593263,47.200011],[4.9594742,47.1999137],[4.9595105,47.1999026],[4.959517785702536,47.19991304865723],[4.960073837701407,47.19975002676797],[4.960139013174986,47.19972849031664],[4.960272299945588,47.19968331435507],[4.960433596932485,47.19962540763913],[4.9603803082788245,47.199561937974984],[4.960386266277618,47.19956081951391],[4.960353087553236,47.19951438116064],[4.9602551482919495,47.19933619815101],[4.960242129771195,47.19930780788587],[4.960238689931363,47.199254733446935],[4.960237684209696,47.19924237167157],[4.9597293,47.1993643]]]}},{"type":"Feature","id":"clos-des-lambrays-plot-meix-rentier","properties":{"id":"clos-des-lambrays-plot-meix-rentier","name":"Meix-Rentier","kind":"named_plot","tier":"grand_cru","appellationId":163,"denominationId":null,"parentFeatureId":"inao-denom-547","parentAppellation":"Clos des Lambrays","sourceName":"MEIX RENTIER","communes":["21442"],"areaHa":1.11484,"matchId":"","atlasUrl":null,"bounds":[4.9604429,47.19668659868416,4.962046471746777,47.198194],"labelPoint":[4.96119000049654,47.1974271]},"geometry":{"type":"MultiPolygon","coordinates":[[[[4.9608126,47.1975768],[4.9608735,47.1976963],[4.9604776,47.1977931],[4.9604618,47.1978285],[4.9604595646141005,47.19782431308673],[4.96046151930999,47.197840911194355],[4.9604752537054715,47.19792957241295],[4.960628254480445,47.19819130013318],[4.960636,47.198194],[4.9611185,47.198094],[4.9611356,47.1980907],[4.9612865,47.1980573],[4.9614381,47.1980254],[4.9615567335777255,47.19800152167605],[4.961546155950947,47.19798500790808],[4.961574351289805,47.19797738001625],[4.961534222997795,47.19790449331381],[4.961503892785288,47.19785391850536],[4.961509657295713,47.197852117533365],[4.9615039,47.1978422],[4.961592279980398,47.19781407045785],[4.961563126956883,47.19775175611342],[4.961559956710482,47.19774670365911],[4.961551674714421,47.19772538370612],[4.961501177108584,47.19761486732239],[4.961436179562362,47.197477003474745],[4.961441238882925,47.197475941471545],[4.9614362,47.1974651],[4.9617961,47.1973891],[4.9618062,47.197387],[4.961903342128338,47.197368241520046],[4.9618897606158265,47.19733547213255],[4.961893605536879,47.19733431510236],[4.9618887,47.1973228],[4.961910734465654,47.19731718822597],[4.961900098590619,47.19729033233569],[4.961903868880937,47.19728947135185],[4.9618991,47.1972785],[4.961975498835149,47.1972612391592],[4.961975395388369,47.197258402035075],[4.96196238232927,47.1971482775023],[4.961959996347942,47.19712378680922],[4.961960399254392,47.19712379075446],[4.9619594,47.1971114],[4.962035358984995,47.197111999676196],[4.962033936568412,47.19709596796113],[4.9620326733887765,47.197020378785794],[4.962031668222158,47.1969928118217],[4.962046471746777,47.19678207439092],[4.9619416966833825,47.19670415010222],[4.96189181303543,47.19669272950497],[4.961831618408864,47.19668659868416],[4.961751385985244,47.19670634695044],[4.961683105894321,47.196724875102234],[4.9615009118261915,47.19678518194461],[4.961348430616999,47.19683783494562],[4.9612538062977745,47.196874171630654],[4.961041349530348,47.19696768929071],[4.961020591228356,47.19697417352243],[4.960625730956425,47.19708099077114],[4.960666002369658,47.19719883102677],[4.960731133291294,47.19734078154053],[4.960800787641239,47.19752454922154],[4.960793773641996,47.197531751214775],[4.9608126,47.1975768]]],[[[4.9604429,47.1977931],[4.9604446809733655,47.19780468075716],[4.960447746068981,47.19780217676412],[4.9604429,47.1977931]]]]}}]}
