{"type":"FeatureCollection","features":[{"type":"Feature","id":"clos-saint-denis-plot-calouere","properties":{"id":"clos-saint-denis-plot-calouere","name":"Calouère","kind":"named_plot","tier":"grand_cru","appellationId":164,"denominationId":null,"parentFeatureId":"inao-denom-548","parentAppellation":"Clos Saint-Denis","sourceName":"CALOUERE","communes":["21442"],"areaHa":1.291922,"matchId":"","atlasUrl":null,"bounds":[4.958452095376228,47.1999723747671,4.960234242290091,47.2014264],"labelPoint":[4.959327167770798,47.20073298441616]},"geometry":{"type":"MultiPolygon","coordinates":[[[[4.9586753,47.2013205],[4.9589,47.2013092],[4.9590116,47.2013029],[4.9590617,47.2014159],[4.9590634,47.2014198],[4.9591211,47.2014156],[4.9592683,47.2014045],[4.9595298,47.2013423],[4.9595478,47.2013836],[4.9595881,47.2013905],[4.9596045,47.2014264],[4.960027,47.2013372],[4.960123,47.2013183],[4.960135010102466,47.2013161242568],[4.960129972060427,47.201290940623196],[4.960095229881147,47.20120160832636],[4.960096623818192,47.201198522859684],[4.960098556799019,47.20119802396769],[4.9600953,47.2011897],[4.9600955,47.2011867],[4.960234242290091,47.201150506359106],[4.960096953226604,47.20091957106352],[4.9601036471142645,47.20091869455074],[4.9600967,47.200907],[4.960113302462373,47.200904987580316],[4.960077033235341,47.20086677552167],[4.960011506283945,47.20079636240323],[4.959941754162517,47.20069229503544],[4.959893344276071,47.200598087795285],[4.959881767580049,47.20056865548119],[4.9598784111206164,47.20055849099646],[4.959876422184796,47.20054524149365],[4.9598759015985845,47.2005309495219],[4.9598784156365605,47.200517623829754],[4.959884038713152,47.20050730741301],[4.959879907823814,47.20051759858229],[4.959877258158762,47.2005268380591],[4.959879233888907,47.200540087785406],[4.959911837499888,47.200612084676095],[4.9599151324284785,47.20062019694038],[4.959920344847075,47.20063071769094],[4.9598825,47.2005455],[4.9598845,47.2005093],[4.9598953,47.2004856],[4.959930732345655,47.20045997482144],[4.959914283779549,47.20043221187459],[4.95992736828045,47.20042537883506],[4.9599266,47.2004237],[4.959928556512647,47.20042080146275],[4.9597811155343186,47.2001922973266],[4.9597574131293065,47.200158981642176],[4.959748085764579,47.200149944803954],[4.959692018412712,47.20013352171348],[4.959679804953884,47.200127595577804],[4.959667567662843,47.20012065221916],[4.9595516266387145,47.19998364933134],[4.959517844235124,47.20000261912464],[4.959168588246325,47.20033344635483],[4.9587902257735585,47.20064740196818],[4.95878590856281,47.20065258110649],[4.958634398896688,47.200773673796895],[4.958503239826945,47.20087705053514],[4.958496384360453,47.20089453810107],[4.958478690624376,47.200943881342106],[4.958452095376228,47.20133031228142],[4.9586753,47.2013205]]],[[[4.9597865,47.2001797],[4.9597527,47.200135],[4.9596801,47.2001119],[4.9596269,47.2000571],[4.959560931948118,47.1999723747671],[4.959558755427305,47.19997331646161],[4.959590391004289,47.2000187545031],[4.959635918427929,47.20007520542395],[4.959660865839501,47.20010134967868],[4.9596870825539945,47.20012134869356],[4.959740003511858,47.20013373650858],[4.959752240815219,47.200140679859516],[4.95976160522084,47.200150733695615],[4.9598248102175315,47.20023497617101],[4.9597865,47.2001797]]],[[[4.9598635,47.2002908],[4.95986135654837,47.2002877073055],[4.95986461242135,47.20029262771524],[4.9598635,47.2002908]]],[[[4.9599347,47.2004117],[4.959932207527716,47.20040718573689],[4.959934325774651,47.20041225440792],[4.9599347,47.2004117]]],[[[4.9599401,47.2004532],[4.959928632250306,47.200428140843265],[4.959926162288181,47.20042894000282],[4.959934368694133,47.200457344962274],[4.9599401,47.2004532]]],[[[4.9600793,47.2008488],[4.9599977,47.2007596],[4.959927786996775,47.20064573893285],[4.95992969386345,47.20064958775433],[4.960001546348143,47.20076996462427],[4.960077790434478,47.20085127019813],[4.9600793,47.2008488]]]]}},{"type":"Feature","id":"clos-saint-denis-plot-clos-saint-denis","properties":{"id":"clos-saint-denis-plot-clos-saint-denis","name":"Clos Saint-Denis","kind":"named_plot","tier":"grand_cru","appellationId":164,"denominationId":null,"parentFeatureId":"inao-denom-548","parentAppellation":"Clos Saint-Denis","sourceName":"CLOS SAINT-DENIS","communes":["21442"],"areaHa":2.151786,"matchId":"","atlasUrl":null,"bounds":[4.9603906,47.200162051090054,4.962372338167291,47.2022444],"labelPoint":[4.961579088266813,47.201209926553915]},"geometry":{"type":"Polygon","coordinates":[[[4.9613422,47.2002944],[4.9613492,47.2003219],[4.9613584,47.2003487],[4.9614201,47.2004977],[4.9603906,47.2007025],[4.9604342,47.2007569],[4.9604113,47.2007628],[4.9604544,47.2008221],[4.960527,47.2008991],[4.9605406,47.2009172],[4.9605706,47.2009649],[4.9606025,47.2010122],[4.9606115,47.201025],[4.9606461,47.201064],[4.9607052,47.201129],[4.9607242,47.2011503],[4.960766,47.201179],[4.9607993,47.2012241],[4.9608137,47.2012742],[4.9608607,47.2013368],[4.9609178,47.2013251],[4.9609241,47.2013402],[4.9609322,47.201354],[4.9609204,47.2014041],[4.9609016,47.201419],[4.9608453,47.2014363],[4.9608805,47.2015392],[4.9608956,47.2015793],[4.9609275,47.201633],[4.9609686,47.2017005],[4.9609751,47.2017162],[4.9610124,47.2018374],[4.9610293,47.2018363],[4.9610711,47.2018943],[4.9610873,47.2019291],[4.9610404,47.2019383],[4.961041,47.2019658],[4.9610537,47.2019754],[4.9610675,47.2019859],[4.9611127,47.2019751],[4.9610989,47.2020559],[4.9611266,47.2020936],[4.9611305,47.2021017],[4.9611435,47.2022444],[4.9614392,47.2021919],[4.9616628,47.2021586],[4.9618868,47.2021268],[4.9621274,47.2020942],[4.962129163103709,47.20209392665058],[4.962143650294221,47.201913855832785],[4.962146238339618,47.201902573091935],[4.962180055396803,47.20176099165881],[4.962211842892874,47.201646010903715],[4.962253867960889,47.20152370631631],[4.962276085688012,47.201475312448],[4.962329228733265,47.201370191152385],[4.962338931616931,47.201348566593424],[4.962359547359533,47.20125625283914],[4.962372338167291,47.20119575310783],[4.962368523875466,47.20113247280109],[4.962346789759244,47.20102963757817],[4.962301952516627,47.200828087822316],[4.962267669653557,47.200710137739094],[4.962227652711302,47.200599444179176],[4.962120579567968,47.20037646177592],[4.962036115630961,47.20019806094817],[4.962023231751679,47.20017375710595],[4.962018749345198,47.200162051090054],[4.9613422,47.2002944]]]}},{"type":"Feature","id":"clos-saint-denis-plot-les-chaffots","properties":{"id":"clos-saint-denis-plot-les-chaffots","name":"Les Chaffots","kind":"named_plot","tier":"grand_cru","appellationId":164,"denominationId":null,"parentFeatureId":"inao-denom-548","parentAppellation":"Clos Saint-Denis","sourceName":"LES CHAFFOTS","communes":["21442"],"areaHa":1.365648,"matchId":"","atlasUrl":null,"bounds":[4.958451233186631,47.2007628,4.962134335794763,47.202686227412244],"labelPoint":[4.9606499051733195,47.20172772349328]},"geometry":{"type":"MultiPolygon","coordinates":[[[[4.9621274,47.2020942],[4.9618868,47.2021268],[4.9616628,47.2021586],[4.9614392,47.2021919],[4.9611435,47.2022444],[4.9611305,47.2021017],[4.9611266,47.2020936],[4.9610989,47.2020559],[4.9611127,47.2019751],[4.9610675,47.2019859],[4.9610537,47.2019754],[4.961041,47.2019658],[4.9610404,47.2019383],[4.9610873,47.2019291],[4.9610711,47.2018943],[4.9610293,47.2018363],[4.9610124,47.2018374],[4.9609751,47.2017162],[4.9609686,47.2017005],[4.9609275,47.201633],[4.9608956,47.2015793],[4.9608805,47.2015392],[4.9608453,47.2014363],[4.9609016,47.201419],[4.9609204,47.2014041],[4.9609322,47.201354],[4.9609241,47.2013402],[4.9609178,47.2013251],[4.9608607,47.2013368],[4.9608137,47.2012742],[4.9607993,47.2012241],[4.960766,47.201179],[4.9607242,47.2011503],[4.9607052,47.201129],[4.9606461,47.201064],[4.9606115,47.201025],[4.9606025,47.2010122],[4.9605706,47.2009649],[4.9605406,47.2009172],[4.960527,47.2008991],[4.9604544,47.2008221],[4.9604113,47.2007628],[4.9600826,47.2008448],[4.9600793,47.2008488],[4.960077790434478,47.20085127019813],[4.960082656310341,47.200856459096684],[4.960152612334564,47.20092476197794],[4.960116728739914,47.20092741344965],[4.960255783720142,47.201164157095334],[4.960257387408643,47.20116719183586],[4.960113327389893,47.2012043729742],[4.96014154015837,47.20127950597303],[4.960153898478395,47.20133038520244],[4.9601271801859825,47.201337987711575],[4.960152185663871,47.20140705121985],[4.960179164324547,47.201406594687974],[4.960203722993006,47.20146339121309],[4.9602135955204645,47.20148774619612],[4.960231489764384,47.20152627521269],[4.960254482221858,47.20158106298152],[4.960295132558267,47.201668250988185],[4.960326207806724,47.201739246986556],[4.960279374825231,47.201770694353],[4.960246748670362,47.20178044111695],[4.960240939286649,47.201785645559404],[4.960196410149132,47.2017976379906],[4.960252403557192,47.20193565471332],[4.960289092662861,47.202201714440676],[4.960292222125215,47.202246626064166],[4.960288476229743,47.2022671229894],[4.960288996942321,47.20228141494977],[4.960256208735543,47.20228708494927],[4.9603882053853425,47.202617947478586],[4.960411797768548,47.20264820301155],[4.960519634184408,47.202686227412244],[4.961132333099378,47.20258260135239],[4.9611428,47.2025687],[4.9611917,47.2025604],[4.961617,47.2024875],[4.961639390340857,47.20249640135875],[4.962093126477421,47.20241947157152],[4.962134335794763,47.20239833099854],[4.962128175202685,47.202106205922064],[4.962129163103709,47.20209392665058],[4.9621274,47.2020942]]],[[[4.960123,47.2013183],[4.960027,47.2013372],[4.9596045,47.2014264],[4.9595881,47.2013905],[4.9595478,47.2013836],[4.9595298,47.2013423],[4.9592683,47.2014045],[4.9591211,47.2014156],[4.9590634,47.2014198],[4.9590617,47.2014159],[4.9590116,47.2013029],[4.9589,47.2013092],[4.9586753,47.2013205],[4.958452095376228,47.20133031228142],[4.958451233186631,47.20134283996058],[4.958675752848986,47.201332910988135],[4.958900198048168,47.201320938584615],[4.959012427213008,47.20131495210814],[4.959061492148218,47.201427537875986],[4.959063146339822,47.20143159840726],[4.959121468923115,47.20142755013774],[4.959269507858838,47.201416869253755],[4.959529581749436,47.20135423128418],[4.959547586902856,47.20139582040163],[4.959588308549265,47.20140228190847],[4.95960462249146,47.201438793494795],[4.960027127493408,47.201348875367856],[4.960123922230939,47.20133089245317],[4.960137306668047,47.201327604086806],[4.960135010102466,47.2013161242568],[4.960123,47.2013183]]],[[[4.9600955,47.2011867],[4.9600953,47.2011897],[4.960098556799019,47.20119802396769],[4.960240683832823,47.201161341742036],[4.960234242290091,47.201150506359106],[4.9600955,47.2011867]]],[[[4.9600967,47.200907],[4.9601036471142645,47.20091869455074],[4.960123806962681,47.200916054774595],[4.960113302462373,47.200904987580316],[4.9600967,47.200907]]]]}},{"type":"Feature","id":"clos-saint-denis-plot-maison-brulee","properties":{"id":"clos-saint-denis-plot-maison-brulee","name":"Maison Brûlée","kind":"named_plot","tier":"grand_cru","appellationId":164,"denominationId":null,"parentFeatureId":"inao-denom-548","parentAppellation":"Clos Saint-Denis","sourceName":"MAISON BRULEE","communes":["21442"],"areaHa":1.808949,"matchId":"","atlasUrl":null,"bounds":[4.959560931948118,47.19927367313766,4.962041333005156,47.2008488],"labelPoint":[4.9608147677567,47.20007431477396]},"geometry":{"type":"MultiPolygon","coordinates":[[[[4.9609519,47.1994937],[4.960948022181936,47.199495335954495],[4.9609524681695465,47.19950627082853],[4.96069702667297,47.19961379843647],[4.960491524285746,47.199692887280186],[4.9604190718649885,47.199720679861755],[4.960152585464275,47.19981306574009],[4.960096216622822,47.19982934703578],[4.960021973961797,47.1998489926324],[4.959946151454284,47.19986662065662],[4.959758785714739,47.19990862268735],[4.959697876363012,47.1999239539749],[4.959573506758556,47.199966934143774],[4.959560931948118,47.1999723747671],[4.9596269,47.2000571],[4.9596801,47.2001119],[4.9597527,47.200135],[4.9597865,47.2001797],[4.9598248102175315,47.20023497617101],[4.95983881943617,47.20025364829059],[4.95986135654837,47.2002877073055],[4.9598635,47.2002908],[4.95986461242135,47.20029262771524],[4.959919725116527,47.20037591629677],[4.959926352648909,47.20039317582421],[4.959932207527716,47.20040718573689],[4.9599347,47.2004117],[4.959934136394112,47.20041180124657],[4.959939495934693,47.20042462588359],[4.959926162288181,47.20042894000282],[4.959936443637887,47.20046452699709],[4.959923221772132,47.20047191010986],[4.959933459266373,47.20046457749346],[4.959926674445464,47.20045312563674],[4.9599038,47.2004674],[4.9598774,47.2004932],[4.9598702,47.2005184],[4.959875902095083,47.20053096315258],[4.9598759015985845,47.2005309495219],[4.9598784156365605,47.200517623829754],[4.959884038713152,47.20050730741301],[4.959879907823814,47.20051759858229],[4.959877258158762,47.2005268380591],[4.959878837740802,47.200537431119976],[4.9598825,47.2005455],[4.959920344847075,47.20063071769094],[4.959927786996775,47.20064573893285],[4.9599977,47.2007596],[4.9600793,47.2008488],[4.9600826,47.2008448],[4.9604113,47.2007628],[4.9604342,47.2007569],[4.9603906,47.2007025],[4.9614201,47.2004977],[4.9613584,47.2003487],[4.9613492,47.2003219],[4.9613422,47.2002944],[4.962018749345198,47.200162051090054],[4.9619917456045375,47.20009152954792],[4.961976624643243,47.20004682102441],[4.961975842934652,47.200025383076834],[4.961974728429967,47.199953870975826],[4.961995320384242,47.199860540015735],[4.961999102874181,47.199841069013964],[4.962003914062185,47.199829591672824],[4.9619992,47.1998292],[4.9620057,47.1998123],[4.9620144,47.1997958],[4.9620329,47.1997641],[4.9620364,47.1997511],[4.962041333005156,47.199623307243805],[4.96201224741155,47.19954350151677],[4.961992919102112,47.199547917422315],[4.961975024583128,47.19950939764855],[4.9619376925221355,47.19943134859095],[4.961893918924176,47.1993411520866],[4.961872840644625,47.1992975710754],[4.961851350181537,47.19928363426996],[4.961835990191124,47.19927367313766],[4.961672831527828,47.199321401105635],[4.9616387017517365,47.19933117376492],[4.961640417021941,47.19933726848209],[4.961397731774579,47.199383271950126],[4.9612074084017275,47.19942634408696],[4.9611077317892365,47.19944744766423],[4.961025965761264,47.199466203672486],[4.960966735733839,47.199486622357554],[4.960951486163927,47.19949255473272],[4.9609519,47.1994937]],[[4.959904227671656,47.20048551464729],[4.959891154302093,47.200496974748326],[4.959899812324521,47.20048763361],[4.9599129597797385,47.20047820750394],[4.959904227671656,47.20048551464729]]],[[[4.959918,47.2004147],[4.959922234293466,47.20042805992594],[4.959930466166082,47.20042376104504],[4.959923931989359,47.20041363437317],[4.959918,47.2004147]]]]}}]}
