{"type":"FeatureCollection","features":[{"type":"Feature","id":"clos-de-la-roche-plot-clos-de-la-roche","properties":{"id":"clos-de-la-roche-plot-clos-de-la-roche","name":"Clos de la Roche","kind":"named_plot","tier":"grand_cru","appellationId":160,"denominationId":null,"parentFeatureId":"inao-denom-544","parentAppellation":"Clos de la Roche","sourceName":"CLOS DE LA ROCHE","communes":["21442"],"areaHa":4.548243,"matchId":"","atlasUrl":null,"bounds":[4.960981855888455,47.20244278557479,4.964403,47.2048118],"labelPoint":[4.963275819732877,47.203784026001216]},"geometry":{"type":"MultiPolygon","coordinates":[[[[4.962233,47.2026134],[4.9622205,47.2024624],[4.962219460448077,47.20246181525204],[4.962221074801523,47.20247451640131],[4.962232582156907,47.20262555131594],[4.962242872332969,47.20275719701153],[4.962233,47.2026134]]],[[[4.9626745,47.2047987],[4.9626759,47.2048018],[4.9628896,47.2047715],[4.9628925,47.2047721],[4.9629026,47.2047734],[4.9629128,47.2047732],[4.9629311,47.2047659],[4.9629551,47.204763],[4.9632875,47.204722],[4.9633802,47.2047087],[4.9637777,47.2046295],[4.9638101,47.2046239],[4.9638334,47.2046258],[4.9638395,47.2046281],[4.9638444,47.20463],[4.9638491,47.2046318],[4.9638671,47.2046643],[4.9638855,47.2047039],[4.9638992,47.2047178],[4.9639159,47.2047231],[4.9639841,47.2047243],[4.9639974,47.2048118],[4.9641217,47.2048073],[4.9641703,47.2047886],[4.9641731,47.2047544],[4.9642743,47.2047637],[4.9643114,47.204763],[4.9643419,47.2047576],[4.9643465,47.204755],[4.9643523,47.2047518],[4.9643591,47.204744],[4.9643633,47.2047394],[4.9643643,47.204732],[4.9643662,47.2047185],[4.964403,47.2047134],[4.9643677,47.2045286],[4.9643166,47.20453],[4.9643083,47.2044905],[4.9642704,47.2043208],[4.9642127,47.2043285],[4.9641514,47.2041462],[4.9641418,47.2041174],[4.9640948,47.2039811],[4.9640669,47.2038645],[4.9640405,47.2037518],[4.9640287,47.2037022],[4.9640158,47.2036474],[4.9639394,47.2033175],[4.9639108,47.2030891],[4.9639015,47.2030148],[4.963886,47.2028879],[4.9638856,47.2028843],[4.9638741,47.2028407],[4.9630099,47.2029602],[4.9623083,47.2030588],[4.9622989,47.2029794],[4.9622788,47.2028945],[4.9622429054604655,47.20275762082278],[4.962243828630318,47.202769431246296],[4.962278820112818,47.20290677617277],[4.962299884251781,47.202991224402076],[4.9623087846668,47.20307077254544],[4.962314889372872,47.20311460709818],[4.962315261935129,47.20312482206003],[4.96232116700077,47.20316354485445],[4.962328577869552,47.203202251145235],[4.962337443589745,47.20323990615978],[4.962344705453155,47.203274526463936],[4.96236578304534,47.203358974445614],[4.9623883529708825,47.203443397140965],[4.962439826271042,47.203580462786164],[4.962458653794756,47.20364451532641],[4.962485788865012,47.203730913919486],[4.962514391752987,47.20381625200243],[4.962522473214438,47.203873336196054],[4.962526662994728,47.20390596427543],[4.962527333360827,47.20392434219994],[4.962531486051268,47.20395595328269],[4.962537093275332,47.20398650408751],[4.9625559189023045,47.20409143271326],[4.962605679275914,47.20438690743213],[4.962663447080885,47.204737414269964],[4.96267411440977,47.204798794409975],[4.9626745,47.2047987]]],[[[4.9614279,47.2045462],[4.9615,47.2046901],[4.9615263,47.2047398],[4.9616085,47.2047414],[4.9616911,47.2047414],[4.9617278,47.204741],[4.9618585,47.2047227],[4.9618462,47.2046723],[4.9621382,47.2046298],[4.9624304,47.2045888],[4.962589432413224,47.2045670241863],[4.962546909099071,47.20433783239678],[4.962474966766607,47.20392727361348],[4.962455694570605,47.20381009601753],[4.962426830803485,47.2037176029485],[4.962376104850459,47.20356009110536],[4.962344815509778,47.203482966506606],[4.962329730723057,47.203439284083444],[4.96230330642807,47.20333142224729],[4.96224258185403,47.20298198281617],[4.962222935223874,47.20289545730595],[4.962202081560603,47.20281713826128],[4.962183382199498,47.20271527829211],[4.962164445971807,47.20244278557479],[4.961683202522736,47.202525520082226],[4.961637167646298,47.202537538558076],[4.961585385018975,47.202556813740756],[4.961545680485804,47.20257791962468],[4.961510465859793,47.20259894946592],[4.961472365394658,47.20262309904583],[4.961435794216058,47.202648240342164],[4.961399459640228,47.20267951038301],[4.961369442195262,47.202719868091926],[4.961352734620102,47.202754885294205],[4.961273567968387,47.203133269002045],[4.961234810838924,47.20326266815667],[4.9611783282994475,47.203523154586065],[4.961155530743272,47.203637982721034],[4.961144131600642,47.20369538778496],[4.961108689998288,47.20387480142315],[4.961094016044471,47.203965987589996],[4.9610606206408,47.20407792420996],[4.9610083623570125,47.2042484278315],[4.961005266246719,47.204369046132896],[4.961000367089804,47.20448152694543],[4.960997795865823,47.204575579077066],[4.960992916564429,47.204606307452416],[4.960981855888455,47.204624177003055],[4.9614279,47.2045462]]]]}},{"type":"Feature","id":"clos-de-la-roche-plot-les-chabiots","properties":{"id":"clos-de-la-roche-plot-les-chabiots","name":"Les Chabiots","kind":"named_plot","tier":"grand_cru","appellationId":160,"denominationId":null,"parentFeatureId":"inao-denom-544","parentAppellation":"Clos de la Roche","sourceName":"LES CHABIOTS","communes":["21442"],"areaHa":2.117693,"matchId":"","atlasUrl":null,"bounds":[4.962047531367573,47.19941902454296,4.964265652755618,47.201269480637336],"labelPoint":[4.963099068315038,47.20033828585231]},"geometry":{"type":"Polygon","coordinates":[[[4.9620893,47.2001504],[4.9621458,47.2002695],[4.9622387,47.200475],[4.9622864,47.2005769],[4.962329,47.2006994],[4.9623454,47.2007536],[4.9623803,47.2008839],[4.9624196,47.2011],[4.9624345,47.2011919],[4.962434161173778,47.20119528826221],[4.962435596823481,47.20120387607016],[4.962429140898354,47.201269480637336],[4.963273,47.2011245],[4.964265652755618,47.20093555134684],[4.964156560275056,47.200665867330926],[4.964122035548043,47.2005826651998],[4.96405266419767,47.20040707170463],[4.9639141693540925,47.20010390693008],[4.9639010609438765,47.20007347431468],[4.963879980752132,47.20002989368088],[4.96385590304817,47.19998636386383],[4.963827484800664,47.19994699614778],[4.96374637019061,47.199860504267015],[4.963678089717365,47.19979729021672],[4.963593230784286,47.19973128627841],[4.963474318735463,47.19963623128871],[4.963382606922382,47.19958772406084],[4.963182080977045,47.19947463618545],[4.963087111144421,47.19941902454296],[4.962998926024367,47.19946752798292],[4.962948949998459,47.19949494126541],[4.962926922057541,47.19950757110384],[4.9629145929753955,47.1995140102636],[4.9629215,47.1995285],[4.962916785191022,47.199529739321214],[4.96292213238092,47.19954035139119],[4.962821348053801,47.19956646944841],[4.9628705,47.1996716],[4.9629117,47.1997598],[4.9629447,47.1998295],[4.96294002440128,47.19983047530394],[4.962945098873009,47.19984138663794],[4.962833519744169,47.19986473765757],[4.962612810694114,47.199897088069356],[4.962517189584981,47.19990585859166],[4.962489035529531,47.19983276935034],[4.962438239265972,47.19983770946561],[4.962214285152415,47.19986296369741],[4.962205292529273,47.19986311603344],[4.962128888243076,47.19986441030249],[4.962086973284486,47.199866146940984],[4.962061779857915,47.19995648497519],[4.962047531367573,47.20005890314849],[4.962049358946752,47.20006807585028],[4.962060998014071,47.20009955117199],[4.9620741424756005,47.200131000992734],[4.962084594737191,47.20015133244537],[4.9620893,47.2001504]]]}},{"type":"Feature","id":"clos-de-la-roche-plot-les-fremieres","properties":{"id":"clos-de-la-roche-plot-les-fremieres","name":"Les Fremières","kind":"named_plot","tier":"grand_cru","appellationId":160,"denominationId":null,"parentFeatureId":"inao-denom-544","parentAppellation":"Clos de la Roche","sourceName":"LES FREMIERES","communes":["21442"],"areaHa":2.273002,"matchId":"","atlasUrl":null,"bounds":[4.9621795628012295,47.20093555134684,4.964660429734127,47.2026134],"labelPoint":[4.963417428000347,47.201764470937086]},"geometry":{"type":"Polygon","coordinates":[[[4.9621861,47.202183],[4.9621917,47.202228],[4.9622016,47.2023137],[4.9622205,47.2024624],[4.962233,47.2026134],[4.9630158,47.2024825],[4.9630278,47.2024799],[4.963019,47.2024398],[4.9636485,47.2023234],[4.9636607,47.2023234],[4.963654,47.2022803],[4.963671,47.2022562],[4.9637633,47.202213],[4.963887,47.2021546],[4.9638964,47.2020635],[4.964660429734127,47.20192850151703],[4.964600423842298,47.20177718831814],[4.964579006896995,47.201724418876054],[4.964537702481063,47.20161987166543],[4.964298203540819,47.20101393406295],[4.964270269909263,47.20094696526401],[4.964265652755618,47.20093555134684],[4.963273,47.2011245],[4.962429140898354,47.201269480637336],[4.962427942322231,47.20128166046691],[4.962424144754516,47.201342016850106],[4.962369897772896,47.20141650206179],[4.962321856230284,47.201497014887615],[4.962285118941595,47.20159981400088],[4.962242694741413,47.20175175355603],[4.962224429906947,47.20182665577246],[4.962211763584603,47.2018902152392],[4.962202119429919,47.20195475914496],[4.9621795628012295,47.20209387312099],[4.9621861,47.202183]]]}},{"type":"Feature","id":"clos-de-la-roche-plot-les-froichots","properties":{"id":"clos-de-la-roche-plot-les-froichots","name":"Les Froichots","kind":"named_plot","tier":"grand_cru","appellationId":160,"denominationId":null,"parentFeatureId":"inao-denom-544","parentAppellation":"Clos de la Roche","sourceName":"LES FROICHOTS","communes":["21442"],"areaHa":0.643214,"matchId":"","atlasUrl":null,"bounds":[4.962233,47.2023234,4.9638741,47.2030588],"labelPoint":[4.963048978721185,47.202717198505766]},"geometry":{"type":"Polygon","coordinates":[[[4.9622788,47.2028945],[4.9622989,47.2029794],[4.9623083,47.2030588],[4.9630099,47.2029602],[4.9638741,47.2028407],[4.9638668,47.2027636],[4.9638501,47.2026772],[4.9638423,47.2026395],[4.9637547,47.2024942],[4.9637502,47.202487],[4.9637074,47.2024154],[4.9636617,47.2023286],[4.9636607,47.2023234],[4.9636485,47.2023234],[4.963019,47.2024398],[4.9630278,47.2024799],[4.9630158,47.2024825],[4.962233,47.2026134],[4.962242872332969,47.20275719701153],[4.9622429054604655,47.20275762082278],[4.9622788,47.2028945]]]}},{"type":"Feature","id":"clos-de-la-roche-plot-les-genavrieres","properties":{"id":"clos-de-la-roche-plot-les-genavrieres","name":"Les Genavrières","kind":"named_plot","tier":"grand_cru","appellationId":160,"denominationId":null,"parentFeatureId":"inao-denom-544","parentAppellation":"Clos de la Roche","sourceName":"LES GENAVRIERES","communes":["21442"],"areaHa":0.879809,"matchId":"","atlasUrl":null,"bounds":[4.960022454713254,47.202500061263684,4.961617804019287,47.2036953],"labelPoint":[4.96070154055532,47.20308256582821]},"geometry":{"type":"Polygon","coordinates":[[[4.9611172,47.2026027],[4.9610949,47.2026248],[4.9610556,47.2026509],[4.9609629,47.2026673],[4.9605258,47.2027524],[4.9602232,47.2028133],[4.9600267,47.2028605],[4.960022454713254,47.20286145605023],[4.960027154825309,47.20287234839221],[4.960105782921357,47.203054937714136],[4.960135561013409,47.20304932770729],[4.9601617618336835,47.20311019394228],[4.9601517970873825,47.20312466332612],[4.9601077702749325,47.203191824022134],[4.960116262621693,47.20321927323822],[4.960111569176295,47.203255113576645],[4.960126726212573,47.20330083028536],[4.960121549467257,47.20332340466455],[4.960096237050986,47.203327912472844],[4.9601109852263665,47.203362406217494],[4.960137148792238,47.203422246453954],[4.9601438141487035,47.203440531945496],[4.960076830994748,47.20345392186812],[4.960138503744467,47.203541771797916],[4.960068597470092,47.20355726443365],[4.960112314718639,47.20365336169018],[4.9601166,47.2036526],[4.9601222,47.2036656],[4.9601353,47.2036953],[4.9604732,47.2036409],[4.9611436,47.2035337],[4.961148243851429,47.20353070309588],[4.961155032977407,47.20350107119063],[4.9611922775298085,47.2033298039963],[4.961200079536583,47.2032969728521],[4.961217101312526,47.20322924230324],[4.961237107893545,47.203161470220266],[4.961247237653169,47.2031102103797],[4.961289570511166,47.20291433492585],[4.961333445587597,47.20271945094873],[4.96134742916987,47.20269163025819],[4.961356036685123,47.20268126324586],[4.961368937453352,47.20266469978218],[4.961384859779084,47.20264910278001],[4.961432887210705,47.2026094577365],[4.961444617478301,47.202602108725074],[4.961485604077717,47.20257484840425],[4.961528119955213,47.20254857979663],[4.961572178644701,47.20252331167691],[4.961617804019287,47.202500061263684],[4.961191662120185,47.20257267495902],[4.961143972709454,47.20258063273958],[4.961132333099378,47.20258260135239],[4.9611172,47.2026027]]]}},{"type":"Feature","id":"clos-de-la-roche-plot-les-mochamps","properties":{"id":"clos-de-la-roche-plot-les-mochamps","name":"Les Mochamps","kind":"named_plot","tier":"grand_cru","appellationId":160,"denominationId":null,"parentFeatureId":"inao-denom-544","parentAppellation":"Clos de la Roche","sourceName":"LES MOCHAMPS","communes":["21442"],"areaHa":2.551223,"matchId":"","atlasUrl":null,"bounds":[4.963654,47.20192850151703,4.965523697217504,47.2047134],"labelPoint":[4.96455971961635,47.20340071102457]},"geometry":{"type":"Polygon","coordinates":[[[4.9638964,47.2020635],[4.963887,47.2021546],[4.9637633,47.202213],[4.963671,47.2022562],[4.963654,47.2022803],[4.9636607,47.2023234],[4.9636617,47.2023286],[4.9637074,47.2024154],[4.9637502,47.202487],[4.9637547,47.2024942],[4.9638423,47.2026395],[4.9638501,47.2026772],[4.9638668,47.2027636],[4.9638741,47.2028407],[4.9638856,47.2028843],[4.963886,47.2028879],[4.9639015,47.2030148],[4.9639108,47.2030891],[4.9639394,47.2033175],[4.9640158,47.2036474],[4.9640287,47.2037022],[4.9640405,47.2037518],[4.9640669,47.2038645],[4.9640948,47.2039811],[4.9641418,47.2041174],[4.9641514,47.2041462],[4.9642127,47.2043285],[4.9642704,47.2043208],[4.9643083,47.2044905],[4.9643166,47.20453],[4.9643677,47.2045286],[4.964403,47.2047134],[4.9644147,47.2047119],[4.9646213,47.2046869],[4.9649695,47.2046433],[4.9653175,47.2045983],[4.9653247,47.2046325],[4.965523697217504,47.20459772764547],[4.965521535540184,47.20458371728083],[4.965518089922819,47.20457151021009],[4.965424279086132,47.20438407578031],[4.96541293532324,47.204360763805944],[4.965341788322775,47.20421892702615],[4.965293118541691,47.20399495664755],[4.965199500222815,47.2035663775978],[4.965181503670056,47.203483922049145],[4.965081355933076,47.20308201994772],[4.9649776282989375,47.20266382439589],[4.964873015404148,47.202426501924556],[4.964750679187194,47.20215576323401],[4.964664824130248,47.2019395825978],[4.964660429734127,47.20192850151703],[4.9638964,47.2020635]]]}},{"type":"Feature","id":"clos-de-la-roche-plot-monts-luisants","properties":{"id":"clos-de-la-roche-plot-monts-luisants","name":"Monts Luisants","kind":"named_plot","tier":"grand_cru","appellationId":160,"denominationId":null,"parentFeatureId":"inao-denom-544","parentAppellation":"Clos de la Roche","sourceName":"MONTS LUISANTS","communes":["21442"],"areaHa":3.755923,"matchId":"","atlasUrl":null,"bounds":[4.960112314718639,47.20353070309588,4.962675046160539,47.2070446168139],"labelPoint":[4.961767874565137,47.2057713248885]},"geometry":{"type":"MultiPolygon","coordinates":[[[[4.9624304,47.2045888],[4.9621382,47.2046298],[4.9618462,47.2046723],[4.9618585,47.2047227],[4.9617278,47.204741],[4.9616911,47.2047414],[4.9616085,47.2047414],[4.9615263,47.2047398],[4.9615,47.2046901],[4.9614279,47.2045462],[4.960981855888455,47.204624177003055],[4.960973099146811,47.20463832433352],[4.9609630095986414,47.20464973401416],[4.960954624967747,47.20478985771148],[4.960952033160722,47.20484201651266],[4.960941303710801,47.2049178084566],[4.960918007684294,47.20501935276039],[4.960877999839148,47.20519679925086],[4.960881555971326,47.205212066444105],[4.960917083408342,47.20532283627873],[4.96093713820919,47.20542059388259],[4.960978053015587,47.20551492749079],[4.960985611844759,47.20555771081515],[4.960990247289743,47.20560258787662],[4.960989032599965,47.20569252849978],[4.960983087420825,47.20581728346268],[4.9609885827530205,47.20584478333387],[4.961003328528136,47.20592014401405],[4.961008600152834,47.205941505910296],[4.961012565775365,47.20596800504552],[4.961015025856673,47.20599452966595],[4.961027146160136,47.20608015604077],[4.961024500438891,47.20617216512433],[4.961028201969572,47.20623238536651],[4.961001220896644,47.206232842095275],[4.960909743588062,47.206232346301846],[4.960914118569181,47.20627007738692],[4.960924526755024,47.206308732976176],[4.960723059732301,47.20633462077777],[4.960727640882787,47.20641934813905],[4.960732239122358,47.20646320820055],[4.960806077473091,47.20647319732351],[4.960837044586899,47.20666476972429],[4.960727787400122,47.2070446168139],[4.9611138,47.2069703],[4.9617875,47.2068509],[4.961858,47.2068466],[4.9619346,47.2068336],[4.9619683,47.2068279],[4.9620833,47.2068239],[4.962433796853063,47.206811584440416],[4.962418974394658,47.206749354254455],[4.962495795135171,47.20606039170336],[4.9624980855406315,47.20604094601279],[4.962503376022833,47.20598057345499],[4.96250791906554,47.20594064707719],[4.962541625757497,47.20579599677321],[4.962559317363408,47.2057466530038],[4.96257985775042,47.205693172462276],[4.962610489924709,47.205587415010015],[4.962640975012428,47.205436695475214],[4.962649672864034,47.205387504054016],[4.962652204139697,47.2052924349199],[4.962651906732971,47.20507889204606],[4.962647846117077,47.20496758055503],[4.962646579804576,47.20493286771275],[4.96264303848479,47.204876724249985],[4.962636486477669,47.20482064079927],[4.962591697423295,47.204579232117915],[4.962589432413224,47.2045670241863],[4.9624304,47.2045888]]],[[[4.9626745,47.2047987],[4.96267411440977,47.204798794409975],[4.962675046160539,47.204804155732695],[4.9626745,47.2047987]]],[[[4.9611436,47.2035337],[4.9604732,47.2036409],[4.9601353,47.2036953],[4.9601222,47.2036656],[4.9601166,47.2036526],[4.960112314718639,47.20365336169018],[4.960117493954857,47.203664746450386],[4.960122480820847,47.20367794520861],[4.960135537387014,47.20370735243623],[4.960171414574936,47.20378644419424],[4.960193729111452,47.20378197809683],[4.960193725162588,47.20382285421229],[4.960256316660614,47.203812591417645],[4.960302141546339,47.20391808108087],[4.9603646884406425,47.20398855345786],[4.960375207286662,47.2040302691198],[4.960433829046504,47.20415801994126],[4.960493038544836,47.20438384888175],[4.960572075169299,47.20437229899504],[4.960615944992627,47.204506423141474],[4.960687949494236,47.20467176149404],[4.960659980932217,47.2047274116716],[4.960618992275044,47.204754671677804],[4.9606317982218915,47.2048177997411],[4.9606591169167995,47.20490930170307],[4.96067064470324,47.20493771711791],[4.960702094604309,47.20501892788591],[4.960765519073181,47.20515476523704],[4.960797940685468,47.20522165877141],[4.96080274188173,47.20522975451321],[4.960743095755287,47.20523893208456],[4.9607469867394105,47.20526338824436],[4.960864681738578,47.20528387387525],[4.960851665234557,47.2052146166505],[4.9608498618722665,47.20520647016729],[4.960862357475853,47.20513779872765],[4.9608933313660035,47.205000363573504],[4.960922663538653,47.20485885868093],[4.960933565622807,47.20466453319441],[4.960937548032451,47.20465016501985],[4.960941852150623,47.204644986032875],[4.960956022100986,47.2046222593904],[4.9609701791612215,47.20459954196949],[4.960974872152023,47.20456370161482],[4.960975000573053,47.2045258942756],[4.960982139790828,47.204269305255785],[4.96099018964288,47.20424362933432],[4.961006166479599,47.20418818205717],[4.961016333720734,47.204137939253265],[4.961037288058311,47.20405482379932],[4.96105974749163,47.20397167385278],[4.96106214986215,47.20395528816375],[4.961070402119816,47.2038938388777],[4.961081652449897,47.2038323478402],[4.961094444978582,47.203771839309866],[4.961144692856463,47.203546201813495],[4.961148243851429,47.20353070309588],[4.9611436,47.2035337]]]]}}]}
