{"type":"FeatureCollection","features":[{"type":"Feature","id":"echezeaux-plot-clos-saint-denis","properties":{"id":"echezeaux-plot-clos-saint-denis","name":"Clos Saint-Denis","kind":"named_plot","tier":"grand_cru","appellationId":179,"denominationId":null,"parentFeatureId":"inao-denom-565","parentAppellation":"Échezeaux","sourceName":"CLOS SAINT-DENIS","communes":["21267"],"areaHa":1.686697,"matchId":"","atlasUrl":null,"bounds":[4.951665339579989,47.166586216022885,4.955082653610809,47.16745949589398],"labelPoint":[4.953391776132671,47.166982660163825]},"geometry":{"type":"MultiPolygon","coordinates":[[[[4.9516888,47.1672805],[4.9516961,47.1674124],[4.951696116861639,47.16741241630766],[4.9516961140648394,47.16741236528095],[4.9516888237143855,47.167280465820454],[4.951682490373235,47.16716533762705],[4.9516888,47.1672805]]],[[[4.9516697,47.1669356],[4.951671965152337,47.16697544241165],[4.951669719971076,47.1669356024999],[4.9516697,47.16690469141419],[4.9516697,47.1669356]]],[[[4.9516696,47.1666896],[4.951669652197135,47.16676575562097],[4.951669648836884,47.16668957014299],[4.951665339579989,47.16662172508943],[4.9516696,47.1666896]]],[[[4.9517079,47.1665969],[4.951707885078477,47.16659689227746],[4.951710872372209,47.16665744550198],[4.951740255494769,47.16732957987349],[4.951744833086617,47.16745949589398],[4.9520639,47.1674199],[4.952237,47.1674138],[4.9528849,47.1673584],[4.9528884,47.1673766],[4.9534517,47.167316],[4.9550826,47.1670941],[4.955082653610809,47.16709409828293],[4.955082645631622,47.167094056631434],[4.955070927948104,47.16703319636395],[4.955045997576584,47.1669321239637],[4.955019042306585,47.16684801633795],[4.955000850461393,47.16679068753865],[4.954982094829479,47.16673237763797],[4.954967633666419,47.16668687325945],[4.954949903196681,47.16663133778484],[4.954536729833611,47.16667893012505],[4.954370585745445,47.16666732625278],[4.953816649309838,47.166718643272105],[4.953788076785857,47.16669544072307],[4.953637085937366,47.16669514533885],[4.9534916,47.1666949],[4.9533553013462495,47.16668585705135],[4.9532624754448475,47.1666797252618],[4.953159200113661,47.1666929007787],[4.953178,47.1668217],[4.953177960623314,47.16682169926026],[4.953177964967249,47.16682172902195],[4.952953701025665,47.166817486290945],[4.9527628,47.1668139],[4.9524405,47.1668222],[4.952440498377186,47.166822192062405],[4.952440480396335,47.166822192526475],[4.952428261848312,47.16676234010439],[4.9523982,47.1666153],[4.952397404522827,47.166610924875556],[4.951945583733039,47.166586216022885],[4.9518154629746,47.16659205808234],[4.9517079,47.1665969]]]]}},{"type":"Feature","id":"echezeaux-plot-echezeaux-du-dessus","properties":{"id":"echezeaux-plot-echezeaux-du-dessus","name":"Échezeaux du Dessus","kind":"named_plot","tier":"grand_cru","appellationId":179,"denominationId":null,"parentFeatureId":"inao-denom-565","parentAppellation":"Échezeaux","sourceName":"ECHEZEAUX DU DESSUS","communes":["21267"],"areaHa":4.51611,"matchId":"","atlasUrl":null,"bounds":[4.9488042,47.1692764,4.952661498334649,47.171067975232006],"labelPoint":[4.9506671206596415,47.170162169572436]},"geometry":{"type":"MultiPolygon","coordinates":[[[[4.9524127,47.1700553],[4.9523903,47.1699834],[4.952380965263177,47.16995314545119],[4.952367874521942,47.16991081290641],[4.952326592321486,47.169777505599214],[4.952277462537042,47.169598942326836],[4.952247791204337,47.16949083500656],[4.9522226870846975,47.16941399019181],[4.952218069461159,47.16939979968089],[4.9522002,47.169345],[4.952196037353476,47.169332373305544],[4.952194169025398,47.16932675642935],[4.952161189178523,47.16931677600805],[4.951245042614436,47.169427770968944],[4.951023599306024,47.169417274349755],[4.950412196793745,47.169366788980255],[4.950018116008423,47.169336955054604],[4.9498700649480165,47.16932558017995],[4.9497002771535605,47.16933024096081],[4.9496761744514135,47.16933199773256],[4.949617176349291,47.169336503526864],[4.949367370342664,47.169345032954695],[4.94926396310046,47.169348485241244],[4.949199201998681,47.169350656345735],[4.948805899842537,47.16936394188522],[4.9488056,47.1694437],[4.9488051,47.1695306],[4.9488049,47.1695418],[4.9488042,47.169686],[4.9488111,47.1697258],[4.948813,47.1697394],[4.9488232,47.1698139],[4.9488305,47.1698653],[4.9488407,47.1699389],[4.9488511,47.170014],[4.9488638,47.170106],[4.9488768,47.1702004],[4.9488783,47.1702111],[4.9488927,47.1703148],[4.9489294,47.17058],[4.9493741,47.1705269],[4.9499124,47.1704625],[4.9499488,47.1705962],[4.949949,47.1706558],[4.9499973,47.1709824],[4.94997770616425,47.17106797307858],[4.94998824168569,47.171067975232006],[4.949997550750546,47.17106781843203],[4.9499985,47.1710678],[4.950407,47.1710544],[4.950905880283495,47.171045408050354],[4.950984034693427,47.17104399357289],[4.951127040849261,47.17104356472595],[4.95126305004283,47.17103131953191],[4.9512821,47.1710296],[4.951364741316651,47.17101101419596],[4.951622682593134,47.17095298913004],[4.952221875174744,47.17091829697205],[4.9522788,47.170915],[4.952278807283594,47.17091500070675],[4.952278834059328,47.17091499915648],[4.952299001164743,47.17091696016954],[4.9524911,47.1709356],[4.952620893130923,47.1709481993332],[4.952648550813768,47.17083289022344],[4.9526538,47.170811],[4.952661498334649,47.17077910689931],[4.952633889295511,47.17062947696851],[4.95255700084157,47.17041382864048],[4.952528053573195,47.17033299619789],[4.952511108814403,47.17028531885287],[4.9524992,47.1702519],[4.952489544859591,47.170224664690636],[4.952481876261005,47.17020310359195],[4.952444802086574,47.170123939144865],[4.952432012307753,47.170096571785415],[4.9524127,47.1700553]]],[[[4.9499232,47.1692764],[4.949196251277185,47.1693019853823],[4.94919625136532,47.169301985702674],[4.949923219710473,47.16927641481148],[4.949923218014531,47.169276402953734],[4.9499232,47.1692764]]],[[[4.9501201,47.1692974],[4.950070646191475,47.16929323804582],[4.950120083926207,47.169297413851865],[4.950311721188191,47.16931364424208],[4.9501201,47.1692974]]],[[[4.9515285,47.1693537],[4.9512869,47.169383],[4.9510028,47.1693685],[4.9508931,47.1693628],[4.95075847797354,47.169351452357965],[4.9508931352019205,47.16936282773136],[4.951002817220688,47.16936854401803],[4.951286867627486,47.169383028558116],[4.951528525976311,47.169353739318275],[4.951896992683874,47.16930913571763],[4.9515285,47.1693537]]]]}},{"type":"Feature","id":"echezeaux-plot-en-orveaux","properties":{"id":"echezeaux-plot-en-orveaux","name":"En Orveaux","kind":"named_plot","tier":"grand_cru","appellationId":179,"denominationId":null,"parentFeatureId":"inao-denom-565","parentAppellation":"Échezeaux","sourceName":"EN ORVEAUX","communes":["21267"],"areaHa":8.011794,"matchId":"","atlasUrl":null,"bounds":[4.9471114370150815,47.1721867,4.953491027451569,47.1748909],"labelPoint":[4.950735105397923,47.17395937450152]},"geometry":{"type":"MultiPolygon","coordinates":[[[[4.94989398834637,47.17308230982994],[4.949870714230368,47.173055328888324],[4.949788965726118,47.17296052592696],[4.9496840564633535,47.17283882599953],[4.949676609867226,47.17283012592126],[4.949547473177942,47.172735940713174],[4.949480079672244,47.172720235098524],[4.9491581605351245,47.17264514538419],[4.948968346342858,47.17251557287571],[4.9489357,47.1724933],[4.94867138753929,47.17224744991065],[4.948627911069735,47.1722070338434],[4.948439307344239,47.172210208198045],[4.948236970846534,47.17221343323261],[4.94813811229188,47.17221500675105],[4.947953690442663,47.17224980962719],[4.947875263148652,47.17225031869867],[4.947792744375603,47.172250896553784],[4.94779009687754,47.172239774162946],[4.94774290553235,47.172242189124944],[4.9475694917820645,47.172274644840854],[4.947519108500265,47.17227279072367],[4.947397720009909,47.17226852874752],[4.947350905301296,47.17226310235023],[4.9472509081658265,47.17225145604372],[4.947268956644724,47.17252771412468],[4.947277626257234,47.17284771697416],[4.947280081857811,47.17293385914689],[4.947309541654917,47.173080154712906],[4.947332512593627,47.173196750917064],[4.947338087215059,47.173234030336666],[4.947355090221926,47.17328786791863],[4.9473525888404835,47.17338300898614],[4.947341050797646,47.17346929646202],[4.947329376513564,47.17353721482998],[4.947314099497538,47.17360411312169],[4.947569969982974,47.17362394411069],[4.947621152962231,47.17362596488494],[4.947744556891826,47.1736310933283],[4.947885161430407,47.17363710297204],[4.948037724326672,47.17365605939157],[4.948307563507216,47.173653139749774],[4.94846687790812,47.17364334421821],[4.948526570076954,47.17363963791999],[4.948774174076932,47.173577024129074],[4.948846939436869,47.17355868866541],[4.949072098469797,47.1735108609848],[4.949098031343826,47.173501238697895],[4.949418363086907,47.173382825199994],[4.949545983386744,47.17332934436993],[4.949950788669938,47.17314818685939],[4.94989398834637,47.17308230982994]]],[[[4.9500224,47.173186],[4.95002236182354,47.17318597984539],[4.949928900201178,47.17320330143217],[4.949549134954311,47.17337260820061],[4.9493394307132625,47.17345331718845],[4.949332401236925,47.17345613722371],[4.949180090855085,47.17351345561636],[4.949092031532144,47.17353979357889],[4.948994904208505,47.17356007026982],[4.948928060387149,47.17357416357405],[4.948858568628163,47.17359172353644],[4.948660712314877,47.17364224320638],[4.948565704524123,47.17366635625905],[4.948525321463017,47.17367081827155],[4.948395632197345,47.1736854286171],[4.948279089413498,47.17369837669197],[4.948260805152376,47.17370039544235],[4.9480300015693945,47.173687168555205],[4.94802961349442,47.173698342013104],[4.948025810984287,47.17378639461532],[4.9480228,47.1738564],[4.9479555,47.1742001],[4.947843202688742,47.174576190995225],[4.947948605249399,47.17458747564287],[4.9479147426616406,47.17478310631533],[4.948003538223236,47.174809889859105],[4.948082564122154,47.17483366103549],[4.9482494,47.1748838],[4.9484124,47.1748754],[4.9485859,47.1748666],[4.948725517289854,47.17486919190513],[4.948747535555434,47.1748695942033],[4.948786029419798,47.17487344032121],[4.9489612,47.1748909],[4.9494532,47.1748076],[4.949539315918123,47.17481286047464],[4.949541603707428,47.17481299904777],[4.949594614494258,47.17480346103878],[4.949752773560888,47.17480178828006],[4.950122523609304,47.174738555523184],[4.950162555328626,47.17473166737553],[4.950381776594154,47.17466565589985],[4.950378265447394,47.17460519747951],[4.950402125235243,47.17453655354095],[4.9504103,47.174513],[4.950410315725164,47.174512989731824],[4.950410318903938,47.17451298058658],[4.950507726709362,47.174449381114975],[4.950571362978115,47.174445157049924],[4.950623270905499,47.17442702670176],[4.9506556,47.1744157],[4.9506757,47.1744086],[4.950685,47.1744054],[4.950689268758056,47.174403899264746],[4.950736203615347,47.17438735557557],[4.950774875272414,47.1743738179752],[4.9507997,47.1743651],[4.9508152,47.1743596],[4.9508206,47.1743578],[4.9508347,47.1743528],[4.950838963105172,47.17434978576108],[4.950945276178445,47.17427459484446],[4.95098202661019,47.174248761027904],[4.9509932,47.1742409],[4.951009,47.1742298],[4.9511617,47.1741931],[4.9513054,47.1742169],[4.9515184,47.1742523],[4.951518403113343,47.17425232125194],[4.951518439050625,47.174252327225645],[4.951524608031219,47.17429467656093],[4.9515253,47.1742994],[4.951782,47.1742803],[4.9518605,47.1742824],[4.951860505699303,47.174282402048995],[4.951860530544401,47.1742824027129],[4.951992871332008,47.174329972464335],[4.952152973056974,47.17436295191017],[4.9522115,47.174375],[4.9524376,47.1744217],[4.952473896748463,47.174409559875],[4.9525843683801005,47.17437259098475],[4.952593546789033,47.174369525768],[4.9526085,47.1743645],[4.9526898075049095,47.174354402989586],[4.952761545427529,47.174345467732],[4.952905385129774,47.174327640132496],[4.9529903,47.1743171],[4.953008871242725,47.17431884740358],[4.953036035254758,47.17432138558337],[4.9531816757268174,47.17433497067477],[4.9532625,47.1743425],[4.953473076847433,47.174362097845254],[4.953491027451569,47.17429632859447],[4.953485630577494,47.17410757220559],[4.953484351103714,47.174061395059695],[4.953469612071993,47.17397185790408],[4.953465536455703,47.17394689109896],[4.953427114967688,47.17385982481304],[4.9533335150118365,47.173751625761746],[4.953286580452358,47.17368744518204],[4.9532865,47.1736874],[4.9532807898297895,47.17367886046617],[4.9532753794607345,47.17367083573299],[4.953253891020519,47.17363913832611],[4.953224896581038,47.17357892715083],[4.953199,47.1735252],[4.953188924674667,47.173504306331246],[4.953165062279233,47.173454941418015],[4.953140192322434,47.17340269051523],[4.953133440727577,47.173394349682404],[4.953076863631075,47.173324497258356],[4.953032230388235,47.17328823717326],[4.952881532144408,47.17328379106939],[4.9527759,47.1732807],[4.9526216,47.1732661],[4.9517331,47.1731712],[4.951671858772409,47.173164561637925],[4.951667579884633,47.17316409839436],[4.951499600042197,47.1731242434696],[4.951436433116593,47.173102631991895],[4.9513681,47.1730793],[4.9512736559008514,47.17306583135537],[4.951194910505933,47.173054632497156],[4.951103630353328,47.17304671497717],[4.951084539830183,47.17304501822031],[4.9510798,47.1730446],[4.9509306,47.1730646],[4.9508329614109545,47.17309018750547],[4.95055554321626,47.17316293694161],[4.950472020383563,47.173184790210534],[4.9504205,47.1731983],[4.9503272,47.1732138],[4.95030467446938,47.17321753449586],[4.950251186194559,47.17322642059975],[4.950222748675165,47.17322553236112],[4.9501725,47.173224],[4.950119158901552,47.17321420265539],[4.950094079232957,47.17320961492778],[4.950090687617615,47.17320320855362],[4.950087812391279,47.17319782320906],[4.950052831015231,47.17318653493494],[4.950037615618295,47.17318625025688],[4.9500224,47.173186]]],[[[4.9479401,47.1722282],[4.9477866,47.1722207],[4.9475539,47.1722601],[4.947407,47.172256],[4.9471305,47.172215],[4.9471114370150815,47.17220002906943],[4.947111438345745,47.17220003843294],[4.947130469360362,47.17221502786018],[4.947407040737931,47.172256034304645],[4.947553911722399,47.17226013776609],[4.947786634892047,47.172220740554756],[4.947940099986427,47.172228244764256],[4.948049559425565,47.17221466225955],[4.9479401,47.1722282]]],[[[4.9486476,47.1721867],[4.948545037320778,47.17218975594921],[4.948647589400417,47.17218671092241],[4.9486476,47.1721867]]]]}},{"type":"Feature","id":"echezeaux-plot-les-beaux-monts-bas","properties":{"id":"echezeaux-plot-les-beaux-monts-bas","name":"Les Beaux Monts Bas","kind":"named_plot","tier":"grand_cru","appellationId":179,"denominationId":null,"parentFeatureId":"inao-denom-565","parentAppellation":"Échezeaux","sourceName":"LES BEAUX-MONTS BAS","communes":["21267"],"areaHa":0.789088,"matchId":"","atlasUrl":null,"bounds":[4.948367495811451,47.16705235997505,4.9499232,47.1693019853823],"labelPoint":[4.949461797517027,47.16869067854306]},"geometry":{"type":"MultiPolygon","coordinates":[[[[4.9484649,47.1670524],[4.948464853004759,47.16705235997505],[4.948418968256602,47.16706073554793],[4.9484649,47.1670524]]],[[[4.948384993480942,47.16706693713388],[4.948384961829926,47.1670669429113],[4.94837050161579,47.16714948573284],[4.948384993480942,47.16706693713388]]],[[[4.9483675,47.1673688],[4.9483678,47.1673332],[4.9483685,47.1672533],[4.948369162085959,47.16716212130511],[4.948368463957533,47.16725327649502],[4.9483677896943865,47.167333167601875],[4.948367495811451,47.16736883476196],[4.948412033358922,47.1674209989371],[4.9483675,47.1673688]]],[[[4.948416302721119,47.1674259993866],[4.948416311159163,47.16742600926958],[4.948426633954133,47.167423670523526],[4.948416302721119,47.1674259993866]]],[[[4.948458,47.1674166],[4.948457982835043,47.16741660386932],[4.948488108657086,47.16746174460428],[4.948458,47.1674166]]],[[[4.9486412,47.1676914],[4.9486078,47.1676415],[4.948603483020246,47.16763500943603],[4.948607795450261,47.16764153243356],[4.948641160897648,47.16769140220286],[4.948651410057624,47.16772509821974],[4.9486412,47.1676914]]],[[[4.948669,47.1677701],[4.948665461988015,47.1677645807013],[4.948668966953845,47.167770093439074],[4.948699755689066,47.167819249382724],[4.948669,47.1677701]]],[[[4.9487449,47.1678909],[4.948738795920085,47.16788126856243],[4.948744913221998,47.16789093103805],[4.9487528247658945,47.16790354590302],[4.9487449,47.1678909]]],[[[4.949045041898526,47.168089248431826],[4.949231417050393,47.16806294245369],[4.949231376176017,47.16806290336838],[4.949045041898526,47.168089248431826]]],[[[4.9497076,47.1679979],[4.9492486,47.168062],[4.949248529813126,47.16806200367257],[4.949248550707751,47.16806202356033],[4.949707616241829,47.167997918508135],[4.9497076,47.1679979]]],[[[4.949746303830421,47.1680420267717],[4.948895099087193,47.168158390859524],[4.949008803476321,47.1683446037217],[4.949033333517645,47.16849692583607],[4.948985604538445,47.168506284733546],[4.949032953461724,47.16858491701923],[4.949073553958378,47.16865222578531],[4.949084792879397,47.16867085827832],[4.949083850981732,47.16871049880779],[4.949013796982251,47.16871600095506],[4.9490165830506045,47.16872730111306],[4.949063889543871,47.16887770878165],[4.949111191674599,47.168951388736225],[4.949117937026562,47.16896262222945],[4.949122619609155,47.168989830375956],[4.949142557294934,47.169106477506844],[4.949143054231433,47.169109260877704],[4.949167966410786,47.16919916765231],[4.949196251277185,47.1693019853823],[4.9499232,47.1692764],[4.9498912,47.1690526],[4.9498688,47.1688972],[4.9498334,47.1686496],[4.949821886602731,47.168570175548524],[4.949820595840539,47.16856129691286],[4.949810707681763,47.16849216028452],[4.949746303830421,47.1680420267717]]]]}},{"type":"Feature","id":"echezeaux-plot-les-champs-traversins","properties":{"id":"echezeaux-plot-les-champs-traversins","name":"Les Champs Traversins","kind":"named_plot","tier":"grand_cru","appellationId":179,"denominationId":null,"parentFeatureId":"inao-denom-565","parentAppellation":"Échezeaux","sourceName":"LES CHAMPS TRAVERSINS","communes":["21267"],"areaHa":3.57298,"matchId":"","atlasUrl":null,"bounds":[4.9465832,47.17040133446161,4.9501988,47.1723255],"labelPoint":[4.947631541103925,47.171372990175286]},"geometry":{"type":"MultiPolygon","coordinates":[[[[4.9470837,47.1719909],[4.947079219635102,47.17202700265048],[4.947076832543782,47.17204653480449],[4.9470906338944145,47.17208124437816],[4.947101640242788,47.17212995962208],[4.9471086039658845,47.17218009369388],[4.9471114370150815,47.17220002906943],[4.9471305,47.172215],[4.947407,47.172256],[4.9475539,47.1722601],[4.9477866,47.1722207],[4.9479401,47.1722282],[4.948049559425565,47.17221466225955],[4.9481575564476135,47.17220126122194],[4.948545037320778,47.17218975594921],[4.9486476,47.1721867],[4.948647644901121,47.17218669392641],[4.948645441914875,47.172078409052276],[4.948643834526891,47.172008462638196],[4.94864325808363,47.171977943374834],[4.948642435726316,47.17193698176028],[4.948640880558619,47.17186118082682],[4.948638870899282,47.17177647200175],[4.948637099148081,47.17169103872198],[4.9486375601935295,47.17143013884206],[4.948659247579614,47.17128136156227],[4.948687796730379,47.17108500926736],[4.948098250013281,47.170901761268965],[4.9477365515288385,47.170752500642216],[4.947717936123845,47.17074533918869],[4.947664314052391,47.170723277056325],[4.947612085190948,47.17069957045396],[4.947561516756898,47.17067430494405],[4.947268212146594,47.170531907265584],[4.947180441346731,47.1704894362673],[4.94701866678305,47.17040174097207],[4.946759024254616,47.17040133446161],[4.946752649401575,47.17045693124221],[4.9467465,47.1705108],[4.946744102281294,47.17053122194898],[4.946740735245405,47.17056023052703],[4.946738317754066,47.170585396831996],[4.9467355,47.1706152],[4.9467506634762355,47.17068967378202],[4.94675921237711,47.17073156643707],[4.94676375099338,47.17075371217123],[4.9467769,47.1708176],[4.9467766,47.1708613],[4.946776502517158,47.17087870068724],[4.946776418986933,47.17089698000882],[4.946788939983247,47.17098394359479],[4.946807838748882,47.17112359283782],[4.9468131,47.1711624],[4.946815318400858,47.171178571520265],[4.946823832848592,47.171240376437424],[4.946823796970176,47.171240377913435],[4.9468238,47.1712404],[4.9465832,47.1712503],[4.946590324579867,47.17128399507184],[4.946600217333007,47.17133068035057],[4.946645920004784,47.17144459950237],[4.946666,47.1714441],[4.9466711,47.1714648],[4.946723635211796,47.171442612104016],[4.9467444593494285,47.171433800450444],[4.9467583679882425,47.17143284126389],[4.9470121,47.1714153],[4.947012131853818,47.17141534085355],[4.947012140578628,47.171415340251855],[4.947097444749482,47.171524674364285],[4.947135518192979,47.17166452124688],[4.947144958122101,47.17169927490583],[4.9471587,47.1717498],[4.947141464568472,47.17179504951661],[4.947125633816742,47.17183669428331],[4.947120443606107,47.17185019990657],[4.947113010157542,47.17187878702214],[4.947109,47.1718943],[4.9471065726279315,47.171903362189056],[4.947103038815628,47.171916683723275],[4.947099485017525,47.17193037647726],[4.9470975,47.1719381],[4.947094773893535,47.17194839862442],[4.947088536418299,47.1719721319012],[4.947085081064306,47.17198549083147],[4.9470837,47.1719909]]],[[[4.9472233,47.1704731],[4.94708278208041,47.17040240404598],[4.947223299227157,47.17047313572321],[4.947276949266178,47.170500210435875],[4.9472233,47.1704731]]],[[[4.9481278,47.1708681],[4.9478627,47.1707637],[4.9477162,47.1707086],[4.947615606112205,47.170661544878485],[4.947716211691547,47.17070862536787],[4.947862677926718,47.17076370685641],[4.948127802806789,47.170868123369594],[4.948463300055462,47.17098177726529],[4.9481278,47.1708681]]],[[[4.9488093,47.1710815],[4.948736325721465,47.17106090187495],[4.948809298410964,47.17108152312995],[4.9493460576714225,47.17107529816111],[4.9488093,47.1710815]]],[[[4.9499985,47.1710678],[4.949997550750546,47.17106781843203],[4.949998506709992,47.17106780233004],[4.9499985,47.1710678]]],[[[4.9486683,47.1721839],[4.9487966,47.1721523],[4.9487964,47.1721395],[4.9493454,47.1722185],[4.9494032,47.1722269],[4.9495864,47.1722532],[4.9497701,47.1722797],[4.949899,47.1722987],[4.9500284,47.1723159],[4.9501089,47.1723255],[4.9501281,47.1720697],[4.9501488,47.1719345],[4.9501559,47.1718867],[4.9501674,47.171817],[4.9501717,47.1717905],[4.9501967,47.1717906],[4.9501988,47.1717573],[4.9501875,47.1715171],[4.9501494,47.1711202],[4.950149376101915,47.17112019170139],[4.95001521008653,47.17110156215394],[4.949832984483113,47.17110571208553],[4.949647882966234,47.17110702837039],[4.949458683533599,47.17110823325275],[4.948813457955018,47.17111252242366],[4.94869417189466,47.17114073666349],[4.948657189887726,47.17139963968527],[4.948652024163338,47.17158163968261],[4.94865938677803,47.17191274155902],[4.948668277676952,47.172183903019544],[4.9486683,47.1721839]]]]}},{"type":"Feature","id":"echezeaux-plot-les-cruots-ou-vignes-blanches","properties":{"id":"echezeaux-plot-les-cruots-ou-vignes-blanches","name":"Les Cruots ou Vignes Blanches","kind":"named_plot","tier":"grand_cru","appellationId":179,"denominationId":null,"parentFeatureId":"inao-denom-565","parentAppellation":"Échezeaux","sourceName":"LES CRUOTS OU VIGNES BLANCHES","communes":["21267"],"areaHa":3.204982,"matchId":"","atlasUrl":null,"bounds":[4.948311077961577,47.166573341980666,4.951716091698734,47.168113660169226],"labelPoint":[4.95025948108687,47.16733083477936]},"geometry":{"type":"MultiPolygon","coordinates":[[[[4.9516961,47.1674124],[4.9516888,47.1672805],[4.951682490373235,47.16716533762705],[4.951675271956838,47.16703412043547],[4.951671965152337,47.16697544241165],[4.9516697,47.1669356],[4.9516697,47.16690469141419],[4.951669655271579,47.166835461091786],[4.951669652197135,47.16676575562097],[4.9516696,47.1666896],[4.951665339579989,47.16662172508943],[4.9516622664709855,47.166573341980666],[4.951241715189517,47.166636197038244],[4.9509234,47.1666838],[4.950824545162781,47.166677733096634],[4.950729473529953,47.16667191647359],[4.950589991875765,47.16668183159191],[4.950481712389966,47.16668372545537],[4.9504494,47.1666843],[4.95041968458084,47.166688105221496],[4.950175264689419,47.16671943824361],[4.950050520055256,47.16677530324782],[4.9500462620224726,47.166775046228885],[4.9500004,47.1667723],[4.9498387,47.1668251],[4.949745639059588,47.16684281990898],[4.949690603508783,47.16685332058311],[4.949637595095446,47.166771541821355],[4.94963762183303,47.166771533697016],[4.9496376,47.1667715],[4.949676148941705,47.16675982706039],[4.949719438576838,47.1667466733085],[4.949588134752566,47.16668961510176],[4.9490941178087935,47.16677519882461],[4.948311077961577,47.16691088649056],[4.948485748358577,47.167049576749164],[4.948629391611766,47.16711082852099],[4.948639317044173,47.16711507419252],[4.948721206322277,47.16719582686643],[4.948805285565946,47.16727870396328],[4.948817889490116,47.16729127974652],[4.948836863304834,47.16737038981219],[4.948874030703306,47.1675252909896],[4.948897923795525,47.16756154157518],[4.948904518801074,47.167605107754945],[4.948921902422505,47.167720537181026],[4.948934692181435,47.16773824302065],[4.9489933459625,47.167819116521514],[4.949248529813126,47.16806200367257],[4.9492486,47.168062],[4.9497076,47.1679979],[4.9502020824390565,47.16792874452436],[4.950421187683058,47.16789809251402],[4.951716091698734,47.16772668476408],[4.951702885210855,47.16762829590605],[4.951705361957469,47.16762811061865],[4.951710654368642,47.1676277035101],[4.9517011836126406,47.167504857568815],[4.95169881186127,47.16746158571912],[4.9516961,47.1674124]]],[[[4.949231376176017,47.16806290336838],[4.94920652147569,47.16803913655722],[4.9491554872464825,47.16799001472543],[4.949112941685258,47.16794921521996],[4.948981064378192,47.16782274542761],[4.948921643239168,47.16773891298857],[4.948912318938712,47.16772574166586],[4.948894215233614,47.16760501105177],[4.948888294727398,47.16756548604076],[4.948861286507168,47.167523434250256],[4.948825507271028,47.16737040087803],[4.948807993264806,47.16729513864797],[4.948791570363419,47.1672792050226],[4.948707675231674,47.16719776571458],[4.948631173870833,47.167123586487435],[4.948610653380934,47.16711483624568],[4.9484648530123,47.167052359973674],[4.948464853004759,47.16705235997505],[4.9484649,47.1670524],[4.948418968256602,47.16706073554793],[4.948384993480942,47.16706693713388],[4.94837050161579,47.16714948573284],[4.948369202043285,47.16715690404494],[4.948369162085959,47.16716212130511],[4.9483685,47.1672533],[4.9483678,47.1673332],[4.9483675,47.1673688],[4.948412033358922,47.1674209989371],[4.948416302721119,47.1674259993866],[4.948426633954133,47.167423670523526],[4.948457962087046,47.16741657278038],[4.948457982835043,47.16741660386932],[4.948458,47.1674166],[4.948488108657086,47.16746174460428],[4.948539921021307,47.16753938060032],[4.948593546036275,47.16761997871749],[4.948603483020246,47.16763500943603],[4.9486078,47.1676415],[4.9486412,47.1676914],[4.948651410057624,47.16772509821974],[4.948661545696849,47.167758421016075],[4.948665461988015,47.1677645807013],[4.948669,47.1677701],[4.948699755689066,47.167819249382724],[4.948720542729225,47.167852437058905],[4.948738795920085,47.16788126856243],[4.9487449,47.1678909],[4.9487528247658945,47.16790354590302],[4.948763692110474,47.1679208737579],[4.948802225882719,47.16798218365549],[4.948816231077397,47.168004281793834],[4.94883883387409,47.168048659157336],[4.948872087247641,47.168113660169226],[4.949045041898526,47.168089248431826],[4.949231376176017,47.16806290336838]]]]}},{"type":"Feature","id":"echezeaux-plot-les-loachausses","properties":{"id":"echezeaux-plot-les-loachausses","name":"Les Loächausses","kind":"named_plot","tier":"grand_cru","appellationId":179,"denominationId":null,"parentFeatureId":"inao-denom-565","parentAppellation":"Échezeaux","sourceName":"LES LOÄCHAUSSES","communes":["21267"],"areaHa":2.512375,"matchId":"","atlasUrl":null,"bounds":[4.9497076,47.16777263086132,4.95217759095513,47.169383],"labelPoint":[4.95093548754363,47.16865554686767]},"geometry":{"type":"MultiPolygon","coordinates":[[[[4.9498334,47.1686496],[4.9498688,47.1688972],[4.9498912,47.1690526],[4.9499232,47.1692764],[4.949923218014531,47.169276402953734],[4.949891212285622,47.16905262424397],[4.949868812310567,47.16889720451335],[4.949833434051266,47.16864960581773],[4.949821886602731,47.168570175548524],[4.9498334,47.1686496]]],[[[4.949810707681763,47.16849216028452],[4.949746327571767,47.168042023526134],[4.949746303830421,47.1680420267717],[4.949810707681763,47.16849216028452]]],[[[4.9497076,47.1679979],[4.949707616241829,47.167997918508135],[4.949707623367478,47.16799791751309],[4.9502020824390565,47.16792874452436],[4.9497076,47.1679979]]],[[[4.9517371,47.1680232],[4.951737163150654,47.16793870442401],[4.951737177126547,47.167889421],[4.951720398336666,47.16777263086132],[4.951188211134541,47.16784509178329],[4.950670480769221,47.1679156856163],[4.9504083239161325,47.16795126225507],[4.9500421007914355,47.168001199214686],[4.949928044002882,47.16801680899699],[4.949794797356458,47.16803490322969],[4.949834018850882,47.168312065709976],[4.949905131981973,47.16879888190467],[4.94997874741924,47.16928547572719],[4.950070646191475,47.16929323804582],[4.9501201,47.1692974],[4.950311721188191,47.16931364424208],[4.950623840043019,47.16934007861478],[4.95075847797354,47.169351452357965],[4.9508931,47.1693628],[4.9510028,47.1693685],[4.9512869,47.169383],[4.9515285,47.1693537],[4.951896992683874,47.16930913571763],[4.95217759095513,47.1692751687595],[4.952161776317631,47.16922054583392],[4.952147159383266,47.16917022108759],[4.952012370807512,47.16873428075293],[4.951961191591189,47.1685768129824],[4.9519156,47.1684366],[4.95186880434263,47.16830801976633],[4.951828788643572,47.16819811990904],[4.951759282110802,47.16807663531201],[4.951751309520308,47.16805737965696],[4.9517371,47.1680232]]]]}},{"type":"Feature","id":"echezeaux-plot-les-quartiers-de-nuits","properties":{"id":"echezeaux-plot-les-quartiers-de-nuits","name":"Les Quartiers de Nuits","kind":"named_plot","tier":"grand_cru","appellationId":179,"denominationId":null,"parentFeatureId":"inao-denom-565","parentAppellation":"Échezeaux","sourceName":"LES QUARTIERS DE NUITS","communes":["21267"],"areaHa":1.148406,"matchId":"","atlasUrl":null,"bounds":[4.9553612205323825,47.167827270324366,4.9575129570514616,47.1687879761798],"labelPoint":[4.956477008853668,47.16834239238666]},"geometry":{"type":"Polygon","coordinates":[[[4.956432705995507,47.167827270324366],[4.9553612205323825,47.16791795933306],[4.95540904459959,47.16810032597477],[4.955447230916664,47.1683045589487],[4.955489815526333,47.1684989915272],[4.955498233346951,47.16866167104136],[4.955503821372219,47.16871371921728],[4.955512180868299,47.16876572057581],[4.955516818842138,47.1687879761798],[4.956211429516864,47.16870437565022],[4.956305893541404,47.168701968825296],[4.956683735738321,47.168662892583065],[4.956982301385603,47.16863353052846],[4.957281334612074,47.16860614103122],[4.957360711954216,47.16859921543568],[4.957427572485207,47.16858943951613],[4.957466683592172,47.16857553990878],[4.957497735454546,47.16852521370242],[4.957502760047016,47.168449121209406],[4.957505407011342,47.16840206705296],[4.957502896182631,47.16838022582463],[4.9574886732851855,47.16825780961845],[4.9575129570514616,47.16814482858442],[4.957509459169415,47.16812489522795],[4.956527448366409,47.16821047967755],[4.95651664034402,47.168167435322715],[4.956487175201237,47.16805068001089],[4.956433919722499,47.167838867075346],[4.956432705995507,47.167827270324366]]]}},{"type":"Feature","id":"echezeaux-plot-les-rouges-du-bas","properties":{"id":"echezeaux-plot-les-rouges-du-bas","name":"Les Rouges du Bas","kind":"named_plot","tier":"grand_cru","appellationId":179,"denominationId":null,"parentFeatureId":"inao-denom-565","parentAppellation":"Échezeaux","sourceName":"LES ROUGES DU BAS","communes":["21267"],"areaHa":3.078052,"matchId":"","atlasUrl":null,"bounds":[4.945882737944854,47.16936394188522,4.9499973,47.1710815],"labelPoint":[4.94786360194644,47.17022509882544]},"geometry":{"type":"Polygon","coordinates":[[[4.9499973,47.1709824],[4.949949,47.1706558],[4.9499488,47.1705962],[4.9499124,47.1704625],[4.9493741,47.1705269],[4.9489294,47.17058],[4.9488927,47.1703148],[4.9488783,47.1702111],[4.9488768,47.1702004],[4.9488638,47.170106],[4.9488511,47.170014],[4.9488407,47.1699389],[4.9488305,47.1698653],[4.9488232,47.1698139],[4.948813,47.1697394],[4.9488111,47.1697258],[4.9488042,47.169686],[4.9488049,47.1695418],[4.9488051,47.1695306],[4.9488056,47.1694437],[4.948805899842537,47.16936394188522],[4.948805890657016,47.1693639421955],[4.947299138341064,47.169411721106364],[4.946694579841002,47.16945178741375],[4.946294114391232,47.16952291088354],[4.945882737944854,47.16954063305848],[4.946001106333489,47.1696441889496],[4.946047696164481,47.169677282195664],[4.9460873,47.1697054],[4.946121267860888,47.169727918916585],[4.946257647807578,47.1698182771161],[4.946354944147452,47.16986882437127],[4.9463811,47.1698824],[4.946437,47.1699136],[4.946440763697447,47.169916471779565],[4.946475424719859,47.16994285534798],[4.946512435394799,47.16997102231223],[4.9465477,47.1699978],[4.9466243,47.1700564],[4.9467205,47.1701297],[4.9468245,47.1702081],[4.946865456172189,47.17023909765087],[4.9469121119561175,47.17027439275631],[4.9469473852974835,47.170301024360825],[4.9470441,47.170374],[4.947078595849544,47.17040029683603],[4.94708278208041,47.17040240404598],[4.9472233,47.1704731],[4.947276949266178,47.170500210435875],[4.9473547199516865,47.17053945773191],[4.947615606112205,47.170661544878485],[4.9477162,47.1707086],[4.9478627,47.1707637],[4.9481278,47.1708681],[4.948463300055462,47.17098177726529],[4.948491732536222,47.17099140912431],[4.948701624069331,47.17105109558136],[4.948736325721465,47.17106090187495],[4.9488093,47.1710815],[4.9493460576714225,47.17107529816111],[4.949977676753264,47.17106797307257],[4.94997770616425,47.17106797307858],[4.9499973,47.1709824]]]}},{"type":"Feature","id":"echezeaux-plot-les-treux","properties":{"id":"echezeaux-plot-les-treux","name":"Les Treux","kind":"named_plot","tier":"grand_cru","appellationId":179,"denominationId":null,"parentFeatureId":"inao-denom-565","parentAppellation":"Échezeaux","sourceName":"LES TREUX","communes":["21267"],"areaHa":5.069056,"matchId":"","atlasUrl":null,"bounds":[4.9516961,47.16709409828293,4.955489934928691,47.1692751687595],"labelPoint":[4.953621639715321,47.16817289484693]},"geometry":{"type":"MultiPolygon","coordinates":[[[[4.9550826,47.1670941],[4.9534517,47.167316],[4.9528884,47.1673766],[4.9528849,47.1673584],[4.952237,47.1674138],[4.9520639,47.1674199],[4.951744833086617,47.16745949589398],[4.951744834774705,47.167459543803375],[4.951750534635606,47.16761677585726],[4.951774627796372,47.1678151236294],[4.9517819640009,47.16787542763251],[4.951789891904145,47.16794112502818],[4.951793893384763,47.16797500873854],[4.95179665862072,47.167982076553166],[4.951828844457844,47.16806852814425],[4.95185720755663,47.16814423743992],[4.951919361924137,47.168310603861315],[4.95194219472533,47.16837217750792],[4.951968433512635,47.16844756236751],[4.951984776141011,47.16849402594873],[4.952013084577646,47.168575499717406],[4.952062601198403,47.16873928740776],[4.952078202919159,47.16879080661156],[4.952128630706672,47.16895421867804],[4.952153620645164,47.16903520802866],[4.952176205342148,47.16910813288007],[4.952192970777037,47.16916260429362],[4.952209433132428,47.169216000141496],[4.952217335100287,47.169240902493215],[4.952259005079605,47.16925819928047],[4.9549014,47.1688839],[4.9554899,47.1688004],[4.955489909960753,47.16880041133036],[4.955489934928691,47.1688004077875],[4.955467263694908,47.16855070453908],[4.955426912476708,47.1683668608699],[4.955381182936692,47.168194905396234],[4.955369548040745,47.16815088429763],[4.955347546552297,47.1680686743302],[4.95534157591029,47.168046081000675],[4.955329637909978,47.1680009843412],[4.95531541309242,47.167947461016745],[4.9553082559542325,47.167921285474925],[4.955302746633961,47.167900485476096],[4.955293088990721,47.167863635471804],[4.955229584847664,47.1675440176761],[4.955215511461208,47.16747284074458],[4.955208707425685,47.16745638530868],[4.955187876552371,47.16740639567731],[4.955115369614354,47.16723156024563],[4.9550891630930805,47.1671280778926],[4.955082653610809,47.16709409828293],[4.9550826,47.1670941]]],[[[4.95217759095513,47.1692751687595],[4.952177639945221,47.16927516282915],[4.952161776317631,47.16922054583392],[4.95217759095513,47.1692751687595]]],[[[4.9519156,47.1684366],[4.951961191591189,47.1685768129824],[4.951915609256585,47.16843656564919],[4.95186880434263,47.16830801976633],[4.9519156,47.1684366]]],[[[4.9517371,47.1680232],[4.951751309520308,47.16805737965696],[4.951737139201977,47.16802315505179],[4.951737163150654,47.16793870442401],[4.9517371,47.1680232]]],[[[4.951705361957469,47.16762811061865],[4.951710655225543,47.167627714625034],[4.951710654368642,47.1676277035101],[4.951705361957469,47.16762811061865]]],[[[4.9516961,47.1674124],[4.95169881186127,47.16746158571912],[4.951696116861639,47.16741241630766],[4.9516961,47.1674124]]]]}}]}
