{"type":"FeatureCollection","features":[{"type":"Feature","id":"inao-denom-2074","properties":{"id":"inao-denom-2074","name":"Mâcon Vinzelles","tier":"regional","kind":"appellation","appellationId":583,"denominationId":2074,"sourceName":"Mâcon Vinzelles","communes":["71583"],"areaHa":60.01},"geometry":{"type":"MultiPolygon","coordinates":[[[[4.771262,46.263695],[4.770924,46.26333],[4.770769,46.263162],[4.770716,46.263111],[4.770687,46.263092],[4.770646,46.263076],[4.77059,46.263076],[4.770474,46.263086],[4.769607,46.26318],[4.769632,46.263396],[4.769657,46.263438],[4.769648,46.263493],[4.769652,46.263563],[4.769231,46.263586],[4.769206,46.263532],[4.76914,46.263548],[4.768743,46.263646],[4.767839,46.263864],[4.768405,46.263808],[4.768485,46.263839],[4.76894,46.264145],[4.769041,46.264223],[4.769318,46.264437],[4.76951,46.264591],[4.769697,46.264734],[4.769891,46.264887],[4.770115,46.265058],[4.770322,46.265196],[4.770453,46.265282],[4.770547,46.265344],[4.770916,46.265545],[4.77095,46.265565],[4.771127,46.265661],[4.77123,46.2657],[4.771362,46.265724],[4.771519,46.265739],[4.771576,46.265736],[4.771645,46.265716],[4.771665,46.265699],[4.77168,46.265657],[4.771714,46.265446],[4.771764,46.265076],[4.771782,46.264965],[4.771835,46.26458],[4.771832,46.264388],[4.771713,46.26419],[4.771695,46.264162],[4.771565,46.264024],[4.771342,46.263782],[4.771262,46.263695]]],[[[4.768654,46.264415],[4.768678,46.264973],[4.768679,46.265154],[4.770052,46.265091],[4.769833,46.264922],[4.769108,46.264377],[4.768889,46.264215],[4.768661,46.264041],[4.76865,46.264247],[4.768654,46.264415]]],[[[4.768688,46.266567],[4.768692,46.266646],[4.768695,46.266862],[4.769836,46.266848],[4.770757,46.266841],[4.770806,46.266812],[4.770848,46.266689],[4.770895,46.266546],[4.771002,46.26622],[4.771068,46.266019],[4.771077,46.265755],[4.771073,46.265711],[4.77083,46.265598],[4.770686,46.265514],[4.77048,46.265385],[4.770096,46.265124],[4.770052,46.265091],[4.768808,46.26515],[4.768679,46.265154],[4.768675,46.265191],[4.768688,46.265419],[4.768684,46.265482],[4.768669,46.26566],[4.768689,46.266261],[4.768688,46.266567]]],[[[4.772266,46.266622],[4.772126,46.266489],[4.771999,46.266366],[4.771947,46.26632],[4.77174,46.26596],[4.771714,46.265915],[4.771693,46.265889],[4.771648,46.26586],[4.771602,46.265845],[4.771523,46.265838],[4.771384,46.265848],[4.771299,46.265884],[4.771213,46.26594],[4.771176,46.265977],[4.77109,46.266249],[4.771026,46.266444],[4.770987,46.266565],[4.770905,46.266808],[4.770844,46.266987],[4.770838,46.267062],[4.770829,46.267149],[4.770813,46.267286],[4.770803,46.267429],[4.770802,46.267545],[4.770805,46.26767],[4.770834,46.267667],[4.771158,46.267628],[4.771528,46.267586],[4.771942,46.267538],[4.772315,46.267498],[4.77266,46.267458],[4.772998,46.267421],[4.772924,46.267316],[4.772829,46.267207],[4.772712,46.267087],[4.772597,46.266971],[4.772266,46.266622]]],[[[4.76875,46.267845],[4.768749,46.267901],[4.76876,46.26807],[4.76877,46.268291],[4.768939,46.268619],[4.769188,46.268628],[4.769546,46.268637],[4.769561,46.268299],[4.76957,46.268082],[4.769573,46.267862],[4.769617,46.267866],[4.769623,46.267799],[4.769626,46.267757],[4.769638,46.267624],[4.769642,46.267545],[4.769648,46.267487],[4.769651,46.267456],[4.769666,46.267455],[4.769697,46.267456],[4.770174,46.267453],[4.770682,46.267448],[4.770706,46.267447],[4.770705,46.267325],[4.770703,46.267298],[4.770705,46.267142],[4.770742,46.26693],[4.770702,46.266903],[4.769634,46.266915],[4.768707,46.266922],[4.768731,46.267384],[4.768735,46.26752],[4.76875,46.267845]]],[[[4.770706,46.267962],[4.770144,46.267977],[4.769614,46.267991],[4.769612,46.26803],[4.769611,46.268133],[4.769609,46.268164],[4.769602,46.268299],[4.7696,46.268375],[4.770395,46.268388],[4.770398,46.268486],[4.770455,46.26849],[4.770569,46.268493],[4.770571,46.268652],[4.77072,46.268655],[4.770718,46.268501],[4.770718,46.268397],[4.770455,46.268392],[4.770454,46.268318],[4.770202,46.268319],[4.770205,46.268164],[4.770409,46.268164],[4.770411,46.268126],[4.770517,46.268125],[4.770665,46.268123],[4.770709,46.268124],[4.770706,46.267962]]],[[[4.773592,46.268468],[4.773517,46.268342],[4.77351,46.268343],[4.773017,46.268402],[4.77263,46.268447],[4.772601,46.268448],[4.772119,46.268495],[4.771705,46.268532],[4.771665,46.268536],[4.771239,46.268557],[4.771087,46.268563],[4.770937,46.268569],[4.770854,46.268569],[4.770841,46.26875],[4.770811,46.268924],[4.770771,46.269055],[4.770735,46.269132],[4.770681,46.269226],[4.770619,46.269299],[4.770663,46.269312],[4.770831,46.269358],[4.771167,46.269445],[4.771153,46.269616],[4.771266,46.26962],[4.77158,46.269634],[4.771579,46.269642],[4.771884,46.269638],[4.771879,46.26958],[4.771878,46.269548],[4.772013,46.269538],[4.772009,46.269612],[4.772002,46.269824],[4.772655,46.26975],[4.772922,46.269705],[4.773389,46.269626],[4.773494,46.269631],[4.774548,46.269691],[4.77459,46.269675],[4.774354,46.269417],[4.774231,46.269278],[4.774124,46.269162],[4.773773,46.268783],[4.773759,46.268762],[4.773592,46.268468]]],[[[4.770692,46.268778],[4.770622,46.268713],[4.769965,46.268698],[4.769915,46.268946],[4.769884,46.269099],[4.768996,46.269121],[4.769014,46.269208],[4.769025,46.269248],[4.769041,46.269325],[4.769046,46.269341],[4.769093,46.269558],[4.769119,46.269667],[4.769132,46.269726],[4.76915,46.269769],[4.769208,46.269929],[4.769433,46.269915],[4.769564,46.269907],[4.769908,46.269884],[4.769935,46.269882],[4.770028,46.269716],[4.770042,46.269691],[4.77005,46.269671],[4.769959,46.269677],[4.769819,46.269673],[4.76982,46.269583],[4.769824,46.269527],[4.769792,46.269527],[4.769795,46.269441],[4.769792,46.269313],[4.769878,46.269307],[4.769884,46.269367],[4.769943,46.269367],[4.770314,46.269453],[4.770463,46.269327],[4.770616,46.269082],[4.770636,46.269028],[4.770654,46.268982],[4.770692,46.268778]],[[4.769942,46.269303],[4.769947,46.269304],[4.769943,46.269367],[4.769942,46.269303]]],[[[4.771548,46.270594],[4.77153,46.270561],[4.771442,46.270573],[4.771436,46.27055],[4.771414,46.270468],[4.77157,46.270452],[4.771568,46.270436],[4.771957,46.2704],[4.772048,46.27039],[4.772031,46.270283],[4.77187,46.27028],[4.771877,46.270218],[4.771555,46.270216],[4.771513,46.270213],[4.771501,46.270163],[4.771478,46.270091],[4.771452,46.270017],[4.771429,46.269924],[4.771,46.269967],[4.771033,46.270144],[4.77073,46.270178],[4.770763,46.27036],[4.770176,46.270423],[4.770168,46.270298],[4.770163,46.270238],[4.770141,46.270039],[4.77004,46.270044],[4.770046,46.270143],[4.770052,46.270202],[4.77001,46.270208],[4.769971,46.270056],[4.769719,46.270091],[4.769812,46.270436],[4.769777,46.270312],[4.769738,46.270314],[4.769754,46.270376],[4.769594,46.270378],[4.76948,46.27038],[4.769413,46.270382],[4.769373,46.270382],[4.769283,46.270382],[4.769294,46.270342],[4.769198,46.270349],[4.769194,46.270409],[4.76919,46.270453],[4.769175,46.270609],[4.769268,46.270606],[4.769518,46.270596],[4.769549,46.270595],[4.769577,46.270594],[4.76963,46.270591],[4.769615,46.270492],[4.769704,46.270497],[4.769778,46.27051],[4.769872,46.270557],[4.769946,46.270641],[4.76993,46.270649],[4.769935,46.270722],[4.769875,46.270728],[4.769869,46.270741],[4.769803,46.270743],[4.769808,46.270794],[4.769811,46.270858],[4.769501,46.270874],[4.769486,46.270876],[4.769483,46.271095],[4.769247,46.2711],[4.769231,46.271105],[4.76922,46.271133],[4.769296,46.271137],[4.769266,46.271363],[4.769703,46.271328],[4.770379,46.271268],[4.770854,46.271196],[4.771121,46.271161],[4.771456,46.271119],[4.772188,46.27094],[4.772206,46.270892],[4.772127,46.270741],[4.772071,46.270547],[4.772055,46.270548],[4.771897,46.270567],[4.771777,46.270573],[4.771548,46.270594]]],[[[4.772672,46.271356],[4.772557,46.271366],[4.77251,46.271366],[4.77235,46.271381],[4.772337,46.271273],[4.77233,46.271216],[4.772326,46.271017],[4.771973,46.271077],[4.771941,46.271083],[4.771806,46.271112],[4.771639,46.27115],[4.771396,46.271207],[4.771297,46.271221],[4.77126,46.271227],[4.771018,46.27126],[4.770926,46.271274],[4.770945,46.271428],[4.770701,46.271488],[4.770676,46.271316],[4.770442,46.271356],[4.770437,46.271328],[4.769666,46.27139],[4.769381,46.27141],[4.769418,46.271502],[4.769424,46.271516],[4.769465,46.271622],[4.769511,46.271741],[4.769527,46.271778],[4.769564,46.271876],[4.769511,46.271884],[4.769444,46.271895],[4.769366,46.271903],[4.769307,46.271905],[4.769229,46.271902],[4.769017,46.271897],[4.76898,46.271895],[4.768981,46.271992],[4.768983,46.272092],[4.769174,46.272104],[4.769409,46.272126],[4.769422,46.272131],[4.769484,46.272165],[4.769499,46.272174],[4.769532,46.272195],[4.769554,46.272202],[4.769613,46.27221],[4.769717,46.272224],[4.769764,46.272218],[4.769795,46.272221],[4.769833,46.272213],[4.769901,46.272185],[4.769931,46.27218],[4.770003,46.27217],[4.770064,46.272159],[4.770092,46.272155],[4.77011,46.272151],[4.770232,46.272153],[4.770344,46.272153],[4.771124,46.272069],[4.771304,46.272093],[4.771325,46.272096],[4.771679,46.272141],[4.771855,46.272163],[4.772009,46.272182],[4.772034,46.272186],[4.772362,46.272228],[4.772402,46.272219],[4.772505,46.272231],[4.772586,46.272229],[4.772741,46.272234],[4.772804,46.272227],[4.772904,46.272193],[4.772965,46.272135],[4.772978,46.272117],[4.772994,46.272065],[4.773015,46.271948],[4.773021,46.271822],[4.773013,46.271568],[4.772988,46.271173],[4.772961,46.270921],[4.772643,46.270966],[4.772657,46.271273],[4.772672,46.271356]]],[[[4.769774,46.27459],[4.769877,46.274586],[4.76991,46.274586],[4.769882,46.274543],[4.769787,46.274424],[4.769884,46.274388],[4.769934,46.274457],[4.770195,46.274379],[4.770009,46.274154],[4.76976,46.274252],[4.769679,46.274288],[4.769667,46.274275],[4.769636,46.274196],[4.769667,46.274189],[4.769647,46.274149],[4.769553,46.273989],[4.769589,46.27373],[4.769461,46.274113],[4.769405,46.274258],[4.769095,46.275048],[4.769719,46.275109],[4.770306,46.275165],[4.770668,46.275198],[4.770642,46.275134],[4.770599,46.275163],[4.77019,46.275132],[4.769993,46.274875],[4.769931,46.274799],[4.769774,46.27459]]],[[[4.772707,46.275127],[4.772284,46.275075],[4.771611,46.275064],[4.770942,46.275054],[4.770811,46.275059],[4.7707,46.275104],[4.770701,46.275187],[4.770715,46.275229],[4.770747,46.275284],[4.77076,46.275389],[4.770753,46.275424],[4.77073,46.275531],[4.770717,46.275566],[4.770684,46.275603],[4.770697,46.275608],[4.771163,46.275639],[4.771661,46.275681],[4.771836,46.275718],[4.771944,46.275745],[4.772376,46.275929],[4.773231,46.276293],[4.773302,46.276043],[4.773387,46.275755],[4.773392,46.275479],[4.773379,46.2754],[4.773334,46.275346],[4.773284,46.275309],[4.773082,46.275207],[4.772718,46.275122],[4.772707,46.275127]]],[[[4.77658,46.262186],[4.776575,46.262176],[4.776556,46.262135],[4.77655,46.262121],[4.776595,46.262115],[4.776701,46.262102],[4.77669,46.261995],[4.776163,46.262043],[4.776189,46.262215],[4.776268,46.262458],[4.776424,46.262428],[4.776613,46.26239],[4.77667,46.262377],[4.77667,46.262375],[4.77658,46.262186]]],[[[4.776127,46.26266],[4.776507,46.262663],[4.776589,46.262635],[4.776716,46.26248],[4.776515,46.262502],[4.776291,46.262532],[4.776268,46.262458],[4.776201,46.262457],[4.776132,46.262463],[4.775745,46.26248],[4.77553,46.262491],[4.77553,46.262661],[4.776127,46.26266]]],[[[4.773138,46.262674],[4.773116,46.262783],[4.773501,46.262797],[4.773505,46.262879],[4.773506,46.262907],[4.773512,46.263125],[4.773777,46.263135],[4.774035,46.263144],[4.7741,46.263146],[4.774066,46.262685],[4.773754,46.262685],[4.77349,46.262685],[4.773473,46.26252],[4.773141,46.26252],[4.773138,46.262674]]],[[[4.772997,46.263141],[4.773026,46.263134],[4.773012,46.263079],[4.773004,46.262954],[4.773008,46.262897],[4.773016,46.262844],[4.773036,46.262759],[4.773048,46.262674],[4.772999,46.26268],[4.772954,46.262683],[4.772692,46.262709],[4.772544,46.262724],[4.772538,46.262683],[4.772524,46.262605],[4.772521,46.262598],[4.772505,46.26251],[4.772326,46.262553],[4.772314,46.262537],[4.772214,46.26256],[4.772134,46.262584],[4.772063,46.262618],[4.771937,46.262688],[4.771771,46.262793],[4.771693,46.262829],[4.771653,46.262844],[4.771629,46.262852],[4.77139,46.262901],[4.771112,46.262961],[4.770833,46.263025],[4.770911,46.26312],[4.770983,46.263218],[4.771053,46.26331],[4.771091,46.263361],[4.77111,46.263353],[4.771246,46.263508],[4.771428,46.263715],[4.771704,46.264029],[4.771788,46.264121],[4.771862,46.264202],[4.771899,46.264271],[4.771952,46.264419],[4.771924,46.264789],[4.77222,46.264765],[4.772489,46.264711],[4.773197,46.26457],[4.773546,46.264502],[4.773893,46.264423],[4.774171,46.264335],[4.774209,46.264321],[4.774426,46.264179],[4.774441,46.26417],[4.774469,46.26415],[4.774468,46.263814],[4.774673,46.263811],[4.774754,46.263811],[4.774789,46.263679],[4.77482,46.263574],[4.774963,46.263582],[4.77504,46.263585],[4.775071,46.26333],[4.774993,46.263265],[4.7747,46.263241],[4.774005,46.263216],[4.772999,46.263175],[4.772997,46.263141]],[[4.771865,46.263198],[4.771842,46.263159],[4.771902,46.263146],[4.772423,46.263026],[4.772523,46.263246],[4.772444,46.263264],[4.772211,46.263315],[4.772195,46.263319],[4.771962,46.263367],[4.771865,46.263198]]],[[[4.778067,46.262379],[4.777432,46.26246],[4.77732,46.262474],[4.776802,46.262541],[4.776544,46.262805],[4.776169,46.263188],[4.776024,46.263407],[4.776018,46.263436],[4.775938,46.263596],[4.77592,46.263592],[4.775916,46.263604],[4.776072,46.263641],[4.776069,46.263824],[4.776068,46.263839],[4.776109,46.263841],[4.776101,46.26387],[4.776156,46.263871],[4.776243,46.263884],[4.776357,46.263913],[4.776346,46.263912],[4.776213,46.263897],[4.776181,46.263894],[4.776008,46.26389],[4.775823,46.263888],[4.775772,46.263888],[4.775788,46.264119],[4.775791,46.264155],[4.775806,46.264321],[4.775822,46.264379],[4.775972,46.26485],[4.776143,46.264834],[4.776151,46.264867],[4.776317,46.264853],[4.776318,46.264867],[4.776336,46.264969],[4.776211,46.264983],[4.776214,46.265001],[4.776188,46.265002],[4.776195,46.265034],[4.776047,46.265047],[4.776095,46.265142],[4.776176,46.265146],[4.776441,46.265124],[4.77651,46.265109],[4.776725,46.265073],[4.776709,46.264878],[4.776658,46.264466],[4.777337,46.264352],[4.77728,46.264134],[4.778295,46.263965],[4.778231,46.263742],[4.778219,46.263688],[4.778108,46.263314],[4.777992,46.262884],[4.778071,46.262378],[4.778067,46.262379]]],[[[4.777493,46.26495],[4.777444,46.264757],[4.777323,46.264778],[4.776931,46.264841],[4.776948,46.265036],[4.777423,46.264961],[4.777493,46.26495]]],[[[4.775883,46.265414],[4.775769,46.265435],[4.775315,46.265516],[4.775291,46.26552],[4.775246,46.265627],[4.77523,46.2658],[4.775315,46.265787],[4.775414,46.26577],[4.775839,46.265693],[4.776437,46.265589],[4.77662,46.265559],[4.776608,46.265497],[4.776586,46.265409],[4.776557,46.265292],[4.775997,46.265394],[4.775883,46.265414]]],[[[4.77531,46.264587],[4.775744,46.26452],[4.77577,46.264512],[4.775721,46.264366],[4.775703,46.264312],[4.77564,46.264316],[4.775608,46.264196],[4.775567,46.264204],[4.775451,46.26422],[4.775484,46.264333],[4.775329,46.264361],[4.77528,46.264364],[4.77524,46.264153],[4.775222,46.264154],[4.775202,46.264099],[4.775151,46.263957],[4.774997,46.263995],[4.774809,46.264047],[4.77446,46.264256],[4.774351,46.264326],[4.774278,46.264371],[4.774195,46.264417],[4.774267,46.264685],[4.774279,46.264743],[4.774292,46.2648],[4.774303,46.264899],[4.774339,46.265112],[4.774337,46.265175],[4.774228,46.265356],[4.773951,46.265365],[4.77391,46.265368],[4.773636,46.265385],[4.773492,46.265395],[4.773488,46.265352],[4.773398,46.265302],[4.77303,46.265345],[4.772937,46.265355],[4.772783,46.265373],[4.772682,46.265384],[4.772495,46.265405],[4.771811,46.265483],[4.771794,46.26564],[4.771804,46.265734],[4.771815,46.265791],[4.771853,46.265901],[4.771994,46.266177],[4.772667,46.266887],[4.773018,46.267253],[4.773787,46.267223],[4.774845,46.267174],[4.774861,46.266974],[4.774863,46.266953],[4.774877,46.266842],[4.774884,46.266783],[4.77409,46.266824],[4.774072,46.266693],[4.774428,46.266672],[4.774602,46.266662],[4.774772,46.266652],[4.77476,46.2665],[4.774684,46.266506],[4.774674,46.266354],[4.774757,46.266348],[4.774757,46.266317],[4.774617,46.266324],[4.774617,46.266311],[4.774442,46.266321],[4.774437,46.266269],[4.774601,46.266261],[4.774591,46.266199],[4.774501,46.266203],[4.774493,46.26613],[4.774589,46.266126],[4.774589,46.266144],[4.77475,46.266136],[4.774762,46.266243],[4.775009,46.266231],[4.775007,46.266218],[4.775178,46.266209],[4.77518,46.266136],[4.775169,46.266068],[4.775167,46.26605],[4.775156,46.265884],[4.775153,46.265759],[4.775154,46.26565],[4.775163,46.265596],[4.775182,46.265513],[4.775201,46.265429],[4.775199,46.265406],[4.775178,46.265395],[4.77512,46.265383],[4.775667,46.265246],[4.775825,46.265184],[4.775896,46.265129],[4.775926,46.265087],[4.775927,46.265039],[4.775892,46.264912],[4.775815,46.264692],[4.775792,46.264696],[4.77517,46.264782],[4.7752,46.264743],[4.77531,46.264587]]],[[[4.773097,46.267376],[4.773198,46.267557],[4.773359,46.267842],[4.773653,46.26836],[4.773696,46.26844],[4.7739,46.268775],[4.773916,46.268791],[4.773967,46.268841],[4.774,46.268874],[4.774198,46.269068],[4.774268,46.269141],[4.774221,46.269149],[4.774372,46.269289],[4.774419,46.269307],[4.774467,46.269316],[4.774556,46.269303],[4.774774,46.269238],[4.774886,46.269209],[4.774875,46.269192],[4.774825,46.269051],[4.774936,46.269033],[4.775272,46.268972],[4.775247,46.268932],[4.775237,46.268904],[4.775189,46.268763],[4.775164,46.268692],[4.775129,46.268595],[4.775226,46.268587],[4.775233,46.268586],[4.775318,46.26857],[4.775273,46.268445],[4.775419,46.268424],[4.775406,46.268389],[4.775403,46.268379],[4.775389,46.26834],[4.775384,46.26833],[4.775379,46.268305],[4.775372,46.268296],[4.775366,46.268279],[4.775361,46.268267],[4.775337,46.268202],[4.775517,46.268174],[4.775504,46.26812],[4.775504,46.268089],[4.775503,46.268045],[4.775581,46.267464],[4.775591,46.267365],[4.775564,46.267176],[4.775551,46.267178],[4.77484,46.267207],[4.77413,46.267241],[4.77304,46.267291],[4.773097,46.267376]]],[[[4.7721,46.270082],[4.772131,46.270549],[4.772138,46.270618],[4.772154,46.270678],[4.772174,46.270742],[4.772193,46.270776],[4.772273,46.270928],[4.772363,46.270916],[4.772628,46.270875],[4.772725,46.27086],[4.772704,46.270757],[4.772681,46.270655],[4.772689,46.270654],[4.772847,46.270631],[4.773115,46.270591],[4.773185,46.270791],[4.773329,46.270768],[4.773534,46.270726],[4.773648,46.270701],[4.773635,46.270663],[4.773599,46.270513],[4.773658,46.270503],[4.773697,46.270498],[4.773855,46.270478],[4.7739,46.270473],[4.774004,46.270461],[4.774269,46.270431],[4.77438,46.270416],[4.774536,46.2704],[4.774518,46.270303],[4.774876,46.270261],[4.774955,46.270505],[4.775103,46.270484],[4.775124,46.270396],[4.775014,46.270245],[4.775096,46.270233],[4.774642,46.269734],[4.773393,46.269696],[4.772782,46.269771],[4.772808,46.270008],[4.7721,46.270082]]],[[[4.774712,46.272611],[4.775038,46.272573],[4.774974,46.272202],[4.775266,46.272229],[4.775835,46.272163],[4.775792,46.271887],[4.775668,46.271641],[4.775661,46.271622],[4.775541,46.271135],[4.775537,46.271098],[4.77551,46.270989],[4.775309,46.270647],[4.775253,46.270583],[4.775079,46.270612],[4.775161,46.271178],[4.774841,46.271213],[4.77477,46.270656],[4.774766,46.270642],[4.773919,46.270755],[4.77361,46.270801],[4.773629,46.27094],[4.773635,46.271154],[4.773062,46.271229],[4.773101,46.271614],[4.773091,46.271873],[4.77305,46.272126],[4.773036,46.27215],[4.772977,46.272236],[4.772972,46.272262],[4.772904,46.27226],[4.772901,46.272295],[4.772874,46.272295],[4.772519,46.272291],[4.77245,46.272297],[4.772379,46.272321],[4.772353,46.272336],[4.772312,46.272371],[4.772147,46.272753],[4.772336,46.272774],[4.772428,46.272786],[4.772533,46.272813],[4.773021,46.272954],[4.773344,46.273057],[4.773864,46.273233],[4.774077,46.273266],[4.774584,46.273336],[4.775263,46.273426],[4.775906,46.273472],[4.776129,46.273489],[4.776172,46.273459],[4.776042,46.272992],[4.775404,46.272994],[4.774716,46.272994],[4.774083,46.272993],[4.774089,46.27268],[4.774712,46.272611]]],[[[4.776468,46.274662],[4.776455,46.274556],[4.776429,46.27434],[4.776426,46.274322],[4.776414,46.274206],[4.776404,46.274144],[4.776397,46.274087],[4.776305,46.273828],[4.776238,46.273619],[4.776194,46.273587],[4.775084,46.273536],[4.774965,46.273535],[4.774393,46.27344],[4.773871,46.273351],[4.773755,46.273322],[4.773619,46.273276],[4.773046,46.273085],[4.772472,46.272887],[4.772473,46.2729],[4.772197,46.272857],[4.772071,46.272842],[4.771785,46.272834],[4.771666,46.272828],[4.771539,46.272824],[4.771434,46.272823],[4.771432,46.272862],[4.771433,46.272875],[4.77146,46.272886],[4.771456,46.272904],[4.771444,46.272913],[4.77143,46.272914],[4.771426,46.272998],[4.771471,46.272998],[4.771472,46.273053],[4.771475,46.273099],[4.77159,46.2731],[4.771591,46.273203],[4.771644,46.273203],[4.771643,46.273284],[4.77165,46.273609],[4.771601,46.273612],[4.7716,46.27362],[4.771395,46.273626],[4.771396,46.273571],[4.771389,46.273203],[4.771312,46.273204],[4.771313,46.273167],[4.771257,46.273167],[4.771255,46.273205],[4.771046,46.273207],[4.771039,46.273172],[4.771008,46.272996],[4.770973,46.273],[4.770953,46.273001],[4.770806,46.273011],[4.770798,46.272964],[4.770795,46.272945],[4.770779,46.272846],[4.770517,46.272913],[4.770551,46.273075],[4.770569,46.273177],[4.770612,46.273376],[4.770386,46.273357],[4.770353,46.273356],[4.770322,46.273354],[4.77,46.273335],[4.769998,46.273295],[4.769713,46.273302],[4.769703,46.273248],[4.769896,46.273241],[4.769888,46.273142],[4.769919,46.27314],[4.769904,46.273009],[4.769583,46.27301],[4.769556,46.273023],[4.769583,46.273229],[4.769585,46.273252],[4.769594,46.273309],[4.769637,46.273566],[4.770025,46.274043],[4.770316,46.2744],[4.770339,46.274421],[4.770561,46.274663],[4.770635,46.274736],[4.770704,46.274796],[4.77085,46.274893],[4.771071,46.274956],[4.771172,46.274975],[4.771262,46.274983],[4.771632,46.274984],[4.772284,46.275002],[4.772529,46.275009],[4.772545,46.27501],[4.772917,46.2751],[4.773474,46.275234],[4.7735,46.275469],[4.773493,46.275663],[4.773452,46.275876],[4.773432,46.275947],[4.77393,46.275888],[4.774355,46.275837],[4.775144,46.275753],[4.775167,46.276041],[4.775166,46.276057],[4.7752,46.276055],[4.775226,46.276052],[4.775532,46.276023],[4.77617,46.275948],[4.776813,46.275875],[4.776691,46.275657],[4.776617,46.275406],[4.776609,46.27538],[4.776547,46.275148],[4.776486,46.274829],[4.776468,46.274662]]]]}},{"type":"Feature","id":"commune-71583","properties":{"id":"commune-71583","name":"Vinzelles","kind":"commune","tier":"commune"},"geometry":{"type":"MultiPolygon","coordinates":[[[[4.794379,46.256912],[4.794061,46.256897],[4.794101,46.257038],[4.794119,46.257068],[4.794147,46.257167],[4.793429,46.257421],[4.792973,46.257504],[4.792886,46.257516],[4.791205,46.257856],[4.790868,46.257972],[4.790347,46.258101],[4.789523,46.25828],[4.789357,46.258317],[4.789041,46.258417],[4.788854,46.258467],[4.788422,46.258615],[4.78734,46.258962],[4.785941,46.259514],[4.785694,46.259608],[4.785414,46.259715],[4.784339,46.260011],[4.783003,46.260375],[4.782772,46.260438],[4.782453,46.260517],[4.782184,46.260598],[4.781868,46.260701],[4.781631,46.260769],[4.781333,46.260853],[4.78107,46.260924],[4.780835,46.260983],[4.780706,46.261018],[4.779989,46.261215],[4.777567,46.261897],[4.777505,46.261889],[4.777459,46.261885],[4.777125,46.261851],[4.776858,46.261813],[4.77667,46.261796],[4.776362,46.261793],[4.776128,46.261818],[4.775146,46.261897],[4.773361,46.26199],[4.773255,46.262047],[4.773105,46.262369],[4.773068,46.262393],[4.77286,46.262426],[4.772356,46.262476],[4.772026,46.262564],[4.771641,46.26281],[4.770703,46.263003],[4.770721,46.263022],[4.770327,46.263064],[4.769407,46.263156],[4.769415,46.263202],[4.769282,46.26336],[4.769227,46.263419],[4.769204,46.263462],[4.769195,46.263467],[4.769217,46.26353],[4.769206,46.263532],[4.76914,46.263548],[4.768742,46.263645],[4.767839,46.263864],[4.767508,46.263948],[4.767421,46.263958],[4.767341,46.264002],[4.767202,46.264045],[4.767137,46.264055],[4.767028,46.264067],[4.766359,46.264234],[4.766309,46.264246],[4.765673,46.264403],[4.764871,46.264602],[4.764197,46.264763],[4.763908,46.264836],[4.762945,46.265075],[4.762859,46.265098],[4.76257,46.265168],[4.762387,46.265187],[4.762027,46.265248],[4.761832,46.265274],[4.761682,46.265282],[4.761325,46.265294],[4.760835,46.265506],[4.760533,46.265637],[4.760283,46.265706],[4.759461,46.265932],[4.759341,46.265964],[4.757882,46.266111],[4.757397,46.266162],[4.757192,46.266175],[4.756669,46.266216],[4.75662,46.266715],[4.756465,46.268177],[4.756216,46.270505],[4.756138,46.271273],[4.756092,46.271691],[4.756072,46.271695],[4.756048,46.271707],[4.756036,46.271722],[4.756036,46.271745],[4.756053,46.271766],[4.756097,46.271778],[4.755981,46.272695],[4.755863,46.273572],[4.755783,46.274194],[4.755729,46.274618],[4.755649,46.275238],[4.755589,46.275727],[4.755561,46.275944],[4.755774,46.275968],[4.755861,46.275987],[4.756075,46.276042],[4.75622,46.276167],[4.756443,46.276239],[4.756621,46.276297],[4.756863,46.276349],[4.757,46.276374],[4.757426,46.276364],[4.757495,46.276342],[4.757635,46.276503],[4.758369,46.276495],[4.758676,46.276493],[4.758662,46.276509],[4.758731,46.276514],[4.758915,46.276503],[4.759421,46.276453],[4.759703,46.276407],[4.759837,46.276373],[4.760051,46.276281],[4.760178,46.276206],[4.760509,46.275979],[4.760628,46.275929],[4.761124,46.275744],[4.76163,46.275598],[4.761774,46.275579],[4.762162,46.275525],[4.762345,46.275482],[4.762547,46.275384],[4.762653,46.275362],[4.763113,46.275315],[4.763413,46.275295],[4.763642,46.275273],[4.763881,46.275259],[4.7649,46.275297],[4.765367,46.275311],[4.765618,46.275309],[4.766288,46.275294],[4.766742,46.275323],[4.767442,46.275317],[4.76827,46.27532],[4.769134,46.27541],[4.770148,46.275527],[4.770633,46.275584],[4.770684,46.275603],[4.770698,46.275607],[4.771163,46.27564],[4.771661,46.275681],[4.771835,46.275717],[4.771945,46.275744],[4.772376,46.275929],[4.773231,46.276293],[4.773304,46.276297],[4.775103,46.276089],[4.776879,46.275892],[4.777334,46.27607],[4.777487,46.276039],[4.777905,46.275962],[4.778201,46.275885],[4.778623,46.275749],[4.779536,46.275549],[4.780666,46.275291],[4.78182,46.275009],[4.782325,46.274885],[4.782448,46.274853],[4.783072,46.274705],[4.784196,46.274439],[4.784601,46.274346],[4.785742,46.274071],[4.786147,46.273983],[4.786086,46.273632],[4.786148,46.273615],[4.786262,46.273577],[4.786281,46.273571],[4.786444,46.273531],[4.786655,46.273511],[4.786917,46.273496],[4.787187,46.27345],[4.78738,46.273407],[4.787653,46.273346],[4.788211,46.273267],[4.788572,46.273222],[4.78922,46.273143],[4.789594,46.273102],[4.789879,46.273072],[4.790133,46.27305],[4.790467,46.27303],[4.790812,46.273036],[4.791185,46.272996],[4.791568,46.27296],[4.792025,46.272952],[4.792404,46.272981],[4.792739,46.273015],[4.793092,46.273084],[4.793458,46.273149],[4.79395,46.273217],[4.794162,46.273241],[4.794619,46.27325],[4.795039,46.273253],[4.79533,46.273236],[4.795801,46.273174],[4.796309,46.273079],[4.796709,46.272991],[4.796766,46.272979],[4.796897,46.27295],[4.796926,46.272944],[4.796934,46.272967],[4.797188,46.272969],[4.797261,46.272946],[4.79737,46.273007],[4.797591,46.273039],[4.797636,46.273038],[4.797646,46.273069],[4.797918,46.273001],[4.79791,46.272959],[4.797765,46.272897],[4.797701,46.272869],[4.797665,46.272844],[4.797578,46.272682],[4.797591,46.272548],[4.797581,46.272534],[4.797563,46.272524],[4.797536,46.272513],[4.797495,46.272507],[4.797429,46.272505],[4.797345,46.272354],[4.797261,46.272197],[4.797112,46.271931],[4.797065,46.271848],[4.79686,46.271484],[4.796746,46.27129],[4.796614,46.271062],[4.796448,46.270772],[4.796327,46.270558],[4.796167,46.270269],[4.796546,46.270185],[4.796843,46.270127],[4.796974,46.270114],[4.796864,46.269928],[4.796376,46.269137],[4.796165,46.268694],[4.795645,46.267626],[4.795565,46.267453],[4.795034,46.266404],[4.794678,46.265766],[4.793893,46.264123],[4.792721,46.261639],[4.792642,46.261467],[4.793221,46.261345],[4.793693,46.261296],[4.794233,46.261209],[4.794722,46.261077],[4.795361,46.260896],[4.794803,46.259833],[4.794711,46.259426],[4.79513,46.259364],[4.795193,46.259238],[4.795466,46.259199],[4.795584,46.259185],[4.795607,46.259245],[4.795624,46.259297],[4.796579,46.259175],[4.796595,46.259173],[4.796578,46.259117],[4.796663,46.259091],[4.79724,46.258955],[4.798463,46.25866],[4.798156,46.258267],[4.797777,46.257792],[4.797567,46.257525],[4.797187,46.257046],[4.797103,46.257033],[4.797077,46.257028],[4.797019,46.257017],[4.796031,46.256856],[4.794711,46.256925],[4.794379,46.256912]]]]}}]}
