{"type":"FeatureCollection","features":[{"type":"Feature","id":"inao-denom-1731","properties":{"id":"inao-denom-1731","name":"Mâcon Pierreclos","tier":"regional","kind":"appellation","appellationId":583,"denominationId":1731,"sourceName":"Mâcon Pierreclos","communes":["71350"],"areaHa":132.19},"geometry":{"type":"MultiPolygon","coordinates":[[[[4.680776,46.322586],[4.680742,46.322476],[4.680722,46.322414],[4.680677,46.322284],[4.680637,46.322182],[4.6806,46.322096],[4.680569,46.322039],[4.680546,46.322008],[4.680465,46.321928],[4.680354,46.321818],[4.680243,46.321716],[4.679996,46.321572],[4.67975,46.321456],[4.679753,46.321455],[4.679651,46.321408],[4.679364,46.321272],[4.679285,46.321307],[4.679129,46.321173],[4.678897,46.320958],[4.678893,46.320594],[4.678876,46.32055],[4.678823,46.320477],[4.678757,46.320379],[4.678644,46.320249],[4.678628,46.320224],[4.678589,46.320161],[4.678541,46.320075],[4.678524,46.320034],[4.678507,46.319992],[4.678483,46.319907],[4.678435,46.31974],[4.678383,46.319652],[4.678336,46.319582],[4.678257,46.319457],[4.678214,46.319367],[4.678174,46.319269],[4.678164,46.319233],[4.678148,46.319151],[4.678136,46.319042],[4.677972,46.318936],[4.677613,46.318956],[4.67721,46.318982],[4.677109,46.319247],[4.67703,46.31944],[4.677012,46.319499],[4.676989,46.319587],[4.676947,46.319803],[4.676923,46.319919],[4.67689,46.320013],[4.67682,46.320146],[4.676731,46.320294],[4.676543,46.320537],[4.676413,46.320717],[4.676323,46.320853],[4.676313,46.320882],[4.676316,46.320901],[4.676413,46.321135],[4.676443,46.321203],[4.676494,46.321274],[4.676627,46.321396],[4.6768,46.321545],[4.676998,46.321715],[4.677132,46.321832],[4.677277,46.32196],[4.677288,46.321968],[4.677336,46.322008],[4.677512,46.322174],[4.677743,46.322366],[4.677865,46.322506],[4.67801,46.32267],[4.678106,46.322778],[4.678192,46.322874],[4.678302,46.322965],[4.67839,46.323033],[4.678574,46.323177],[4.678805,46.323356],[4.678899,46.323423],[4.678943,46.323497],[4.678959,46.323543],[4.678977,46.323579],[4.678991,46.323594],[4.67906,46.323665],[4.679181,46.323755],[4.679455,46.323937],[4.679535,46.323976],[4.679617,46.324003],[4.679833,46.324044],[4.680129,46.324088],[4.680213,46.324095],[4.680279,46.324092],[4.680429,46.324073],[4.680484,46.32406],[4.680536,46.324039],[4.680579,46.324011],[4.68062,46.323987],[4.680601,46.323885],[4.680625,46.323877],[4.680617,46.323843],[4.680612,46.323824],[4.6806,46.323776],[4.680663,46.32377],[4.680623,46.323558],[4.680766,46.323555],[4.681051,46.323569],[4.680981,46.323294],[4.680848,46.322874],[4.680847,46.32287],[4.68081,46.32273],[4.680776,46.322586]]],[[[4.676691,46.321506],[4.676498,46.321354],[4.676451,46.321323],[4.676405,46.321311],[4.676366,46.321305],[4.676322,46.32131],[4.676195,46.321351],[4.676092,46.321393],[4.675839,46.321421],[4.675318,46.321464],[4.675088,46.321479],[4.674882,46.321494],[4.674754,46.321528],[4.67465,46.321601],[4.674643,46.321613],[4.674655,46.321729],[4.674702,46.321804],[4.674812,46.321896],[4.674906,46.321968],[4.675032,46.322048],[4.675149,46.322111],[4.675552,46.322317],[4.675566,46.322327],[4.675606,46.322304],[4.675712,46.322243],[4.675876,46.322386],[4.675867,46.322392],[4.67589,46.322411],[4.675906,46.322468],[4.675917,46.32252],[4.675943,46.322513],[4.675991,46.322573],[4.67601,46.32257],[4.676041,46.322565],[4.675987,46.322454],[4.676307,46.322371],[4.676349,46.322507],[4.676398,46.322692],[4.676379,46.322739],[4.67633,46.322754],[4.676382,46.322827],[4.676455,46.322942],[4.676535,46.322951],[4.676637,46.32296],[4.676814,46.322958],[4.676881,46.322948],[4.676978,46.322932],[4.677098,46.322893],[4.677272,46.322791],[4.677354,46.322739],[4.677411,46.322708],[4.677582,46.322623],[4.677774,46.322526],[4.67779,46.322511],[4.677792,46.322493],[4.677789,46.32248],[4.677526,46.322232],[4.677244,46.321978],[4.677174,46.321916],[4.676959,46.321729],[4.676691,46.321506]]],[[[4.678542,46.323198],[4.678366,46.32306],[4.678174,46.322912],[4.678119,46.322873],[4.677852,46.322558],[4.677817,46.32255],[4.677479,46.32272],[4.677389,46.322767],[4.677237,46.322852],[4.677164,46.322895],[4.677093,46.322939],[4.677009,46.322968],[4.676947,46.322984],[4.676868,46.323],[4.676761,46.323005],[4.676684,46.323004],[4.676613,46.323],[4.67653,46.322993],[4.676457,46.322981],[4.676388,46.322968],[4.676406,46.323028],[4.676411,46.323091],[4.676397,46.323224],[4.676384,46.323319],[4.676372,46.32332],[4.676423,46.323413],[4.676471,46.323521],[4.676497,46.323605],[4.676525,46.323823],[4.676598,46.32387],[4.676666,46.323919],[4.677437,46.324474],[4.677524,46.324418],[4.677555,46.324395],[4.677578,46.324376],[4.67763,46.324332],[4.677692,46.324277],[4.677762,46.324205],[4.677789,46.324183],[4.677829,46.324165],[4.677995,46.324107],[4.678081,46.324081],[4.678393,46.323918],[4.67885,46.323671],[4.678871,46.323652],[4.678886,46.323619],[4.678884,46.323564],[4.678872,46.3235],[4.678853,46.323455],[4.678733,46.323344],[4.678542,46.323198]]],[[[4.678762,46.323765],[4.678601,46.323849],[4.678419,46.323944],[4.678344,46.323981],[4.678223,46.324048],[4.678098,46.324113],[4.677968,46.324173],[4.677794,46.324251],[4.677705,46.324322],[4.677632,46.324385],[4.677482,46.324508],[4.677472,46.324551],[4.677511,46.324669],[4.67775,46.324622],[4.677962,46.324605],[4.678312,46.324596],[4.678345,46.324595],[4.678374,46.324595],[4.678392,46.324594],[4.678597,46.324589],[4.678653,46.32458],[4.678719,46.324563],[4.678641,46.324345],[4.678795,46.324302],[4.678833,46.324291],[4.678888,46.324276],[4.679039,46.324233],[4.679208,46.324184],[4.679292,46.324159],[4.67935,46.324142],[4.67948,46.324105],[4.67954,46.324088],[4.679417,46.323959],[4.679272,46.323861],[4.679164,46.323784],[4.678968,46.323657],[4.678898,46.323694],[4.678762,46.323765]]],[[[4.677694,46.325298],[4.677748,46.325378],[4.677794,46.325432],[4.678484,46.325588],[4.678732,46.32564],[4.679724,46.325858],[4.679716,46.325876],[4.680982,46.32617],[4.681343,46.325926],[4.681378,46.325913],[4.68143,46.325905],[4.68149,46.325903],[4.681532,46.325916],[4.681737,46.326009],[4.681792,46.326022],[4.68186,46.32603],[4.681986,46.326017],[4.682118,46.32598],[4.682254,46.325938],[4.682342,46.325925],[4.682583,46.325912],[4.682682,46.325906],[4.682764,46.325898],[4.682826,46.325888],[4.682889,46.325874],[4.68277,46.325695],[4.682747,46.325667],[4.678795,46.325288],[4.677643,46.325181],[4.677694,46.325298]]],[[[4.679726,46.325952],[4.679412,46.325879],[4.67906,46.325799],[4.678532,46.325683],[4.677905,46.32554],[4.677889,46.325545],[4.677882,46.325555],[4.677938,46.325659],[4.678268,46.326221],[4.678451,46.326454],[4.678641,46.326698],[4.678711,46.326784],[4.678774,46.32685],[4.678815,46.326883],[4.678845,46.326906],[4.678896,46.326934],[4.679103,46.327042],[4.679511,46.327269],[4.679646,46.327349],[4.679707,46.327396],[4.67978,46.32746],[4.679828,46.327509],[4.67985,46.327541],[4.679867,46.327567],[4.67988,46.3276],[4.679901,46.327664],[4.679896,46.32774],[4.679908,46.327755],[4.679926,46.327757],[4.680145,46.327675],[4.68018,46.327663],[4.68028,46.327625],[4.680442,46.327569],[4.680795,46.327443],[4.680858,46.327422],[4.680878,46.327403],[4.680891,46.327382],[4.680901,46.327361],[4.680901,46.327315],[4.680896,46.327247],[4.680889,46.327212],[4.68085,46.327006],[4.680843,46.326971],[4.680643,46.326883],[4.680486,46.326814],[4.680509,46.326796],[4.680495,46.326789],[4.680474,46.32678],[4.680497,46.326749],[4.68044,46.326736],[4.680484,46.326661],[4.680555,46.326666],[4.680564,46.326639],[4.680572,46.326618],[4.680581,46.326597],[4.680624,46.32648],[4.680712,46.326489],[4.680803,46.326499],[4.680803,46.326497],[4.680827,46.326408],[4.680886,46.326264],[4.68087,46.326256],[4.680788,46.326236],[4.680772,46.326232],[4.680788,46.326196],[4.680109,46.326042],[4.679726,46.325952]]],[[[4.679472,46.327276],[4.679101,46.327084],[4.678819,46.326934],[4.678687,46.326808],[4.678558,46.32665],[4.678525,46.326609],[4.678427,46.326489],[4.678293,46.326322],[4.678262,46.326276],[4.678208,46.326191],[4.678088,46.325974],[4.678018,46.325906],[4.678041,46.325891],[4.677924,46.325701],[4.677816,46.325524],[4.677617,46.325479],[4.677532,46.325651],[4.677461,46.32575],[4.677349,46.32585],[4.677247,46.325921],[4.677091,46.326001],[4.67702,46.326033],[4.676968,46.32605],[4.676963,46.326036],[4.676644,46.326081],[4.676537,46.326108],[4.676494,46.326134],[4.676311,46.326303],[4.676277,46.326326],[4.676225,46.326361],[4.676132,46.326406],[4.675938,46.326491],[4.675924,46.326504],[4.676003,46.326522],[4.6761,46.326563],[4.676154,46.326604],[4.67619,46.326639],[4.676213,46.326686],[4.676237,46.326749],[4.676279,46.326832],[4.676324,46.326892],[4.676383,46.326945],[4.676438,46.326976],[4.676474,46.326993],[4.676534,46.327007],[4.676588,46.327013],[4.676727,46.327019],[4.677003,46.327031],[4.677172,46.327036],[4.677391,46.327051],[4.677576,46.327072],[4.67762,46.327087],[4.677661,46.327128],[4.677879,46.327336],[4.677999,46.327442],[4.678085,46.327508],[4.678258,46.32763],[4.678516,46.327781],[4.678608,46.327823],[4.678693,46.32786],[4.678794,46.3279],[4.678987,46.327973],[4.679211,46.328062],[4.679372,46.328121],[4.679403,46.328119],[4.679426,46.328107],[4.679455,46.328085],[4.67951,46.328047],[4.679686,46.327925],[4.67979,46.327855],[4.679833,46.327807],[4.679841,46.327767],[4.679848,46.327656],[4.679809,46.327566],[4.679761,46.327492],[4.679678,46.327421],[4.679569,46.327337],[4.679472,46.327276]]],[[[4.680154,46.328308],[4.680076,46.328224],[4.680021,46.328166],[4.679945,46.328082],[4.679857,46.327996],[4.679777,46.327917],[4.679763,46.327915],[4.679634,46.328],[4.679427,46.328143],[4.679729,46.328307],[4.679784,46.328337],[4.680181,46.328566],[4.680402,46.328707],[4.680503,46.328776],[4.680512,46.328774],[4.680523,46.328758],[4.680498,46.328656],[4.680489,46.328622],[4.680391,46.328483],[4.680274,46.328391],[4.680154,46.328308]]],[[[4.678973,46.328905],[4.678596,46.328598],[4.678596,46.328597],[4.678516,46.328537],[4.678746,46.328481],[4.678869,46.328444],[4.678972,46.328411],[4.67908,46.328352],[4.679235,46.328261],[4.679312,46.328214],[4.679201,46.328174],[4.678944,46.328096],[4.678745,46.32801],[4.678467,46.327894],[4.678356,46.327848],[4.678296,46.32782],[4.678212,46.327777],[4.678181,46.327758],[4.678099,46.327697],[4.678039,46.32765],[4.677959,46.327581],[4.677749,46.327392],[4.677684,46.327325],[4.677609,46.327257],[4.677525,46.327195],[4.677499,46.327183],[4.677477,46.327175],[4.677428,46.327167],[4.677376,46.32716],[4.677189,46.327151],[4.677055,46.327355],[4.676942,46.327519],[4.676997,46.327532],[4.676983,46.327606],[4.67711,46.327606],[4.677207,46.327606],[4.676744,46.327907],[4.676949,46.328002],[4.676981,46.328088],[4.677025,46.328208],[4.677049,46.328273],[4.677063,46.328311],[4.677079,46.328389],[4.677104,46.328488],[4.677155,46.328699],[4.677188,46.328879],[4.677208,46.328984],[4.677214,46.329133],[4.677219,46.329288],[4.677216,46.329335],[4.677196,46.329509],[4.677593,46.329508],[4.678193,46.329506],[4.678233,46.329491],[4.678436,46.32948],[4.678487,46.329622],[4.678528,46.329737],[4.678884,46.329703],[4.679222,46.329675],[4.679332,46.3296],[4.679349,46.329586],[4.679362,46.329568],[4.67937,46.329544],[4.679376,46.329395],[4.679378,46.329362],[4.679375,46.329317],[4.679345,46.329265],[4.67924,46.329161],[4.679012,46.328942],[4.678973,46.328905]]],[[[4.679719,46.328429],[4.679607,46.328368],[4.679377,46.328244],[4.679345,46.328232],[4.679311,46.32825],[4.679224,46.328306],[4.679093,46.32839],[4.678933,46.32846],[4.67886,46.328488],[4.67879,46.328514],[4.67873,46.328533],[4.678649,46.328554],[4.678644,46.328562],[4.678652,46.328582],[4.678664,46.328597],[4.678809,46.328719],[4.678852,46.328757],[4.678964,46.328853],[4.679035,46.328911],[4.679064,46.328937],[4.679102,46.32897],[4.679248,46.329119],[4.679345,46.329216],[4.679427,46.329281],[4.679456,46.329303],[4.679502,46.329331],[4.67955,46.329356],[4.679663,46.329392],[4.680088,46.329447],[4.680108,46.329449],[4.68012,46.32945],[4.680223,46.329458],[4.680442,46.329469],[4.680452,46.32947],[4.680483,46.329472],[4.680498,46.329468],[4.680505,46.329456],[4.68051,46.329434],[4.680539,46.329211],[4.680541,46.329194],[4.680548,46.329127],[4.680568,46.328962],[4.680571,46.328937],[4.680558,46.328923],[4.680284,46.328751],[4.680042,46.328618],[4.679796,46.328471],[4.679719,46.328429]]],[[[4.683871,46.330521],[4.683864,46.330479],[4.683853,46.330414],[4.683847,46.330383],[4.683834,46.330365],[4.683829,46.330345],[4.683686,46.330002],[4.683652,46.329919],[4.683632,46.329873],[4.683578,46.32979],[4.683425,46.329628],[4.683385,46.329585],[4.683277,46.32947],[4.683225,46.329415],[4.683175,46.329368],[4.682971,46.329199],[4.682734,46.328997],[4.682686,46.328943],[4.682684,46.328942],[4.682629,46.328876],[4.682568,46.328761],[4.682506,46.328532],[4.682484,46.328438],[4.682432,46.328221],[4.68241,46.32813],[4.682342,46.327843],[4.682315,46.327733],[4.682242,46.327434],[4.682109,46.326991],[4.682036,46.326784],[4.681964,46.326599],[4.681898,46.326536],[4.681797,46.326474],[4.681728,46.326449],[4.681535,46.32639],[4.68124,46.326309],[4.680974,46.326242],[4.680945,46.326263],[4.680904,46.326314],[4.680897,46.326336],[4.680871,46.326409],[4.680951,46.326424],[4.680997,46.326431],[4.681264,46.32648],[4.681337,46.326732],[4.681072,46.326788],[4.680875,46.326831],[4.680904,46.326999],[4.680933,46.327219],[4.68095,46.327337],[4.680927,46.327459],[4.680892,46.32767],[4.680881,46.327736],[4.680902,46.327731],[4.680913,46.32775],[4.680917,46.327809],[4.680903,46.327812],[4.68094,46.327877],[4.680865,46.327898],[4.680867,46.327902],[4.680832,46.327912],[4.680759,46.327931],[4.680771,46.327954],[4.680672,46.327995],[4.680723,46.328064],[4.680797,46.328165],[4.680888,46.328288],[4.680847,46.328299],[4.680636,46.328354],[4.680623,46.328321],[4.680582,46.32833],[4.68037,46.328378],[4.680375,46.328388],[4.68049,46.32853],[4.680548,46.328614],[4.680574,46.328671],[4.680587,46.328756],[4.680598,46.328834],[4.680656,46.328891],[4.680915,46.329069],[4.680969,46.329111],[4.681062,46.329208],[4.681163,46.329363],[4.681198,46.329439],[4.681234,46.329516],[4.681272,46.329607],[4.681326,46.329739],[4.681369,46.329833],[4.681425,46.329974],[4.681528,46.330217],[4.681557,46.330294],[4.681709,46.33059],[4.681848,46.330812],[4.681879,46.330864],[4.681985,46.331023],[4.682075,46.33115],[4.682107,46.331195],[4.682145,46.331235],[4.682205,46.331296],[4.682244,46.331325],[4.682276,46.331347],[4.682312,46.331365],[4.682362,46.331386],[4.682437,46.331412],[4.682976,46.331561],[4.683276,46.331643],[4.683432,46.331683],[4.683474,46.331691],[4.683595,46.331712],[4.683573,46.331666],[4.683538,46.331673],[4.683507,46.33161],[4.683542,46.331603],[4.68354,46.331599],[4.683517,46.331605],[4.683504,46.331579],[4.683528,46.331573],[4.683523,46.331564],[4.683519,46.331522],[4.683507,46.331416],[4.683895,46.331396],[4.68391,46.331203],[4.683901,46.331032],[4.683894,46.33091],[4.68389,46.330846],[4.68389,46.330819],[4.68388,46.330603],[4.683871,46.330521]]],[[[4.683798,46.331908],[4.683796,46.331908],[4.683726,46.331872],[4.683621,46.331829],[4.683482,46.331779],[4.683378,46.331747],[4.683075,46.331669],[4.683027,46.331656],[4.682826,46.331605],[4.682339,46.331479],[4.682293,46.331465],[4.682225,46.331428],[4.682154,46.331385],[4.682091,46.331342],[4.68204,46.331303],[4.682014,46.331279],[4.681953,46.331223],[4.681854,46.331073],[4.681745,46.330872],[4.681688,46.330793],[4.681669,46.330768],[4.681608,46.330682],[4.681542,46.330569],[4.68142,46.33024],[4.68142,46.330239],[4.681398,46.330186],[4.681393,46.330173],[4.681383,46.33014],[4.681368,46.330104],[4.681262,46.329842],[4.681105,46.329465],[4.681081,46.329403],[4.681066,46.329373],[4.680981,46.329252],[4.680946,46.329216],[4.680871,46.329147],[4.680754,46.329059],[4.68062,46.328969],[4.680608,46.32898],[4.680603,46.32899],[4.680578,46.329152],[4.680528,46.329493],[4.68053,46.329518],[4.680422,46.329507],[4.680365,46.329501],[4.680091,46.329478],[4.679968,46.329463],[4.679786,46.329437],[4.679746,46.329431],[4.679694,46.329426],[4.679451,46.329397],[4.679438,46.329398],[4.679428,46.329407],[4.67943,46.329435],[4.679445,46.329489],[4.67944,46.329527],[4.679424,46.329558],[4.679411,46.329577],[4.679389,46.329597],[4.679351,46.329629],[4.679196,46.329749],[4.679075,46.329838],[4.678969,46.32992],[4.678956,46.329935],[4.678949,46.329951],[4.678949,46.329971],[4.678969,46.330071],[4.678986,46.330158],[4.678998,46.330363],[4.678999,46.33042],[4.678986,46.330521],[4.67898,46.330575],[4.678971,46.330622],[4.678939,46.33072],[4.678907,46.330794],[4.678876,46.33086],[4.678852,46.330931],[4.678849,46.330962],[4.678841,46.331094],[4.678836,46.331228],[4.678824,46.331303],[4.678916,46.331464],[4.679004,46.331616],[4.679235,46.332055],[4.679258,46.33208],[4.679276,46.332095],[4.679291,46.332114],[4.679344,46.332195],[4.679437,46.332336],[4.679452,46.332361],[4.679507,46.332465],[4.679538,46.332563],[4.679577,46.332692],[4.679584,46.332709],[4.679735,46.332699],[4.679925,46.332686],[4.680051,46.332678],[4.680183,46.332668],[4.680304,46.332657],[4.680401,46.332647],[4.68047,46.332639],[4.680514,46.332625],[4.680589,46.332586],[4.680656,46.332549],[4.680701,46.332533],[4.68088,46.332493],[4.680914,46.332487],[4.680966,46.332479],[4.681211,46.332428],[4.681549,46.33233],[4.68166,46.33233],[4.681767,46.332332],[4.681884,46.33234],[4.681888,46.332352],[4.681898,46.332362],[4.681915,46.332366],[4.681944,46.332365],[4.681968,46.332364],[4.6824,46.332313],[4.682898,46.332256],[4.683163,46.332225],[4.683159,46.332209],[4.683352,46.332184],[4.68362,46.33217],[4.683719,46.332164],[4.683774,46.332161],[4.683832,46.332158],[4.683842,46.332157],[4.683855,46.332157],[4.683978,46.332163],[4.683881,46.331985],[4.683857,46.331951],[4.683844,46.331942],[4.683825,46.331924],[4.683819,46.331919],[4.683798,46.331908]]],[[[4.679932,46.333994],[4.679873,46.333868],[4.679862,46.333843],[4.679851,46.333806],[4.679828,46.333746],[4.679811,46.333704],[4.679758,46.333589],[4.67972,46.333505],[4.679692,46.333447],[4.679685,46.33332],[4.679677,46.333137],[4.679667,46.333098],[4.679647,46.333042],[4.679611,46.332932],[4.679558,46.332828],[4.679542,46.332803],[4.679531,46.332779],[4.679446,46.33277],[4.679407,46.33277],[4.679325,46.332775],[4.679239,46.332782],[4.679016,46.332802],[4.679,46.332808],[4.678982,46.332814],[4.678957,46.332815],[4.678922,46.332809],[4.678901,46.332811],[4.678791,46.332825],[4.678681,46.332841],[4.678653,46.332847],[4.678473,46.3329],[4.678296,46.332957],[4.678155,46.333007],[4.678063,46.33304],[4.677981,46.333072],[4.677834,46.333126],[4.677736,46.333165],[4.677735,46.333188],[4.677736,46.333301],[4.677728,46.333424],[4.677742,46.333424],[4.677771,46.333451],[4.677815,46.333481],[4.677887,46.333527],[4.677925,46.333547],[4.677967,46.333566],[4.678016,46.333577],[4.678081,46.333586],[4.678153,46.333595],[4.678226,46.333605],[4.678362,46.333623],[4.678429,46.333632],[4.678481,46.333637],[4.678553,46.333643],[4.678589,46.333645],[4.678627,46.333649],[4.678663,46.333654],[4.678726,46.333664],[4.678733,46.333691],[4.678757,46.333699],[4.678771,46.333708],[4.678779,46.333702],[4.678825,46.333648],[4.67886,46.333646],[4.67921,46.333645],[4.679294,46.333645],[4.679294,46.333636],[4.679307,46.333636],[4.679307,46.333645],[4.679348,46.333645],[4.679388,46.33379],[4.679423,46.333918],[4.679266,46.333936],[4.679297,46.334068],[4.679258,46.334198],[4.679174,46.334195],[4.679172,46.334208],[4.679172,46.334341],[4.679236,46.334355],[4.679304,46.334371],[4.679477,46.334412],[4.679544,46.334426],[4.679653,46.334448],[4.679691,46.334457],[4.679792,46.334486],[4.679936,46.334527],[4.679986,46.334532],[4.680022,46.334533],[4.680044,46.33453],[4.680057,46.334523],[4.680069,46.334514],[4.680074,46.3345],[4.68006,46.334382],[4.680044,46.334281],[4.680035,46.334252],[4.679999,46.334155],[4.679932,46.333994]]],[[[4.6829,46.332471],[4.682888,46.332304],[4.682616,46.332334],[4.6822,46.33238],[4.681916,46.332409],[4.681861,46.332404],[4.681845,46.332399],[4.681809,46.332379],[4.681789,46.332371],[4.681763,46.33237],[4.681617,46.332376],[4.681582,46.33238],[4.68153,46.332388],[4.681244,46.33245],[4.681174,46.332465],[4.681001,46.332505],[4.680795,46.332553],[4.680707,46.332575],[4.680664,46.33259],[4.680586,46.332631],[4.680511,46.332669],[4.680472,46.332676],[4.680387,46.332685],[4.680194,46.3327],[4.679915,46.332717],[4.679825,46.332723],[4.679753,46.332731],[4.679697,46.332736],[4.679669,46.332745],[4.679638,46.33276],[4.679625,46.332769],[4.679618,46.332781],[4.679613,46.332803],[4.679618,46.332822],[4.679635,46.332877],[4.679665,46.332964],[4.679678,46.332999],[4.679723,46.333109],[4.679727,46.333141],[4.679728,46.333191],[4.679731,46.333285],[4.679734,46.33334],[4.679744,46.333399],[4.679747,46.333422],[4.679754,46.333439],[4.679763,46.333467],[4.679807,46.333574],[4.679831,46.333638],[4.679871,46.333743],[4.679879,46.333764],[4.67994,46.333915],[4.679954,46.333951],[4.680012,46.334079],[4.680039,46.334143],[4.680087,46.334265],[4.680106,46.334401],[4.680118,46.334498],[4.68012,46.334519],[4.680117,46.334593],[4.680118,46.334627],[4.680132,46.33467],[4.680321,46.33485],[4.680432,46.334957],[4.680453,46.334966],[4.680472,46.334968],[4.680503,46.334968],[4.680525,46.334966],[4.680562,46.334957],[4.680674,46.334922],[4.680794,46.334885],[4.680829,46.334874],[4.680861,46.334866],[4.68093,46.334852],[4.680967,46.334845],[4.681035,46.334838],[4.681105,46.334832],[4.681183,46.334826],[4.681226,46.334821],[4.681273,46.334812],[4.681302,46.334807],[4.68134,46.334789],[4.681362,46.334778],[4.681416,46.334737],[4.681455,46.334687],[4.68152,46.334591],[4.681535,46.334571],[4.681568,46.334528],[4.68166,46.334406],[4.681688,46.334366],[4.681714,46.334321],[4.681725,46.334302],[4.681744,46.334265],[4.681768,46.334221],[4.681811,46.334137],[4.681832,46.334054],[4.681838,46.334011],[4.681839,46.333904],[4.68184,46.33379],[4.68184,46.33367],[4.68184,46.333628],[4.681849,46.333548],[4.68191,46.333515],[4.682262,46.333345],[4.682483,46.333244],[4.682607,46.333201],[4.682778,46.333145],[4.682953,46.333094],[4.683037,46.333069],[4.683135,46.333043],[4.683185,46.333031],[4.683314,46.332985],[4.683396,46.332954],[4.68337,46.332764],[4.683346,46.332615],[4.682916,46.332633],[4.682909,46.332553],[4.6829,46.332471]]],[[[4.681515,46.334971],[4.681346,46.334899],[4.681312,46.334884],[4.681278,46.33487],[4.681242,46.334864],[4.681203,46.334861],[4.681144,46.334861],[4.681106,46.334863],[4.681043,46.334869],[4.680909,46.334893],[4.680865,46.334901],[4.680838,46.334909],[4.680683,46.334955],[4.680583,46.334995],[4.680565,46.335003],[4.680521,46.335011],[4.680462,46.335024],[4.680411,46.335037],[4.680357,46.335058],[4.680319,46.335083],[4.680306,46.335094],[4.680294,46.335114],[4.680284,46.335135],[4.68028,46.335167],[4.680288,46.335189],[4.680296,46.335205],[4.680304,46.335216],[4.680324,46.335237],[4.680344,46.335255],[4.680365,46.335271],[4.680482,46.335345],[4.680559,46.335389],[4.680607,46.335412],[4.680684,46.335446],[4.680774,46.335484],[4.680997,46.335568],[4.681034,46.335583],[4.681097,46.335622],[4.681118,46.335638],[4.681193,46.335725],[4.681251,46.335796],[4.681259,46.335806],[4.681325,46.33588],[4.681377,46.335935],[4.681396,46.335952],[4.681421,46.335972],[4.681463,46.336002],[4.681633,46.336128],[4.681731,46.336221],[4.681846,46.336132],[4.682051,46.335977],[4.682126,46.335921],[4.682267,46.335814],[4.682282,46.33582],[4.682453,46.335709],[4.682881,46.335433],[4.682642,46.33535],[4.682465,46.335287],[4.682292,46.33523],[4.681569,46.334992],[4.681515,46.334971]]],[[[4.681206,46.335847],[4.681183,46.335822],[4.681144,46.335774],[4.681075,46.335679],[4.681037,46.335648],[4.681004,46.335626],[4.680908,46.335583],[4.680617,46.335463],[4.680539,46.335425],[4.680362,46.335332],[4.680319,46.335319],[4.68016,46.335295],[4.680143,46.335297],[4.680136,46.3353],[4.680056,46.335355],[4.680032,46.335381],[4.680005,46.335414],[4.679988,46.335437],[4.679928,46.335554],[4.67985,46.335707],[4.679831,46.335728],[4.679794,46.335764],[4.67971,46.335851],[4.679688,46.335871],[4.679655,46.335894],[4.679597,46.335936],[4.679358,46.336109],[4.679395,46.336157],[4.679499,46.336303],[4.67958,46.336413],[4.679616,46.336462],[4.679656,46.336516],[4.67971,46.336587],[4.67972,46.3366],[4.679735,46.336617],[4.67975,46.33663],[4.679759,46.336635],[4.679772,46.336642],[4.679802,46.336654],[4.679835,46.336665],[4.679856,46.336669],[4.679897,46.336673],[4.679912,46.336674],[4.67993,46.336674],[4.679962,46.336671],[4.680147,46.336625],[4.680455,46.336575],[4.680583,46.336561],[4.680651,46.336554],[4.680632,46.336528],[4.680686,46.336511],[4.680703,46.336535],[4.680799,46.336491],[4.680878,46.336454],[4.681076,46.336366],[4.681217,46.336307],[4.681402,46.336228],[4.681581,46.336148],[4.68149,46.336083],[4.681391,46.336012],[4.681342,46.335976],[4.681229,46.33587],[4.681206,46.335847]]],[[[4.683672,46.337746],[4.683668,46.337676],[4.683668,46.337666],[4.683667,46.337622],[4.683609,46.337625],[4.683419,46.337636],[4.683354,46.33764],[4.683361,46.337478],[4.683439,46.337469],[4.683432,46.337439],[4.683431,46.337432],[4.683226,46.337455],[4.683179,46.337461],[4.683139,46.337461],[4.683091,46.337457],[4.683028,46.337451],[4.682811,46.337427],[4.682753,46.337422],[4.682598,46.337417],[4.682566,46.337414],[4.682546,46.337412],[4.682515,46.337404],[4.682466,46.337387],[4.682388,46.337449],[4.682348,46.33748],[4.682289,46.337531],[4.68227,46.337554],[4.682259,46.337574],[4.682249,46.337596],[4.682266,46.337597],[4.682142,46.337845],[4.68211,46.337893],[4.68207,46.337955],[4.68205,46.337983],[4.682009,46.338034],[4.681913,46.338154],[4.681806,46.338292],[4.681805,46.338294],[4.68176,46.338342],[4.681728,46.338374],[4.681714,46.338376],[4.681701,46.33838],[4.68169,46.338386],[4.68168,46.338396],[4.681663,46.338423],[4.68159,46.338549],[4.681535,46.338642],[4.681477,46.338628],[4.681306,46.338828],[4.681696,46.338933],[4.681817,46.338966],[4.682072,46.339035],[4.682169,46.339061],[4.682236,46.33908],[4.682556,46.339166],[4.682635,46.339187],[4.682684,46.339201],[4.682938,46.339269],[4.683069,46.339231],[4.683095,46.339181],[4.683105,46.339156],[4.68311,46.339134],[4.682978,46.339104],[4.682971,46.339098],[4.682974,46.339089],[4.682981,46.339086],[4.683118,46.339115],[4.68332,46.33873],[4.683342,46.338686],[4.683282,46.338585],[4.683228,46.338571],[4.68325,46.338517],[4.68297,46.33847],[4.683043,46.338256],[4.683048,46.33824],[4.683085,46.338132],[4.683097,46.338093],[4.683569,46.338137],[4.683671,46.337956],[4.68367,46.337931],[4.683734,46.337932],[4.683688,46.337929],[4.683651,46.337929],[4.683642,46.337925],[4.68365,46.337851],[4.68366,46.3378],[4.683672,46.337746]]],[[[4.682927,46.325912],[4.682727,46.325935],[4.682548,46.325949],[4.682378,46.325955],[4.682331,46.325967],[4.682273,46.325978],[4.682164,46.326006],[4.68203,46.326047],[4.68183,46.326058],[4.681765,46.326056],[4.681729,46.326049],[4.68161,46.325998],[4.681493,46.325942],[4.681421,46.325953],[4.681356,46.325968],[4.681242,46.326041],[4.681039,46.326185],[4.681645,46.32635],[4.681727,46.326378],[4.681783,46.3264],[4.681883,46.326445],[4.681926,46.326469],[4.682011,46.326529],[4.682049,46.326575],[4.682062,46.326599],[4.682127,46.326769],[4.6822,46.32698],[4.682278,46.327201],[4.682314,46.327306],[4.682347,46.327422],[4.682387,46.327595],[4.682454,46.327877],[4.682521,46.32816],[4.682505,46.32816],[4.682562,46.328376],[4.682587,46.328469],[4.68265,46.328714],[4.682676,46.328767],[4.682724,46.328845],[4.682849,46.328988],[4.683096,46.329198],[4.683353,46.329406],[4.683375,46.329399],[4.683234,46.329128],[4.683204,46.329065],[4.683154,46.328968],[4.68316,46.328963],[4.683187,46.328655],[4.683211,46.328388],[4.683215,46.328358],[4.683218,46.328318],[4.683227,46.32817],[4.68323,46.328126],[4.683239,46.327985],[4.683239,46.327835],[4.683238,46.327725],[4.683226,46.327562],[4.68318,46.327289],[4.68317,46.327192],[4.683189,46.327124],[4.683242,46.327022],[4.683234,46.327019],[4.683269,46.326843],[4.683273,46.326807],[4.683294,46.326654],[4.683289,46.326552],[4.683307,46.326549],[4.683298,46.326518],[4.68319,46.326305],[4.683151,46.326249],[4.683102,46.326182],[4.682927,46.325912]]],[[[4.686753,46.328848],[4.686597,46.328836],[4.686401,46.328836],[4.686229,46.328841],[4.68606,46.328854],[4.685907,46.328873],[4.685842,46.328884],[4.685729,46.328905],[4.685605,46.328932],[4.685053,46.329047],[4.683546,46.329375],[4.683564,46.329401],[4.683666,46.329604],[4.683735,46.329736],[4.683785,46.329822],[4.68381,46.329866],[4.683885,46.330039],[4.683923,46.33013],[4.683977,46.330311],[4.684149,46.3303],[4.684302,46.330288],[4.6846,46.330265],[4.684871,46.330248],[4.685098,46.330239],[4.685336,46.330223],[4.685656,46.330203],[4.685844,46.330192],[4.685837,46.330144],[4.685811,46.329972],[4.685787,46.329809],[4.685784,46.329789],[4.685801,46.329759],[4.685829,46.329743],[4.685907,46.329735],[4.685958,46.329484],[4.685995,46.329448],[4.686034,46.329423],[4.686006,46.329383],[4.686084,46.329348],[4.686319,46.329232],[4.686345,46.329226],[4.686508,46.329194],[4.686721,46.329158],[4.686825,46.32914],[4.687001,46.329119],[4.687059,46.32912],[4.687182,46.32913],[4.687295,46.329156],[4.687627,46.32923],[4.68764,46.329201],[4.687327,46.329056],[4.687162,46.328978],[4.687031,46.328921],[4.686925,46.328882],[4.686753,46.328848]]],[[[4.686113,46.3306],[4.685724,46.330524],[4.68569,46.330517],[4.68555,46.330455],[4.685453,46.33034],[4.685408,46.330312],[4.685284,46.330294],[4.684651,46.33035],[4.684048,46.330368],[4.683946,46.330458],[4.683961,46.330564],[4.683973,46.330704],[4.683979,46.330836],[4.683981,46.330879],[4.683985,46.330949],[4.683995,46.331138],[4.683996,46.331308],[4.684011,46.331308],[4.684101,46.331309],[4.684102,46.33138],[4.684105,46.331384],[4.684134,46.331439],[4.684152,46.33147],[4.684153,46.331472],[4.684351,46.331439],[4.684354,46.331446],[4.684376,46.331488],[4.684378,46.331488],[4.684594,46.331403],[4.685417,46.331086],[4.68543,46.331081],[4.685748,46.330955],[4.686107,46.330817],[4.686183,46.330787],[4.686368,46.330717],[4.686324,46.33064],[4.686214,46.330619],[4.686163,46.330636],[4.686159,46.330608],[4.686113,46.3306]]],[[[4.688888,46.331594],[4.688475,46.331068],[4.688319,46.330858],[4.688008,46.330433],[4.687923,46.330295],[4.687904,46.330271],[4.687891,46.33023],[4.687868,46.330089],[4.687786,46.329932],[4.687756,46.329874],[4.68743,46.329242],[4.68725,46.329198],[4.687209,46.329191],[4.687188,46.329192],[4.687168,46.329203],[4.687155,46.329223],[4.687163,46.329249],[4.687209,46.32935],[4.687195,46.329356],[4.687252,46.329731],[4.687245,46.329847],[4.687247,46.329906],[4.687258,46.329959],[4.687303,46.330084],[4.687324,46.330142],[4.687314,46.330148],[4.68728,46.330172],[4.687034,46.330351],[4.686888,46.330467],[4.686703,46.33062],[4.686665,46.330651],[4.686576,46.330688],[4.686511,46.330714],[4.686129,46.33086],[4.685359,46.331156],[4.684872,46.331346],[4.68451,46.331486],[4.684423,46.33152],[4.68443,46.331611],[4.684403,46.331735],[4.684375,46.331742],[4.684166,46.33179],[4.684097,46.331806],[4.6841,46.331814],[4.684234,46.332084],[4.684251,46.332117],[4.684278,46.332168],[4.684326,46.332263],[4.684345,46.332301],[4.684419,46.332443],[4.684803,46.332416],[4.68483,46.332413],[4.684886,46.332411],[4.684987,46.332404],[4.685015,46.332401],[4.685092,46.332412],[4.685409,46.332451],[4.685415,46.332434],[4.685466,46.332441],[4.685465,46.332444],[4.68548,46.332446],[4.685476,46.332461],[4.685473,46.33247],[4.685464,46.332509],[4.685738,46.332581],[4.685733,46.332612],[4.685731,46.332634],[4.685728,46.332653],[4.685851,46.332658],[4.685942,46.332653],[4.686122,46.332645],[4.686185,46.332642],[4.686604,46.332639],[4.686662,46.332639],[4.686703,46.332639],[4.686802,46.332643],[4.687001,46.332651],[4.687022,46.332666],[4.687267,46.332553],[4.687283,46.332546],[4.687374,46.332502],[4.687451,46.332467],[4.687587,46.332403],[4.687607,46.332447],[4.687574,46.332463],[4.687068,46.332695],[4.687128,46.332696],[4.687221,46.3327],[4.687319,46.332705],[4.687493,46.332712],[4.687605,46.332718],[4.687663,46.332712],[4.687696,46.332709],[4.687711,46.332707],[4.687922,46.332703],[4.688002,46.332703],[4.688018,46.332702],[4.688227,46.3327],[4.688318,46.332688],[4.688593,46.332652],[4.688639,46.332644],[4.688771,46.332621],[4.688835,46.33261],[4.688917,46.332595],[4.688979,46.332584],[4.689278,46.332531],[4.689286,46.332485],[4.689284,46.332393],[4.68927,46.33222],[4.689234,46.33211],[4.689187,46.331975],[4.689045,46.331793],[4.688965,46.331692],[4.688888,46.331594]]],[[[4.683877,46.332219],[4.683889,46.332423],[4.683901,46.332591],[4.683901,46.332593],[4.683397,46.332612],[4.68342,46.332773],[4.683435,46.332876],[4.683444,46.332885],[4.683459,46.332888],[4.683518,46.332887],[4.683577,46.332882],[4.683623,46.332861],[4.683682,46.332832],[4.683722,46.332811],[4.68378,46.33277],[4.683807,46.332747],[4.683846,46.332707],[4.683906,46.332643],[4.683947,46.332623],[4.684028,46.332589],[4.684114,46.332566],[4.684189,46.332548],[4.684251,46.332534],[4.684004,46.332245],[4.683985,46.332232],[4.68397,46.332224],[4.683937,46.332219],[4.683877,46.332219]]],[[[4.683804,46.332836],[4.68364,46.332912],[4.683493,46.332976],[4.683255,46.333061],[4.683179,46.333083],[4.683047,46.333114],[4.682792,46.333185],[4.682709,46.333209],[4.682487,46.333292],[4.682429,46.333318],[4.682017,46.333528],[4.681976,46.333553],[4.681959,46.333569],[4.681943,46.33359],[4.681917,46.333642],[4.681903,46.333672],[4.681893,46.333695],[4.68189,46.333723],[4.681889,46.333795],[4.681884,46.334025],[4.681881,46.334044],[4.681871,46.334081],[4.681858,46.334132],[4.681834,46.334198],[4.681771,46.33432],[4.681749,46.334355],[4.681729,46.334382],[4.681665,46.334459],[4.681625,46.334514],[4.681605,46.334546],[4.681528,46.334667],[4.681483,46.334726],[4.681435,46.334771],[4.681331,46.334868],[4.681329,46.334877],[4.681429,46.334917],[4.681494,46.334943],[4.681577,46.334977],[4.681898,46.335083],[4.68217,46.33517],[4.682263,46.335201],[4.682349,46.335231],[4.682519,46.335288],[4.682579,46.335309],[4.682597,46.335315],[4.682797,46.335387],[4.682897,46.33542],[4.683089,46.335488],[4.683195,46.335526],[4.683267,46.335549],[4.683289,46.335555],[4.683294,46.335536],[4.683305,46.335489],[4.683322,46.33544],[4.683335,46.335411],[4.683387,46.335332],[4.683417,46.335298],[4.683461,46.335254],[4.6835,46.335218],[4.683521,46.335198],[4.683548,46.335167],[4.683581,46.335124],[4.683605,46.33509],[4.68362,46.335064],[4.683631,46.33504],[4.683653,46.334988],[4.683667,46.334944],[4.683685,46.33486],[4.683698,46.334798],[4.683705,46.334751],[4.683716,46.334672],[4.683736,46.334497],[4.683767,46.334309],[4.683795,46.334117],[4.683831,46.334001],[4.683862,46.333911],[4.683876,46.333869],[4.683967,46.333658],[4.683988,46.33362],[4.684009,46.333591],[4.68405,46.333537],[4.684036,46.333415],[4.684028,46.333265],[4.684026,46.333248],[4.684022,46.333238],[4.683945,46.333099],[4.683804,46.332836]]],[[[4.693867,46.334653],[4.693852,46.33464],[4.693832,46.334613],[4.693751,46.334503],[4.69372,46.33446],[4.693712,46.334451],[4.693705,46.334449],[4.693693,46.334456],[4.693428,46.334649],[4.693215,46.334803],[4.693182,46.334829],[4.693155,46.334854],[4.693132,46.334877],[4.693036,46.334858],[4.693041,46.334851],[4.693094,46.334802],[4.693123,46.334785],[4.693157,46.334805],[4.693174,46.334798],[4.69325,46.334741],[4.693564,46.334513],[4.693685,46.334423],[4.693689,46.334415],[4.69369,46.334405],[4.693633,46.334322],[4.693567,46.334232],[4.693547,46.334204],[4.693533,46.334191],[4.693515,46.334178],[4.693429,46.334129],[4.693318,46.334068],[4.693251,46.334037],[4.693119,46.333984],[4.693007,46.333939],[4.692819,46.333877],[4.692766,46.333978],[4.692585,46.334014],[4.692397,46.334049],[4.692413,46.333965],[4.692416,46.333936],[4.692422,46.33385],[4.692412,46.33383],[4.692368,46.333839],[4.692249,46.333862],[4.692094,46.333889],[4.692006,46.333902],[4.691709,46.33394],[4.691574,46.333955],[4.69116,46.333996],[4.691075,46.334006],[4.690968,46.334018],[4.690893,46.334026],[4.690852,46.334032],[4.69085,46.334038],[4.69084,46.334143],[4.690833,46.334229],[4.690831,46.33427],[4.690825,46.33435],[4.690809,46.334384],[4.690759,46.334468],[4.690672,46.334606],[4.690631,46.334669],[4.69062,46.334694],[4.690616,46.334714],[4.690617,46.334733],[4.69062,46.334752],[4.690634,46.33477],[4.690651,46.334783],[4.69067,46.334795],[4.690709,46.33482],[4.690833,46.33491],[4.690868,46.334932],[4.690925,46.334965],[4.690968,46.334992],[4.690987,46.335005],[4.690996,46.335016],[4.690998,46.335057],[4.691001,46.3352],[4.690998,46.335295],[4.690985,46.335573],[4.69098,46.335641],[4.69095,46.335838],[4.690949,46.335934],[4.690951,46.336017],[4.690964,46.336099],[4.690971,46.336129],[4.690981,46.336147],[4.69099,46.336157],[4.691002,46.336164],[4.691018,46.336168],[4.691055,46.336172],[4.691136,46.336175],[4.691392,46.336186],[4.691448,46.336186],[4.691661,46.33617],[4.691756,46.33616],[4.691775,46.336159],[4.692338,46.336183],[4.692439,46.336188],[4.692561,46.336194],[4.692638,46.33621],[4.692781,46.336244],[4.69285,46.336263],[4.693034,46.336328],[4.693243,46.336401],[4.693248,46.336381],[4.693283,46.33617],[4.693292,46.336146],[4.693315,46.336119],[4.693469,46.335934],[4.693509,46.335882],[4.693543,46.335837],[4.693747,46.335529],[4.693857,46.335364],[4.693964,46.335209],[4.694206,46.334855],[4.694162,46.334832],[4.694113,46.334805],[4.694012,46.334742],[4.69394,46.334698],[4.693867,46.334653]],[[4.693798,46.334664],[4.693814,46.33464],[4.693847,46.334651],[4.693831,46.334674],[4.693798,46.334664]]],[[[4.689269,46.335328],[4.689236,46.335304],[4.689198,46.335288],[4.689121,46.335269],[4.689035,46.335247],[4.688755,46.335184],[4.688761,46.335233],[4.688777,46.335349],[4.688786,46.335421],[4.688815,46.335633],[4.688358,46.335704],[4.687773,46.335846],[4.687677,46.335663],[4.687589,46.335528],[4.687584,46.335529],[4.687416,46.335583],[4.687388,46.335538],[4.687,46.33566],[4.686962,46.33567],[4.686766,46.335749],[4.686591,46.335819],[4.686598,46.335828],[4.686749,46.336039],[4.686898,46.33625],[4.686939,46.33623],[4.687044,46.336182],[4.687096,46.336157],[4.68722,46.336117],[4.687241,46.336108],[4.687337,46.336061],[4.687493,46.33601],[4.687568,46.33599],[4.68766,46.335966],[4.687718,46.335955],[4.687768,46.33595],[4.687848,46.335943],[4.687907,46.335938],[4.687955,46.335933],[4.687965,46.336012],[4.68819,46.336022],[4.688375,46.336052],[4.688682,46.336041],[4.688751,46.336011],[4.688851,46.335902],[4.688858,46.335939],[4.688864,46.335945],[4.68894,46.335866],[4.689026,46.33579],[4.689077,46.335744],[4.689139,46.335672],[4.689179,46.335625],[4.689236,46.335542],[4.689271,46.335495],[4.689301,46.33546],[4.689308,46.335448],[4.689312,46.335431],[4.689311,46.335416],[4.689303,46.335383],[4.689294,46.335361],[4.689284,46.335346],[4.689269,46.335328]]],[[[4.684733,46.335746],[4.684486,46.33588],[4.684367,46.335943],[4.684323,46.336045],[4.684368,46.336138],[4.684421,46.336256],[4.684564,46.33657],[4.685449,46.336201],[4.685469,46.33617],[4.685359,46.33603],[4.685202,46.335828],[4.685016,46.335593],[4.684799,46.335711],[4.684733,46.335746]]],[[[4.684585,46.336826],[4.684571,46.336794],[4.684489,46.33662],[4.684437,46.336508],[4.68441,46.336447],[4.684384,46.336385],[4.684322,46.336247],[4.6843,46.336201],[4.684237,46.336064],[4.684217,46.336025],[4.684015,46.336132],[4.683675,46.336316],[4.683212,46.336563],[4.683042,46.336633],[4.683308,46.336789],[4.683346,46.336888],[4.683569,46.336839],[4.683704,46.337061],[4.683923,46.337075],[4.684001,46.337083],[4.684105,46.337096],[4.684197,46.337114],[4.684231,46.337114],[4.684263,46.337111],[4.684318,46.337102],[4.684384,46.33709],[4.684514,46.337063],[4.684587,46.337045],[4.684658,46.337027],[4.684665,46.337023],[4.684668,46.33702],[4.684669,46.337014],[4.684667,46.337009],[4.684664,46.337005],[4.684658,46.337003],[4.684652,46.337001],[4.684644,46.336957],[4.684585,46.336826]]],[[[4.693201,46.33801],[4.693151,46.337968],[4.693087,46.337913],[4.693013,46.337829],[4.692796,46.337513],[4.692765,46.337469],[4.692738,46.337432],[4.69268,46.337366],[4.69255,46.337218],[4.692481,46.337145],[4.692425,46.337091],[4.692373,46.337046],[4.692263,46.336955],[4.691896,46.336646],[4.691878,46.336637],[4.691836,46.336623],[4.691787,46.336612],[4.691746,46.336607],[4.691663,46.336602],[4.691539,46.336603],[4.691312,46.336609],[4.691232,46.336606],[4.691139,46.336598],[4.691123,46.336595],[4.691115,46.336578],[4.691036,46.33638],[4.690968,46.336203],[4.690931,46.336108],[4.690905,46.335907],[4.690912,46.335753],[4.690917,46.335703],[4.690923,46.335627],[4.690933,46.33557],[4.690949,46.335398],[4.690957,46.335201],[4.690962,46.335076],[4.690955,46.335036],[4.690944,46.33502],[4.690929,46.335001],[4.690912,46.334986],[4.690702,46.334856],[4.69062,46.334803],[4.690608,46.334799],[4.69058,46.334799],[4.69055,46.334807],[4.690528,46.334814],[4.690493,46.334832],[4.690382,46.334906],[4.690316,46.334946],[4.690276,46.334969],[4.690232,46.334993],[4.690177,46.33502],[4.690114,46.335045],[4.690079,46.335061],[4.690058,46.335081],[4.690054,46.335094],[4.690038,46.335166],[4.690016,46.335287],[4.690001,46.33533],[4.689772,46.335886],[4.689737,46.335968],[4.689703,46.336058],[4.689657,46.336205],[4.689652,46.336236],[4.689601,46.336519],[4.6896,46.33653],[4.689594,46.336576],[4.689593,46.336731],[4.689595,46.336769],[4.689603,46.33684],[4.689611,46.336865],[4.68962,46.33689],[4.689631,46.336924],[4.689645,46.336952],[4.689675,46.337005],[4.689704,46.337041],[4.689739,46.337075],[4.689769,46.337099],[4.689807,46.337128],[4.689852,46.337155],[4.689904,46.337181],[4.689958,46.337201],[4.689998,46.337214],[4.690056,46.337227],[4.69012,46.33724],[4.6902,46.337253],[4.690328,46.337273],[4.690532,46.337299],[4.690907,46.337349],[4.691152,46.337381],[4.691325,46.337404],[4.691429,46.337418],[4.691584,46.337445],[4.691725,46.337474],[4.692072,46.337558],[4.692137,46.337574],[4.692262,46.337616],[4.692337,46.337646],[4.692366,46.337661],[4.692394,46.337678],[4.692433,46.337703],[4.692483,46.337743],[4.6925,46.337758],[4.69254,46.3378],[4.692693,46.337977],[4.692705,46.337988],[4.692731,46.338014],[4.692762,46.338042],[4.6928,46.338076],[4.692838,46.338104],[4.692871,46.338125],[4.692925,46.338155],[4.692996,46.33819],[4.69307,46.338219],[4.693145,46.338246],[4.693425,46.338338],[4.693476,46.338354],[4.693542,46.338383],[4.693597,46.338416],[4.693641,46.338401],[4.693534,46.338276],[4.693493,46.338231],[4.693468,46.338208],[4.693429,46.338177],[4.693201,46.33801]]],[[[4.693103,46.337074],[4.693114,46.336964],[4.693142,46.336769],[4.693163,46.336678],[4.6932,46.336528],[4.69321,46.336488],[4.693226,46.336441],[4.693158,46.336413],[4.692975,46.336334],[4.692863,46.336288],[4.692824,46.336276],[4.692757,46.33626],[4.692667,46.336239],[4.6926,46.336225],[4.692421,46.336209],[4.692394,46.336208],[4.69235,46.336204],[4.6923,46.336202],[4.692247,46.336201],[4.692171,46.336201],[4.692111,46.3362],[4.691841,46.33619],[4.691795,46.336188],[4.691748,46.336191],[4.691561,46.336203],[4.691493,46.336209],[4.691437,46.336215],[4.691366,46.336214],[4.691176,46.336208],[4.691086,46.336205],[4.691031,46.336205],[4.691009,46.336206],[4.691012,46.336224],[4.691024,46.336279],[4.691029,46.336298],[4.691053,46.336347],[4.691099,46.336453],[4.691117,46.336499],[4.691129,46.336525],[4.691145,46.336544],[4.691157,46.336557],[4.691174,46.336571],[4.691218,46.336578],[4.691271,46.336586],[4.69132,46.336587],[4.691407,46.336587],[4.691484,46.336582],[4.691537,46.336581],[4.691649,46.336582],[4.691713,46.336584],[4.691792,46.336591],[4.691822,46.336596],[4.691852,46.336602],[4.691892,46.336615],[4.691909,46.336622],[4.691931,46.336637],[4.69202,46.336711],[4.692386,46.33702],[4.692463,46.337089],[4.692486,46.33711],[4.692561,46.33719],[4.69275,46.337403],[4.69303,46.337809],[4.693045,46.337831],[4.693086,46.337876],[4.69313,46.337917],[4.693182,46.337961],[4.693205,46.337978],[4.693291,46.33804],[4.69334,46.338074],[4.693398,46.338117],[4.693414,46.33811],[4.69343,46.338072],[4.69345,46.338036],[4.693471,46.338006],[4.693523,46.337961],[4.693595,46.337917],[4.693402,46.337682],[4.693272,46.337529],[4.693169,46.337412],[4.693075,46.337317],[4.693073,46.337308],[4.693103,46.337074]]],[[[4.688791,46.337759],[4.688677,46.337606],[4.688565,46.33746],[4.688525,46.337235],[4.688511,46.33702],[4.688512,46.337008],[4.68851,46.33697],[4.688506,46.336957],[4.688499,46.336879],[4.688507,46.336746],[4.68851,46.336707],[4.688515,46.336669],[4.688519,46.336648],[4.688535,46.33654],[4.68854,46.336513],[4.688594,46.33627],[4.688625,46.336169],[4.688623,46.336164],[4.688616,46.336156],[4.688602,46.336147],[4.688575,46.336139],[4.688553,46.336137],[4.688513,46.336137],[4.688412,46.336141],[4.688251,46.336138],[4.688138,46.336127],[4.688073,46.336122],[4.687926,46.336117],[4.687872,46.336116],[4.687731,46.336121],[4.687691,46.336124],[4.687539,46.336151],[4.687448,46.336178],[4.687391,46.336196],[4.687357,46.33621],[4.687325,46.336223],[4.687274,46.336241],[4.687239,46.336255],[4.687191,46.336277],[4.687162,46.336291],[4.687114,46.336315],[4.68704,46.336357],[4.686882,46.336448],[4.686827,46.336483],[4.686787,46.336508],[4.686727,46.336534],[4.686593,46.336591],[4.686598,46.336606],[4.68659,46.33662],[4.686577,46.336629],[4.686562,46.336636],[4.686573,46.336654],[4.6866,46.336702],[4.686644,46.336795],[4.686655,46.336825],[4.686665,46.33686],[4.686693,46.336973],[4.686694,46.336988],[4.686688,46.337025],[4.686674,46.337096],[4.686654,46.337182],[4.686625,46.337293],[4.686617,46.337314],[4.686575,46.33738],[4.686548,46.337433],[4.686516,46.337529],[4.6865,46.337674],[4.686503,46.337729],[4.686502,46.337749],[4.686506,46.33777],[4.686465,46.337789],[4.686426,46.337832],[4.686404,46.337727],[4.686369,46.337685],[4.686311,46.337632],[4.686117,46.337546],[4.685765,46.337392],[4.685792,46.337346],[4.6858,46.337331],[4.685924,46.337173],[4.685933,46.337149],[4.685961,46.337055],[4.685965,46.337034],[4.685963,46.336915],[4.685922,46.336928],[4.685741,46.336988],[4.685418,46.337096],[4.685284,46.337141],[4.68525,46.337152],[4.685132,46.337191],[4.685095,46.337201],[4.684945,46.337249],[4.684885,46.337269],[4.68462,46.337354],[4.684588,46.337366],[4.684622,46.337443],[4.684652,46.337433],[4.684666,46.33746],[4.684636,46.337471],[4.684692,46.337582],[4.684713,46.33762],[4.684738,46.337669],[4.684744,46.337681],[4.68483,46.337654],[4.684917,46.337798],[4.68488,46.337814],[4.684984,46.337963],[4.68498,46.337966],[4.684738,46.3381],[4.684668,46.33805],[4.6846,46.338093],[4.684586,46.338105],[4.68452,46.338158],[4.684451,46.338212],[4.684358,46.338284],[4.684369,46.338288],[4.684276,46.338373],[4.684243,46.338403],[4.684224,46.33842],[4.684487,46.33852],[4.684557,46.338548],[4.684673,46.338583],[4.684689,46.338586],[4.68471,46.338587],[4.684726,46.338585],[4.684751,46.338581],[4.68477,46.338575],[4.684818,46.338552],[4.684895,46.338512],[4.685017,46.338449],[4.685136,46.338385],[4.685353,46.338286],[4.685443,46.338244],[4.685497,46.33821],[4.685508,46.338208],[4.685691,46.338187],[4.685826,46.338165],[4.685858,46.338159],[4.685922,46.338136],[4.685947,46.338126],[4.686295,46.337979],[4.686364,46.337953],[4.686444,46.337925],[4.686453,46.337922],[4.686511,46.337905],[4.686573,46.33789],[4.686636,46.337877],[4.686697,46.337867],[4.686736,46.337866],[4.686774,46.337867],[4.686823,46.337871],[4.68697,46.337889],[4.687056,46.337903],[4.687116,46.337914],[4.687217,46.337931],[4.687263,46.337935],[4.687336,46.33794],[4.68752,46.337949],[4.688161,46.337977],[4.688683,46.337999],[4.688814,46.338004],[4.688964,46.338006],[4.689128,46.338015],[4.688943,46.33788],[4.688927,46.33787],[4.688818,46.337787],[4.688803,46.337772],[4.688791,46.337759]]],[[[4.694792,46.339795],[4.69476,46.339755],[4.694653,46.339637],[4.694283,46.339227],[4.694032,46.338955],[4.693977,46.338895],[4.693871,46.338778],[4.693783,46.33868],[4.693757,46.33865],[4.693702,46.338589],[4.693683,46.33857],[4.693626,46.338524],[4.693579,46.338489],[4.693531,46.338459],[4.693483,46.338434],[4.693445,46.338418],[4.693285,46.338369],[4.693177,46.338335],[4.693046,46.338291],[4.693001,46.338275],[4.692886,46.338223],[4.692862,46.33821],[4.69277,46.338153],[4.692716,46.338111],[4.692657,46.338051],[4.692618,46.33801],[4.692516,46.337887],[4.69247,46.337834],[4.692439,46.337806],[4.692397,46.337769],[4.692371,46.337751],[4.692341,46.337732],[4.692293,46.337708],[4.692224,46.337677],[4.692129,46.337646],[4.69205,46.337625],[4.69187,46.337579],[4.691661,46.337529],[4.691576,46.33751],[4.691506,46.337497],[4.691395,46.337477],[4.691148,46.337445],[4.690863,46.337408],[4.690121,46.337307],[4.690099,46.337303],[4.690059,46.337295],[4.690009,46.337284],[4.68996,46.33727],[4.689893,46.337247],[4.68981,46.337213],[4.689751,46.337178],[4.68973,46.337163],[4.689692,46.337133],[4.689666,46.337113],[4.689639,46.337087],[4.689595,46.337036],[4.689559,46.33698],[4.689543,46.336954],[4.68954,46.336945],[4.68952,46.336876],[4.689504,46.336781],[4.689495,46.336737],[4.689497,46.336654],[4.689505,46.336557],[4.689535,46.336343],[4.689553,46.336247],[4.689555,46.336231],[4.689601,46.336083],[4.689618,46.336027],[4.689667,46.335892],[4.689729,46.335737],[4.689753,46.335681],[4.689771,46.335639],[4.689804,46.335561],[4.689924,46.335273],[4.689828,46.335263],[4.689643,46.335244],[4.689548,46.335235],[4.689505,46.335287],[4.689317,46.335511],[4.68927,46.33557],[4.689246,46.335601],[4.689238,46.335611],[4.689165,46.335692],[4.689132,46.335727],[4.689067,46.3358],[4.689035,46.335834],[4.688949,46.335924],[4.688909,46.335966],[4.688829,46.336052],[4.688732,46.336159],[4.688689,46.33624],[4.688654,46.336309],[4.688649,46.336326],[4.688632,46.336478],[4.688618,46.33656],[4.68858,46.336807],[4.688571,46.336857],[4.688568,46.336888],[4.688572,46.336922],[4.68859,46.337003],[4.688605,46.337051],[4.688611,46.337069],[4.688613,46.33708],[4.688612,46.337134],[4.688611,46.337142],[4.688625,46.337184],[4.688648,46.337237],[4.688623,46.337245],[4.688607,46.337259],[4.688603,46.337279],[4.688602,46.337299],[4.688611,46.33733],[4.688658,46.337427],[4.688702,46.337504],[4.688784,46.337632],[4.688858,46.337741],[4.6889,46.337798],[4.688935,46.337837],[4.688959,46.337856],[4.689012,46.337891],[4.689036,46.337901],[4.689117,46.337923],[4.689224,46.337949],[4.689221,46.337966],[4.689227,46.337999],[4.689242,46.33805],[4.689247,46.338058],[4.689258,46.338068],[4.689279,46.338085],[4.689309,46.338105],[4.689342,46.338126],[4.689371,46.338142],[4.689415,46.338162],[4.689478,46.338189],[4.689807,46.338313],[4.689844,46.338328],[4.689961,46.338377],[4.689989,46.338398],[4.690137,46.338503],[4.69019,46.338539],[4.690333,46.338626],[4.69039,46.338662],[4.690497,46.338735],[4.690628,46.338821],[4.690694,46.338871],[4.690814,46.338963],[4.69085,46.338997],[4.690869,46.339018],[4.690881,46.339026],[4.690896,46.339031],[4.690924,46.339034],[4.690943,46.339071],[4.690926,46.339074],[4.690921,46.33908],[4.690917,46.339089],[4.690919,46.339109],[4.690928,46.339163],[4.690989,46.339484],[4.69099,46.339513],[4.690992,46.33958],[4.690983,46.339773],[4.690974,46.339801],[4.69096,46.339831],[4.690917,46.339913],[4.690902,46.339945],[4.690888,46.339983],[4.69088,46.34001],[4.690877,46.340048],[4.690875,46.340081],[4.690873,46.340124],[4.690876,46.340194],[4.690884,46.340229],[4.690905,46.340303],[4.690923,46.340349],[4.690945,46.340395],[4.691011,46.340526],[4.691075,46.340647],[4.691088,46.340661],[4.691198,46.340759],[4.691371,46.340909],[4.691441,46.340967],[4.691521,46.341031],[4.691572,46.341069],[4.691722,46.341168],[4.691876,46.34126],[4.692187,46.341413],[4.692311,46.341483],[4.692388,46.341523],[4.692642,46.34164],[4.69304,46.340968],[4.693148,46.340781],[4.693132,46.340772],[4.692637,46.340557],[4.692501,46.340499],[4.69248,46.340489],[4.69198,46.340177],[4.692183,46.340071],[4.692314,46.340012],[4.692435,46.33996],[4.692507,46.339958],[4.692839,46.339955],[4.692845,46.339795],[4.692904,46.339795],[4.693131,46.339793],[4.693808,46.339795],[4.693791,46.339913],[4.693793,46.339917],[4.693882,46.339939],[4.693999,46.339965],[4.693992,46.340064],[4.694115,46.340091],[4.694212,46.340116],[4.69444,46.340178],[4.694583,46.340177],[4.694989,46.340185],[4.694934,46.340047],[4.694901,46.339971],[4.694867,46.339902],[4.694849,46.339873],[4.694792,46.339795]]],[[[4.690816,46.339041],[4.690783,46.338999],[4.690742,46.338964],[4.690705,46.33894],[4.690641,46.338893],[4.690363,46.338709],[4.690193,46.338595],[4.690142,46.338563],[4.690044,46.338509],[4.690007,46.338486],[4.689921,46.338436],[4.689879,46.338411],[4.68978,46.338365],[4.689574,46.338275],[4.689418,46.33821],[4.689333,46.338177],[4.689248,46.338145],[4.68913,46.338098],[4.689084,46.338079],[4.689033,46.338062],[4.688986,46.338049],[4.688934,46.338037],[4.688902,46.338034],[4.688727,46.33803],[4.688334,46.338016],[4.687682,46.337991],[4.687603,46.337991],[4.687575,46.33801],[4.687552,46.338029],[4.687528,46.338054],[4.687497,46.338094],[4.68747,46.338145],[4.687454,46.338176],[4.687446,46.338184],[4.687359,46.338282],[4.687319,46.338324],[4.687188,46.33847],[4.687111,46.338567],[4.687131,46.338589],[4.687172,46.338627],[4.687196,46.338643],[4.687223,46.338654],[4.687259,46.338664],[4.687292,46.338674],[4.687303,46.338847],[4.687343,46.339033],[4.68734,46.339055],[4.687339,46.339198],[4.687345,46.339293],[4.687344,46.339361],[4.687342,46.339481],[4.687344,46.339494],[4.687353,46.339544],[4.687358,46.339568],[4.687362,46.339596],[4.687365,46.339602],[4.687369,46.339606],[4.687384,46.339611],[4.687405,46.339611],[4.687498,46.339607],[4.687608,46.339601],[4.687819,46.339594],[4.687928,46.339591],[4.6881,46.339584],[4.688291,46.339576],[4.688323,46.339575],[4.688338,46.339577],[4.688618,46.339629],[4.688581,46.3397],[4.688978,46.339777],[4.689168,46.339812],[4.689209,46.339801],[4.689248,46.339891],[4.689295,46.340007],[4.689321,46.340076],[4.689336,46.340114],[4.689387,46.340196],[4.689418,46.34025],[4.689435,46.34028],[4.689465,46.340336],[4.689484,46.340374],[4.689515,46.340443],[4.68953,46.340475],[4.689535,46.340496],[4.689545,46.340549],[4.689601,46.340619],[4.689692,46.340746],[4.690005,46.340624],[4.690607,46.34038],[4.690852,46.340306],[4.690849,46.340293],[4.690844,46.340266],[4.690833,46.340148],[4.690846,46.340014],[4.690852,46.339972],[4.690862,46.339939],[4.690884,46.339885],[4.690916,46.339818],[4.690931,46.339784],[4.690934,46.33976],[4.690935,46.339743],[4.690944,46.33959],[4.690943,46.339563],[4.690912,46.339331],[4.690905,46.339277],[4.690881,46.339178],[4.690864,46.339118],[4.690846,46.339086],[4.690816,46.339041]]],[[[4.686065,46.338215],[4.686064,46.338188],[4.686036,46.338127],[4.685963,46.338155],[4.685899,46.33818],[4.685845,46.338199],[4.685707,46.338236],[4.685679,46.338244],[4.685667,46.338265],[4.685657,46.338287],[4.685657,46.338301],[4.685659,46.338314],[4.685666,46.338333],[4.685668,46.338351],[4.685663,46.338401],[4.685656,46.338443],[4.685632,46.338522],[4.685607,46.338591],[4.685589,46.338627],[4.685536,46.338729],[4.685419,46.338989],[4.685385,46.339045],[4.685364,46.339085],[4.685356,46.339105],[4.685345,46.339145],[4.685332,46.339189],[4.685315,46.339224],[4.685304,46.339245],[4.685272,46.33929],[4.685213,46.339362],[4.685195,46.339388],[4.685157,46.339452],[4.685149,46.339473],[4.68513,46.339537],[4.685122,46.33957],[4.685102,46.339638],[4.685077,46.339717],[4.685057,46.339758],[4.685021,46.339822],[4.684942,46.339951],[4.684889,46.340039],[4.684807,46.340003],[4.684763,46.340012],[4.684654,46.34003],[4.684632,46.340036],[4.684613,46.340043],[4.684602,46.340052],[4.684593,46.340062],[4.68458,46.340098],[4.684532,46.340194],[4.684474,46.340304],[4.684439,46.340363],[4.684388,46.340437],[4.68436,46.340486],[4.684353,46.340513],[4.684342,46.340578],[4.68433,46.340627],[4.684294,46.340728],[4.684273,46.340777],[4.684228,46.340764],[4.684235,46.340741],[4.684261,46.340683],[4.684271,46.340653],[4.684288,46.340594],[4.684302,46.340528],[4.684309,46.340513],[4.684379,46.340382],[4.684401,46.340332],[4.684433,46.340265],[4.684487,46.340168],[4.684541,46.34008],[4.684567,46.34004],[4.684593,46.340011],[4.684605,46.34],[4.684624,46.339995],[4.684671,46.339991],[4.684709,46.339991],[4.684733,46.339988],[4.684763,46.339983],[4.684801,46.339972],[4.684832,46.339963],[4.68487,46.339945],[4.684884,46.339931],[4.684896,46.33992],[4.684934,46.339869],[4.684951,46.339839],[4.684978,46.339775],[4.684988,46.339749],[4.684996,46.33973],[4.685041,46.33967],[4.685064,46.339626],[4.685074,46.339583],[4.685091,46.339505],[4.6851,46.339473],[4.685118,46.339433],[4.685132,46.33941],[4.685158,46.339371],[4.685189,46.33933],[4.685219,46.339294],[4.685239,46.339265],[4.685254,46.339236],[4.685297,46.339106],[4.685305,46.339086],[4.685329,46.339043],[4.685371,46.338972],[4.685398,46.338931],[4.685419,46.3389],[4.685469,46.338785],[4.685506,46.338713],[4.685554,46.338626],[4.685566,46.338593],[4.685594,46.338497],[4.68561,46.338454],[4.685624,46.338412],[4.685636,46.338283],[4.685633,46.338268],[4.685628,46.338259],[4.685614,46.338247],[4.685594,46.338242],[4.685576,46.338243],[4.685561,46.338248],[4.685362,46.338331],[4.685305,46.338357],[4.685274,46.338373],[4.685206,46.338401],[4.685162,46.338421],[4.685133,46.338436],[4.684878,46.338567],[4.684818,46.338597],[4.684805,46.338603],[4.684723,46.338625],[4.684716,46.338626],[4.684509,46.338571],[4.684167,46.338437],[4.684138,46.338472],[4.684089,46.338453],[4.683984,46.33855],[4.683957,46.338573],[4.683916,46.338627],[4.683858,46.338702],[4.683915,46.338726],[4.683832,46.338855],[4.683548,46.338743],[4.683478,46.338816],[4.683485,46.338818],[4.683477,46.338835],[4.683462,46.338831],[4.683428,46.338888],[4.683297,46.338855],[4.6831,46.339262],[4.683098,46.339266],[4.683089,46.339287],[4.683001,46.339466],[4.682975,46.339514],[4.682899,46.339664],[4.682842,46.339772],[4.682801,46.339855],[4.682765,46.339927],[4.682718,46.340018],[4.682649,46.340158],[4.682665,46.340165],[4.682454,46.340634],[4.682473,46.34064],[4.682404,46.340787],[4.682326,46.34095],[4.682293,46.340941],[4.682235,46.341061],[4.682142,46.341253],[4.682015,46.341518],[4.681977,46.341586],[4.681955,46.34163],[4.681941,46.341679],[4.681936,46.341709],[4.681933,46.341737],[4.68193,46.341783],[4.681931,46.341816],[4.681933,46.341854],[4.681933,46.341893],[4.681934,46.341907],[4.681966,46.342098],[4.681974,46.342165],[4.681975,46.342197],[4.681974,46.342221],[4.681969,46.34224],[4.681961,46.342262],[4.681945,46.342294],[4.681923,46.342331],[4.681896,46.34237],[4.681844,46.342441],[4.681689,46.342652],[4.681667,46.34269],[4.681663,46.342701],[4.681662,46.342715],[4.681665,46.342724],[4.681676,46.342737],[4.681688,46.342749],[4.681751,46.342786],[4.681756,46.342797],[4.681756,46.342805],[4.681736,46.342835],[4.681689,46.342917],[4.681672,46.34295],[4.681637,46.343022],[4.681591,46.343141],[4.681581,46.3432],[4.681557,46.3433],[4.681529,46.343397],[4.68151,46.343534],[4.681492,46.343623],[4.681461,46.343762],[4.681425,46.343904],[4.681415,46.34394],[4.681351,46.344158],[4.681344,46.344175],[4.681251,46.344375],[4.681233,46.344421],[4.681173,46.344586],[4.681164,46.344619],[4.681157,46.344674],[4.681147,46.344791],[4.681148,46.344805],[4.681123,46.344804],[4.681123,46.344769],[4.681126,46.344737],[4.681137,46.344653],[4.681144,46.3446],[4.681166,46.344531],[4.681223,46.344361],[4.681234,46.344339],[4.681284,46.344236],[4.68131,46.344176],[4.681334,46.344091],[4.681379,46.343944],[4.681393,46.343904],[4.681413,46.343834],[4.681429,46.343769],[4.681443,46.343701],[4.681452,46.34365],[4.681487,46.343443],[4.68149,46.343425],[4.681498,46.343385],[4.68151,46.343344],[4.68153,46.343265],[4.681551,46.343183],[4.681571,46.343104],[4.681596,46.343037],[4.681637,46.342956],[4.681707,46.342827],[4.681703,46.342814],[4.681699,46.342807],[4.681607,46.342751],[4.681601,46.342739],[4.681603,46.342728],[4.68166,46.342645],[4.681764,46.342495],[4.681835,46.342392],[4.68189,46.342307],[4.681909,46.342271],[4.681927,46.342217],[4.681932,46.342193],[4.681933,46.34218],[4.681931,46.342123],[4.681924,46.342065],[4.681899,46.341943],[4.681896,46.341879],[4.6819,46.341835],[4.681908,46.341742],[4.681924,46.341635],[4.681932,46.341601],[4.681966,46.34153],[4.681994,46.341477],[4.682008,46.341447],[4.682054,46.341352],[4.682095,46.341263],[4.682174,46.341087],[4.682259,46.340913],[4.682304,46.340815],[4.6824,46.34061],[4.682538,46.340321],[4.682587,46.340222],[4.682694,46.339995],[4.682738,46.339901],[4.682885,46.339611],[4.682938,46.339505],[4.683024,46.339327],[4.682392,46.339157],[4.682115,46.339084],[4.682029,46.33906],[4.681711,46.338976],[4.681578,46.339206],[4.681797,46.339283],[4.68171,46.339431],[4.681649,46.339413],[4.681643,46.339424],[4.68155,46.339596],[4.681494,46.33967],[4.681483,46.339684],[4.681374,46.339651],[4.681292,46.339756],[4.681185,46.339724],[4.681171,46.339752],[4.681154,46.339773],[4.681061,46.33986],[4.681045,46.339926],[4.681037,46.339964],[4.681015,46.340068],[4.680781,46.34003],[4.680756,46.34018],[4.680745,46.340236],[4.680738,46.340257],[4.680713,46.340328],[4.680667,46.340455],[4.680631,46.340541],[4.680532,46.34077],[4.680531,46.340779],[4.680528,46.340808],[4.680524,46.340852],[4.680525,46.34092],[4.680526,46.340957],[4.68053,46.340973],[4.680542,46.341026],[4.680553,46.341074],[4.680586,46.341188],[4.680603,46.341233],[4.680612,46.341266],[4.680618,46.341299],[4.680616,46.341344],[4.680607,46.34147],[4.680602,46.341546],[4.680595,46.34157],[4.680582,46.341611],[4.680569,46.341642],[4.680556,46.341675],[4.680525,46.341736],[4.680521,46.341749],[4.680514,46.34177],[4.680482,46.341761],[4.680549,46.34159],[4.680555,46.341566],[4.680565,46.341513],[4.680578,46.341403],[4.68058,46.341365],[4.680579,46.341326],[4.680575,46.341286],[4.680566,46.341241],[4.680541,46.341148],[4.680518,46.341083],[4.680498,46.34101],[4.680481,46.340932],[4.680446,46.340924],[4.680393,46.341048],[4.68037,46.341109],[4.680354,46.341177],[4.680326,46.341448],[4.680315,46.341493],[4.680302,46.341533],[4.680288,46.341563],[4.680278,46.341579],[4.680257,46.341607],[4.680229,46.341642],[4.680197,46.341677],[4.680107,46.341775],[4.680073,46.34182],[4.680058,46.341844],[4.679996,46.341961],[4.679907,46.342137],[4.679743,46.342512],[4.679687,46.342634],[4.679653,46.342701],[4.679498,46.343024],[4.67941,46.343207],[4.67939,46.343251],[4.67933,46.343387],[4.679164,46.343793],[4.679158,46.343815],[4.679152,46.343834],[4.679146,46.343878],[4.679146,46.343906],[4.679147,46.343934],[4.67915,46.343947],[4.679162,46.343971],[4.679246,46.344084],[4.679272,46.344126],[4.679325,46.344225],[4.679347,46.344275],[4.679424,46.344449],[4.679446,46.344443],[4.679473,46.344519],[4.679483,46.344558],[4.679498,46.344629],[4.679442,46.344605],[4.679421,46.344653],[4.679408,46.3447],[4.679407,46.344713],[4.679407,46.344743],[4.679411,46.344765],[4.679476,46.344971],[4.679499,46.345028],[4.679506,46.345058],[4.67952,46.345133],[4.679604,46.345648],[4.679673,46.346178],[4.679678,46.346213],[4.679696,46.346261],[4.679716,46.346298],[4.679737,46.346327],[4.67976,46.346359],[4.67979,46.34639],[4.679817,46.346416],[4.67988,46.346469],[4.679905,46.346487],[4.679977,46.346533],[4.680027,46.34657],[4.680073,46.346611],[4.680438,46.34658],[4.680453,46.346699],[4.68052,46.346695],[4.680521,46.346704],[4.680563,46.346708],[4.680582,46.34681],[4.680596,46.346885],[4.680671,46.346879],[4.680711,46.346875],[4.680716,46.346886],[4.680894,46.346886],[4.681002,46.346886],[4.68138,46.346888],[4.681531,46.34689],[4.681669,46.34689],[4.681799,46.346892],[4.681823,46.346891],[4.681948,46.346884],[4.682054,46.34688],[4.682237,46.346875],[4.682291,46.346868],[4.682281,46.346819],[4.682269,46.346803],[4.682227,46.346419],[4.682253,46.346238],[4.682263,46.346173],[4.682272,46.346137],[4.682412,46.345711],[4.682469,46.345586],[4.682532,46.34545],[4.682596,46.345307],[4.682646,46.345196],[4.68269,46.345091],[4.682715,46.344988],[4.682755,46.34482],[4.682872,46.344646],[4.682687,46.344625],[4.682748,46.344493],[4.682781,46.344496],[4.682653,46.344374],[4.682684,46.344338],[4.682604,46.344289],[4.682603,46.344284],[4.682633,46.344245],[4.68284,46.344285],[4.682881,46.344217],[4.682891,46.344208],[4.683011,46.344131],[4.683059,46.344098],[4.683086,46.344077],[4.683105,46.344059],[4.683118,46.344036],[4.683147,46.343948],[4.683171,46.34387],[4.683171,46.34386],[4.683178,46.343793],[4.683184,46.3437],[4.683195,46.343588],[4.683199,46.343565],[4.683228,46.343449],[4.683222,46.343402],[4.683218,46.343371],[4.683206,46.34332],[4.683191,46.343317],[4.68324,46.343223],[4.683206,46.343215],[4.683209,46.343121],[4.683212,46.342985],[4.683603,46.343134],[4.683638,46.343069],[4.683673,46.342999],[4.683712,46.342894],[4.683736,46.342831],[4.683754,46.342769],[4.683789,46.342661],[4.683812,46.342584],[4.683829,46.342553],[4.683878,46.342569],[4.683926,46.342433],[4.68395,46.342362],[4.684014,46.342184],[4.684101,46.341936],[4.684156,46.341781],[4.684189,46.341687],[4.684213,46.34161],[4.684228,46.34157],[4.684282,46.341449],[4.684354,46.341309],[4.68456,46.341395],[4.684506,46.341461],[4.684469,46.341501],[4.684493,46.341508],[4.684524,46.341516],[4.684542,46.341518],[4.68457,46.341517],[4.684594,46.341515],[4.684627,46.341508],[4.684657,46.341501],[4.684677,46.341491],[4.684689,46.341484],[4.684707,46.341464],[4.684748,46.34141],[4.684809,46.34136],[4.684989,46.341223],[4.685083,46.341154],[4.685051,46.341137],[4.685069,46.341095],[4.68511,46.340987],[4.685125,46.340959],[4.685138,46.340944],[4.685157,46.340927],[4.685183,46.340909],[4.685223,46.340866],[4.685261,46.34084],[4.685278,46.340822],[4.685286,46.340808],[4.6853,46.340776],[4.685324,46.34079],[4.685339,46.340795],[4.685365,46.3408],[4.685385,46.340799],[4.685405,46.340796],[4.685423,46.340792],[4.685431,46.340786],[4.685443,46.340772],[4.685445,46.340759],[4.685443,46.340714],[4.685444,46.340681],[4.685436,46.340649],[4.685417,46.340614],[4.685405,46.340583],[4.685398,46.340566],[4.685386,46.340517],[4.68538,46.340498],[4.68536,46.340464],[4.685242,46.340447],[4.685258,46.340426],[4.685231,46.340416],[4.685195,46.340401],[4.685268,46.340304],[4.685343,46.340225],[4.685468,46.340101],[4.685503,46.340052],[4.685555,46.339968],[4.685612,46.339894],[4.685653,46.339838],[4.685706,46.339784],[4.685725,46.339741],[4.685743,46.339682],[4.685762,46.3396],[4.685814,46.339461],[4.685834,46.339405],[4.685847,46.339366],[4.68589,46.339236],[4.685913,46.339166],[4.685926,46.339128],[4.685941,46.339088],[4.685968,46.339007],[4.686003,46.33892],[4.686023,46.338862],[4.686038,46.338826],[4.686089,46.338696],[4.686138,46.338571],[4.686168,46.338498],[4.68621,46.338388],[4.686194,46.338383],[4.686143,46.338372],[4.686132,46.338373],[4.6861,46.338386],[4.686059,46.338396],[4.686065,46.338215]],[[4.67992,46.344661],[4.679982,46.344664],[4.679977,46.344693],[4.679915,46.34469],[4.67992,46.344661]]]]}},{"type":"Feature","id":"commune-71350","properties":{"id":"commune-71350","name":"Pierreclos","kind":"commune","tier":"commune"},"geometry":{"type":"MultiPolygon","coordinates":[[[[4.689112,46.316562],[4.688905,46.316602],[4.688871,46.316612],[4.688843,46.316617],[4.68736,46.316908],[4.686858,46.317006],[4.685881,46.31719],[4.684585,46.317218],[4.683768,46.317236],[4.683674,46.317234],[4.683344,46.317242],[4.682738,46.317258],[4.682658,46.317261],[4.681802,46.317281],[4.681692,46.317281],[4.681343,46.317287],[4.680841,46.317297],[4.680327,46.317308],[4.678378,46.317353],[4.678327,46.317356],[4.678294,46.317356],[4.677402,46.317366],[4.67724,46.317368],[4.677142,46.317378],[4.676228,46.317479],[4.676183,46.317483],[4.674974,46.317621],[4.674888,46.31763],[4.674307,46.317695],[4.674154,46.317712],[4.674121,46.317718],[4.67409,46.317727],[4.672352,46.317929],[4.672123,46.317955],[4.671892,46.317986],[4.671124,46.318194],[4.670972,46.318239],[4.670946,46.318245],[4.670921,46.318252],[4.669529,46.318629],[4.66898,46.318781],[4.668492,46.318914],[4.668251,46.318981],[4.668045,46.319031],[4.667246,46.319248],[4.666139,46.319547],[4.665798,46.319638],[4.665669,46.319675],[4.665143,46.319812],[4.664631,46.319949],[4.66401,46.320114],[4.663313,46.320152],[4.663032,46.320294],[4.662699,46.320459],[4.662437,46.320593],[4.662325,46.32065],[4.662074,46.320728],[4.661811,46.320828],[4.661577,46.320911],[4.661404,46.320976],[4.661314,46.321024],[4.661071,46.32116],[4.661036,46.321186],[4.660984,46.321236],[4.660922,46.321299],[4.660798,46.321421],[4.660779,46.321436],[4.660769,46.321378],[4.660747,46.32138],[4.660317,46.321473],[4.660145,46.321519],[4.660022,46.321563],[4.659855,46.321632],[4.659747,46.321685],[4.659635,46.321751],[4.659547,46.321813],[4.659494,46.321862],[4.659468,46.321916],[4.659346,46.322107],[4.659296,46.322163],[4.659268,46.322189],[4.659189,46.322261],[4.659045,46.322378],[4.658984,46.32242],[4.658945,46.322441],[4.658855,46.322448],[4.658656,46.322452],[4.658641,46.322445],[4.658503,46.322229],[4.658344,46.32202],[4.65832,46.321981],[4.658311,46.321964],[4.658306,46.321949],[4.658303,46.321917],[4.658315,46.321618],[4.658312,46.321463],[4.65829,46.321383],[4.658234,46.321205],[4.65822,46.32115],[4.658284,46.321062],[4.658351,46.320953],[4.658374,46.32086],[4.658246,46.320849],[4.65809,46.320852],[4.657776,46.320879],[4.657423,46.320886],[4.65719,46.320881],[4.656729,46.320852],[4.656526,46.320863],[4.656397,46.32086],[4.656085,46.320846],[4.656005,46.320849],[4.655948,46.320859],[4.655884,46.320878],[4.655844,46.320893],[4.655829,46.320904],[4.655824,46.320911],[4.655829,46.320975],[4.655825,46.321032],[4.655817,46.321066],[4.655797,46.321099],[4.65577,46.321126],[4.655671,46.321196],[4.655653,46.321212],[4.655469,46.321345],[4.655318,46.321461],[4.65525,46.321522],[4.655224,46.321556],[4.655194,46.321611],[4.655152,46.321694],[4.655085,46.321808],[4.655052,46.321856],[4.655029,46.321886],[4.65495,46.321966],[4.654941,46.321976],[4.654762,46.321902],[4.654629,46.321847],[4.654553,46.321809],[4.654472,46.321759],[4.6544,46.321707],[4.654342,46.321652],[4.654242,46.32155],[4.654204,46.321516],[4.654143,46.321473],[4.654037,46.321406],[4.653933,46.321331],[4.653762,46.321183],[4.65351,46.320959],[4.653434,46.320914],[4.653356,46.320879],[4.653271,46.320851],[4.653084,46.320798],[4.653019,46.320771],[4.652974,46.320747],[4.652887,46.320696],[4.652805,46.320646],[4.652468,46.320456],[4.652133,46.320266],[4.651968,46.320154],[4.651893,46.3201],[4.651841,46.320038],[4.651785,46.31996],[4.651735,46.319874],[4.651695,46.319794],[4.651665,46.319699],[4.651617,46.319489],[4.651581,46.319359],[4.651542,46.319299],[4.651454,46.319167],[4.651413,46.319137],[4.651386,46.319125],[4.651346,46.319122],[4.651241,46.319129],[4.651127,46.319128],[4.650975,46.319112],[4.650702,46.319074],[4.650641,46.319072],[4.650597,46.319079],[4.650418,46.319142],[4.650246,46.319127],[4.649849,46.319065],[4.649409,46.319022],[4.649124,46.319031],[4.648655,46.319031],[4.648469,46.319021],[4.647988,46.318939],[4.647694,46.318914],[4.647575,46.318904],[4.64708,46.318902],[4.646491,46.318922],[4.646018,46.318949],[4.644969,46.319085],[4.644368,46.319146],[4.644126,46.319168],[4.643511,46.319167],[4.643337,46.31918],[4.642725,46.319256],[4.642612,46.319272],[4.642498,46.319289],[4.641987,46.319335],[4.641847,46.31934],[4.641726,46.319332],[4.641651,46.319311],[4.641568,46.319261],[4.641164,46.318913],[4.640984,46.319274],[4.640872,46.31956],[4.640779,46.31985],[4.64072,46.320046],[4.640577,46.320695],[4.640543,46.320874],[4.640512,46.321107],[4.640481,46.321427],[4.640479,46.321517],[4.640482,46.32159],[4.640494,46.321689],[4.640522,46.321805],[4.640605,46.32209],[4.640634,46.322204],[4.640764,46.322661],[4.640812,46.322858],[4.640812,46.322875],[4.641331,46.32296],[4.641457,46.322986],[4.641634,46.323066],[4.641783,46.323142],[4.641826,46.323174],[4.641838,46.323207],[4.641856,46.323374],[4.641852,46.323463],[4.641832,46.323637],[4.641823,46.323826],[4.641824,46.323888],[4.641837,46.324033],[4.641847,46.324155],[4.641878,46.324507],[4.641896,46.324715],[4.641962,46.325007],[4.641981,46.32504],[4.64201,46.325072],[4.642043,46.325106],[4.642076,46.325156],[4.642096,46.325217],[4.64213,46.325343],[4.642138,46.325433],[4.642131,46.32549],[4.642107,46.325567],[4.642063,46.325657],[4.642016,46.325715],[4.641939,46.325795],[4.641883,46.325859],[4.641863,46.325895],[4.641845,46.325942],[4.641831,46.326015],[4.641816,46.326118],[4.641803,46.326165],[4.641815,46.326176],[4.642071,46.326412],[4.642209,46.326554],[4.642386,46.326744],[4.642484,46.326887],[4.642579,46.327012],[4.642697,46.327139],[4.642806,46.327249],[4.642802,46.32736],[4.642804,46.32739],[4.642813,46.327449],[4.64283,46.327506],[4.64289,46.327649],[4.642944,46.327793],[4.642966,46.327869],[4.64301,46.328125],[4.643025,46.328213],[4.643231,46.328199],[4.643221,46.328256],[4.643204,46.328307],[4.643177,46.32835],[4.643126,46.328423],[4.642969,46.328642],[4.642927,46.328719],[4.642905,46.328771],[4.642863,46.328894],[4.642826,46.32902],[4.642808,46.329158],[4.642796,46.329173],[4.64283,46.329201],[4.642858,46.329247],[4.642909,46.329382],[4.642976,46.329564],[4.642996,46.329654],[4.643006,46.329752],[4.643003,46.329827],[4.64299,46.329964],[4.642976,46.330067],[4.642978,46.330121],[4.642991,46.330164],[4.643014,46.3302],[4.643075,46.330282],[4.643133,46.330373],[4.643149,46.330425],[4.643149,46.330474],[4.643142,46.330554],[4.643132,46.330632],[4.643138,46.330684],[4.643158,46.330744],[4.643215,46.330886],[4.643265,46.331085],[4.643307,46.33129],[4.643331,46.331293],[4.643358,46.331372],[4.643372,46.331407],[4.643397,46.331443],[4.643426,46.331474],[4.643523,46.331565],[4.643609,46.331642],[4.643668,46.331682],[4.643713,46.331714],[4.643842,46.331794],[4.643995,46.331881],[4.644205,46.331996],[4.644244,46.332017],[4.644218,46.332074],[4.644211,46.332099],[4.644211,46.332124],[4.644217,46.332146],[4.644225,46.332163],[4.644256,46.332198],[4.644358,46.332282],[4.644534,46.332409],[4.644743,46.332567],[4.644839,46.33265],[4.644903,46.33271],[4.644982,46.332796],[4.645016,46.33284],[4.64505,46.332901],[4.645086,46.332984],[4.645123,46.333041],[4.645178,46.333113],[4.645238,46.333187],[4.645376,46.333363],[4.645502,46.333484],[4.645548,46.333531],[4.645577,46.333571],[4.645614,46.333636],[4.64566,46.33374],[4.645674,46.333788],[4.645678,46.333806],[4.645654,46.333821],[4.645684,46.333831],[4.645727,46.334028],[4.645772,46.334152],[4.645873,46.334342],[4.645936,46.33444],[4.645987,46.334526],[4.646016,46.334601],[4.646036,46.334679],[4.646052,46.33479],[4.646053,46.334857],[4.646051,46.334955],[4.646051,46.335044],[4.646098,46.335198],[4.646131,46.335336],[4.646178,46.335538],[4.646209,46.335651],[4.64628,46.335837],[4.646295,46.335891],[4.646305,46.335978],[4.646308,46.336065],[4.646306,46.336207],[4.646314,46.336244],[4.646341,46.336309],[4.646508,46.336632],[4.64659,46.336791],[4.646703,46.337026],[4.646725,46.337085],[4.64675,46.337188],[4.646784,46.337306],[4.646821,46.337418],[4.646871,46.337518],[4.646929,46.337646],[4.646949,46.337728],[4.646978,46.337966],[4.647005,46.338114],[4.647016,46.338217],[4.64704,46.338288],[4.647065,46.338349],[4.647094,46.338461],[4.647119,46.338602],[4.647128,46.338707],[4.647072,46.338706],[4.647048,46.338722],[4.64708,46.338736],[4.64717,46.33892],[4.647213,46.339073],[4.64725,46.3392],[4.647294,46.339333],[4.647335,46.339433],[4.647419,46.339612],[4.64754,46.339921],[4.647605,46.340047],[4.647707,46.340223],[4.64781,46.340373],[4.64785,46.340423],[4.647889,46.340471],[4.647955,46.340558],[4.648038,46.340656],[4.64805,46.340672],[4.648153,46.3408],[4.648193,46.340866],[4.648282,46.341021],[4.648356,46.34115],[4.648454,46.341312],[4.648523,46.341556],[4.648536,46.341618],[4.64857,46.341787],[4.648631,46.342008],[4.648644,46.342122],[4.648646,46.342245],[4.648637,46.342359],[4.64863,46.3424],[4.648501,46.342762],[4.648474,46.342873],[4.648444,46.343015],[4.648426,46.343162],[4.648418,46.343265],[4.648426,46.34335],[4.648428,46.343424],[4.648423,46.343475],[4.648404,46.343546],[4.648361,46.343634],[4.648396,46.343728],[4.648465,46.343843],[4.648519,46.34386],[4.648576,46.34388],[4.64866,46.34404],[4.648688,46.344081],[4.648785,46.344176],[4.649014,46.344409],[4.649106,46.344519],[4.649195,46.344634],[4.649298,46.344805],[4.649399,46.3449],[4.649553,46.345051],[4.649627,46.345163],[4.649823,46.345459],[4.650023,46.345762],[4.650147,46.345779],[4.650219,46.346159],[4.650258,46.34638],[4.650605,46.346156],[4.650628,46.346135],[4.650713,46.346038],[4.650835,46.345888],[4.650924,46.345792],[4.651012,46.345705],[4.651086,46.345635],[4.651118,46.345619],[4.651138,46.345613],[4.651179,46.345609],[4.651425,46.345606],[4.651572,46.345595],[4.651735,46.345564],[4.651773,46.345551],[4.65183,46.345531],[4.652097,46.34542],[4.652202,46.345404],[4.652886,46.345313],[4.653171,46.345269],[4.65329,46.345242],[4.653507,46.345193],[4.654205,46.345029],[4.65452,46.345223],[4.654706,46.345325],[4.654886,46.345403],[4.654921,46.34541],[4.655252,46.345397],[4.655317,46.345309],[4.655412,46.345461],[4.655457,46.345552],[4.65549,46.345632],[4.65554,46.345761],[4.655608,46.345911],[4.655635,46.345936],[4.655797,46.346107],[4.65615,46.346009],[4.656392,46.345925],[4.656548,46.345869],[4.656666,46.345823],[4.656672,46.345821],[4.657046,46.345982],[4.657168,46.346038],[4.657215,46.346065],[4.657274,46.346104],[4.657347,46.346205],[4.65742,46.346291],[4.657418,46.346319],[4.657888,46.34662],[4.657976,46.346663],[4.65808,46.346705],[4.65823,46.346772],[4.658318,46.346816],[4.658411,46.346865],[4.658543,46.346955],[4.658661,46.347043],[4.659122,46.347426],[4.659674,46.347867],[4.659865,46.348185],[4.660051,46.34848],[4.660243,46.348765],[4.660315,46.34889],[4.660419,46.349027],[4.66057,46.349169],[4.660623,46.349219],[4.660695,46.349314],[4.660737,46.349401],[4.66075,46.349455],[4.660751,46.3495],[4.660737,46.349562],[4.66071,46.349619],[4.660611,46.349778],[4.660456,46.349997],[4.660414,46.350066],[4.66038,46.350149],[4.660315,46.350312],[4.660244,46.350519],[4.660198,46.350632],[4.660148,46.350721],[4.660013,46.350946],[4.659978,46.351036],[4.659947,46.351133],[4.659934,46.351215],[4.659917,46.351341],[4.659875,46.351594],[4.659818,46.351842],[4.659778,46.351978],[4.659738,46.35205],[4.659715,46.352078],[4.659695,46.352097],[4.659706,46.352113],[4.659832,46.352288],[4.659956,46.352427],[4.660242,46.352205],[4.660699,46.351847],[4.661015,46.351609],[4.661104,46.351556],[4.661243,46.351497],[4.661448,46.351404],[4.661612,46.351308],[4.66175,46.351253],[4.662773,46.35086],[4.663117,46.350782],[4.66351,46.350686],[4.663683,46.350654],[4.663818,46.350637],[4.663921,46.350632],[4.664222,46.350619],[4.664336,46.350605],[4.664634,46.350562],[4.665071,46.350546],[4.665197,46.35053],[4.665345,46.350499],[4.665427,46.35048],[4.665501,46.350471],[4.665677,46.350459],[4.666157,46.35043],[4.666241,46.35046],[4.666402,46.350519],[4.666442,46.350537],[4.666489,46.350569],[4.666533,46.350602],[4.666597,46.350674],[4.666699,46.350807],[4.666853,46.351081],[4.666882,46.351104],[4.667143,46.351216],[4.667199,46.351236],[4.667248,46.351248],[4.667314,46.351258],[4.667394,46.351263],[4.667485,46.35126],[4.667567,46.351252],[4.667713,46.351222],[4.667812,46.351192],[4.667868,46.351169],[4.667925,46.351134],[4.668065,46.35103],[4.668264,46.350863],[4.668329,46.350791],[4.668453,46.350629],[4.668623,46.350358],[4.668648,46.350355],[4.669024,46.350298],[4.669088,46.35029],[4.669455,46.350232],[4.669873,46.35017],[4.670086,46.350138],[4.670232,46.350111],[4.670321,46.350083],[4.670406,46.350049],[4.670498,46.350008],[4.6706,46.349952],[4.670739,46.349857],[4.670854,46.349774],[4.670809,46.349748],[4.670854,46.349725],[4.671194,46.349612],[4.671599,46.349467],[4.671769,46.349456],[4.671903,46.349459],[4.672428,46.349507],[4.672632,46.349523],[4.672781,46.349521],[4.673119,46.349493],[4.673489,46.349453],[4.67366,46.349416],[4.673799,46.349383],[4.674013,46.34934],[4.674394,46.349229],[4.675036,46.349031],[4.675225,46.348978],[4.675368,46.348953],[4.67553,46.348935],[4.676124,46.348883],[4.676279,46.348855],[4.676363,46.348821],[4.676455,46.348756],[4.676498,46.348713],[4.676526,46.348655],[4.676544,46.348572],[4.676558,46.348497],[4.676566,46.348264],[4.676588,46.34816],[4.676615,46.348077],[4.676657,46.348008],[4.676804,46.347891],[4.676936,46.347792],[4.67703,46.347741],[4.67708,46.347718],[4.67715,46.347702],[4.677234,46.347695],[4.677345,46.347693],[4.677505,46.347706],[4.677666,46.347733],[4.677823,46.347768],[4.677963,46.347816],[4.678226,46.347916],[4.678464,46.348035],[4.678924,46.348253],[4.679068,46.348307],[4.679297,46.348373],[4.679318,46.34834],[4.679357,46.348257],[4.679368,46.348189],[4.679381,46.348047],[4.679393,46.347955],[4.679405,46.347922],[4.679455,46.347819],[4.679501,46.347729],[4.679686,46.347384],[4.679875,46.347034],[4.679898,46.347015],[4.679926,46.346993],[4.679937,46.346974],[4.679969,46.346972],[4.680002,46.346969],[4.680043,46.346963],[4.68011,46.346948],[4.680243,46.346917],[4.680597,46.346886],[4.680716,46.346887],[4.680895,46.346886],[4.681002,46.346886],[4.68138,46.346888],[4.68153,46.34689],[4.681669,46.34689],[4.681799,46.346892],[4.681823,46.346892],[4.681947,46.346885],[4.682054,46.34688],[4.682237,46.346875],[4.682292,46.346868],[4.682619,46.346861],[4.682792,46.346855],[4.682815,46.346849],[4.683091,46.346757],[4.683177,46.346592],[4.683464,46.346054],[4.683596,46.345804],[4.684023,46.344988],[4.68416,46.344723],[4.684594,46.343918],[4.684752,46.343628],[4.684926,46.343303],[4.684958,46.343246],[4.68535,46.342877],[4.685573,46.342665],[4.685867,46.342382],[4.686014,46.342244],[4.686368,46.341907],[4.68659,46.341697],[4.686896,46.341411],[4.687547,46.340787],[4.68756,46.340776],[4.687578,46.34077],[4.687602,46.340763],[4.687615,46.340761],[4.687647,46.340765],[4.687941,46.340823],[4.688212,46.34087],[4.688254,46.340879],[4.688324,46.340898],[4.688388,46.340918],[4.688469,46.340949],[4.688638,46.341033],[4.688763,46.341088],[4.688783,46.341095],[4.68881,46.341099],[4.688828,46.341096],[4.689148,46.340965],[4.689423,46.340855],[4.689692,46.340746],[4.690005,46.340624],[4.690607,46.340379],[4.690853,46.340306],[4.690876,46.340301],[4.690904,46.340369],[4.690967,46.340502],[4.691005,46.340575],[4.691056,46.340657],[4.691185,46.340768],[4.691227,46.340811],[4.691391,46.34095],[4.691475,46.341015],[4.691801,46.341236],[4.692356,46.341527],[4.69242,46.341558],[4.692632,46.341655],[4.692642,46.34164],[4.69304,46.340968],[4.693148,46.340781],[4.693131,46.340772],[4.692637,46.340557],[4.6925,46.340498],[4.69248,46.340489],[4.691981,46.340177],[4.692184,46.340071],[4.692314,46.340012],[4.692435,46.33996],[4.692508,46.339958],[4.692839,46.339956],[4.692845,46.339794],[4.692904,46.339794],[4.693131,46.339794],[4.693808,46.339795],[4.693791,46.339913],[4.693793,46.339918],[4.693882,46.339938],[4.694,46.339965],[4.693993,46.340063],[4.694115,46.340091],[4.694212,46.340115],[4.694439,46.340178],[4.694583,46.340177],[4.694988,46.340185],[4.695036,46.340184],[4.694961,46.339988],[4.69491,46.339867],[4.694835,46.339779],[4.694515,46.339424],[4.694405,46.339307],[4.694124,46.339],[4.694039,46.338905],[4.693891,46.338724],[4.693755,46.338569],[4.693656,46.338467],[4.693664,46.338405],[4.693493,46.338203],[4.693407,46.338132],[4.693414,46.33811],[4.69343,46.338072],[4.693451,46.338036],[4.693471,46.338007],[4.693523,46.337962],[4.693595,46.337918],[4.693402,46.337682],[4.693272,46.337529],[4.69317,46.337412],[4.693075,46.337317],[4.693073,46.337308],[4.693103,46.337075],[4.693114,46.336964],[4.693142,46.336769],[4.693162,46.336678],[4.693199,46.336528],[4.693211,46.336489],[4.693226,46.336441],[4.693243,46.336401],[4.693249,46.336382],[4.693283,46.336171],[4.693293,46.336146],[4.693315,46.336119],[4.693469,46.335934],[4.693509,46.335882],[4.693543,46.335836],[4.693747,46.335529],[4.693856,46.335364],[4.693964,46.335209],[4.694206,46.334855],[4.694229,46.334821],[4.694358,46.334634],[4.694419,46.334547],[4.694454,46.334534],[4.694518,46.334515],[4.694614,46.334488],[4.694769,46.334446],[4.694823,46.334433],[4.694863,46.334421],[4.695123,46.334308],[4.69515,46.334296],[4.69519,46.334279],[4.695268,46.334247],[4.695448,46.334192],[4.695551,46.334158],[4.695877,46.334042],[4.696133,46.333954],[4.696171,46.33394],[4.696246,46.333914],[4.696291,46.33389],[4.696312,46.333874],[4.696329,46.333812],[4.696352,46.333773],[4.69718,46.33396],[4.697512,46.33306],[4.697525,46.333027],[4.697636,46.33302],[4.697979,46.332993],[4.698298,46.332969],[4.698418,46.3329],[4.698572,46.332744],[4.698657,46.332683],[4.698769,46.332657],[4.699356,46.33263],[4.699685,46.332583],[4.699983,46.332475],[4.70006,46.332463],[4.700183,46.33249],[4.700342,46.332557],[4.700369,46.332534],[4.70054,46.332385],[4.700648,46.332288],[4.700737,46.332198],[4.700848,46.332072],[4.700898,46.332013],[4.700948,46.331958],[4.701025,46.331861],[4.701102,46.331762],[4.701137,46.331717],[4.701167,46.331678],[4.701182,46.331649],[4.701193,46.331626],[4.700198,46.331469],[4.700177,46.331414],[4.69982,46.330473],[4.699771,46.330446],[4.69971,46.330283],[4.699506,46.32974],[4.69896,46.328329],[4.698772,46.327863],[4.698755,46.327826],[4.699193,46.327583],[4.699541,46.327437],[4.699608,46.327402],[4.69967,46.32735],[4.699788,46.327233],[4.699923,46.327077],[4.700376,46.32676],[4.700448,46.326704],[4.70057,46.32658],[4.700681,46.326475],[4.700725,46.326448],[4.70084,46.326388],[4.700897,46.326355],[4.700939,46.326322],[4.700974,46.326285],[4.701019,46.326198],[4.701077,46.326085],[4.701109,46.325996],[4.701169,46.325831],[4.701249,46.325677],[4.701357,46.325536],[4.701375,46.325548],[4.701393,46.325559],[4.701452,46.325595],[4.701573,46.32567],[4.701652,46.325719],[4.701615,46.325758],[4.701702,46.326072],[4.701728,46.326071],[4.701734,46.326101],[4.701745,46.326278],[4.701775,46.326293],[4.7022,46.326279],[4.702242,46.326267],[4.702291,46.326234],[4.702383,46.326022],[4.702417,46.325986],[4.702477,46.325948],[4.702518,46.325928],[4.702604,46.325901],[4.702988,46.325791],[4.703139,46.325744],[4.703157,46.325734],[4.703021,46.325631],[4.702712,46.325351],[4.702525,46.325083],[4.702452,46.324961],[4.702445,46.324949],[4.70263,46.324788],[4.70294,46.324647],[4.703428,46.324398],[4.703781,46.324255],[4.70402,46.32416],[4.70434,46.323977],[4.704577,46.323859],[4.703927,46.323746],[4.702948,46.323375],[4.702205,46.323123],[4.702102,46.32307],[4.701347,46.322568],[4.701267,46.322512],[4.700914,46.322267],[4.700446,46.32203],[4.700109,46.321866],[4.69951,46.321522],[4.699365,46.321449],[4.698958,46.321277],[4.698849,46.321256],[4.69785,46.321427],[4.696884,46.32146],[4.696065,46.321483],[4.695221,46.321459],[4.695167,46.321442],[4.695056,46.321401],[4.694952,46.321348],[4.694848,46.321284],[4.694756,46.321221],[4.6946,46.321106],[4.694528,46.321174],[4.694501,46.321184],[4.694474,46.32119],[4.694445,46.321191],[4.69442,46.321185],[4.694396,46.321177],[4.694376,46.321168],[4.694356,46.321154],[4.694306,46.321032],[4.694257,46.320974],[4.693806,46.320699],[4.693374,46.320543],[4.693036,46.320412],[4.692829,46.320313],[4.692407,46.320064],[4.692257,46.319971],[4.692166,46.319923],[4.69183,46.319746],[4.691563,46.319589],[4.691399,46.319447],[4.691311,46.319325],[4.691206,46.319171],[4.691169,46.319071],[4.691161,46.318981],[4.691174,46.318884],[4.691332,46.318562],[4.69137,46.318453],[4.691444,46.318139],[4.691464,46.317959],[4.691449,46.317846],[4.691389,46.31774],[4.691308,46.317649],[4.691064,46.317466],[4.690833,46.31732],[4.690553,46.317171],[4.690457,46.317132],[4.690331,46.317091],[4.689986,46.317029],[4.689806,46.316982],[4.689662,46.316931],[4.689512,46.316849],[4.689406,46.316783],[4.689269,46.316667],[4.689142,46.31656],[4.689112,46.316562]]]]}}]}
