{"type":"FeatureCollection","features":[{"type":"Feature","id":"inao-denom-2071","properties":{"id":"inao-denom-2071","name":"Mâcon Montbellet","tier":"regional","kind":"appellation","appellationId":583,"denominationId":2071,"sourceName":"Mâcon Montbellet","communes":["71305"],"areaHa":103.89},"geometry":{"type":"MultiPolygon","coordinates":[[[[4.85086,46.46266],[4.850856,46.462646],[4.850816,46.462481],[4.850773,46.462333],[4.850746,46.462265],[4.850729,46.462221],[4.85072,46.462199],[4.850709,46.46217],[4.850777,46.462089],[4.850807,46.462055],[4.850851,46.462004],[4.850918,46.461924],[4.850918,46.461906],[4.850919,46.461863],[4.850919,46.461797],[4.850915,46.461691],[4.850894,46.461487],[4.85067,46.461449],[4.850597,46.461433],[4.850094,46.46132],[4.849622,46.461216],[4.849484,46.461186],[4.849338,46.46114],[4.849372,46.461365],[4.849425,46.46156],[4.849438,46.461609],[4.849492,46.461807],[4.849503,46.461846],[4.849541,46.461975],[4.849545,46.461985],[4.849604,46.462168],[4.849738,46.462605],[4.849745,46.462757],[4.849753,46.463028],[4.849755,46.46304],[4.849741,46.463041],[4.849761,46.463141],[4.849775,46.463134],[4.849796,46.463133],[4.85098,46.463075],[4.850972,46.463035],[4.850962,46.462978],[4.850949,46.462895],[4.850936,46.462815],[4.850909,46.462742],[4.85086,46.46266]]],[[[4.84518,46.463342],[4.845176,46.463477],[4.845169,46.463614],[4.845146,46.463709],[4.845135,46.463784],[4.845122,46.46386],[4.845095,46.463912],[4.84499,46.464068],[4.844914,46.464059],[4.844887,46.464054],[4.844898,46.464087],[4.844904,46.464122],[4.844898,46.464247],[4.844896,46.464284],[4.844989,46.46443],[4.84503,46.464492],[4.845093,46.464573],[4.845229,46.464743],[4.844855,46.464792],[4.844805,46.464799],[4.844876,46.46495],[4.844941,46.464946],[4.845652,46.466251],[4.845831,46.466583],[4.846484,46.467805],[4.84651,46.4678],[4.846533,46.467797],[4.846489,46.467715],[4.847096,46.467615],[4.847037,46.467507],[4.84689,46.467248],[4.846827,46.467124],[4.846623,46.466779],[4.846511,46.466593],[4.846252,46.46612],[4.84628,46.466116],[4.846309,46.466113],[4.846387,46.46625],[4.846467,46.466403],[4.846535,46.466532],[4.846662,46.466754],[4.846689,46.466807],[4.846776,46.466958],[4.847217,46.466892],[4.847254,46.467074],[4.847067,46.467102],[4.846901,46.467177],[4.846911,46.467197],[4.846896,46.467199],[4.846955,46.467308],[4.847083,46.467558],[4.847276,46.467931],[4.847454,46.468265],[4.847462,46.468285],[4.847478,46.468367],[4.847479,46.46842],[4.847472,46.468477],[4.847462,46.468566],[4.847448,46.468699],[4.847436,46.469017],[4.847445,46.469026],[4.84747,46.469044],[4.848528,46.469229],[4.848504,46.4693],[4.849002,46.469431],[4.849053,46.46934],[4.84946,46.469448],[4.849516,46.46938],[4.849602,46.469275],[4.849754,46.469084],[4.849837,46.468981],[4.84996,46.468831],[4.850116,46.468635],[4.8498,46.468559],[4.849789,46.468383],[4.850343,46.468355],[4.850768,46.467825],[4.850836,46.467736],[4.850854,46.467695],[4.850852,46.467605],[4.850558,46.467089],[4.850534,46.467045],[4.850481,46.46695],[4.850376,46.466765],[4.850275,46.46662],[4.850214,46.466539],[4.850169,46.466482],[4.85007,46.466362],[4.849978,46.466259],[4.849825,46.466077],[4.849675,46.4659],[4.849656,46.465874],[4.849445,46.465487],[4.849319,46.465214],[4.849309,46.465155],[4.849307,46.465139],[4.849302,46.465083],[4.849291,46.464949],[4.848652,46.46505],[4.848472,46.465077],[4.848319,46.465103],[4.848299,46.465106],[4.847898,46.465158],[4.847416,46.465222],[4.847409,46.465196],[4.847768,46.465149],[4.848128,46.465101],[4.848344,46.465074],[4.848488,46.46505],[4.848904,46.464986],[4.849173,46.464942],[4.849281,46.464926],[4.849284,46.464908],[4.8493,46.464787],[4.849343,46.464477],[4.849357,46.464391],[4.849361,46.46439],[4.849371,46.46432],[4.849386,46.46425],[4.849389,46.464233],[4.849398,46.464181],[4.849419,46.464052],[4.849504,46.463714],[4.849548,46.463521],[4.849555,46.463482],[4.849567,46.46336],[4.849574,46.46323],[4.849575,46.463224],[4.848565,46.463315],[4.848365,46.463334],[4.848182,46.463352],[4.847891,46.463377],[4.847643,46.463401],[4.847442,46.463419],[4.847153,46.463447],[4.847128,46.463449],[4.846988,46.463459],[4.846749,46.463477],[4.846498,46.463496],[4.846322,46.46351],[4.845526,46.463564],[4.84553,46.463543],[4.845552,46.463543],[4.845834,46.463519],[4.846621,46.463464],[4.846697,46.463458],[4.846778,46.463451],[4.847135,46.463426],[4.847245,46.463415],[4.847413,46.463398],[4.847537,46.463387],[4.848363,46.463307],[4.848533,46.463289],[4.849259,46.463216],[4.849582,46.463182],[4.849593,46.463041],[4.849569,46.46278],[4.849513,46.462546],[4.849499,46.462476],[4.849475,46.462377],[4.849448,46.462276],[4.849479,46.462272],[4.84947,46.462242],[4.84944,46.462248],[4.849424,46.462189],[4.849391,46.462066],[4.849304,46.461731],[4.849289,46.461672],[4.849272,46.461605],[4.849242,46.461493],[4.849214,46.461378],[4.849175,46.461119],[4.849025,46.461137],[4.848814,46.461166],[4.848396,46.461221],[4.847826,46.461298],[4.847728,46.461311],[4.847727,46.461316],[4.84766,46.461331],[4.847596,46.461346],[4.846805,46.461527],[4.846804,46.461526],[4.846772,46.461476],[4.846767,46.46147],[4.846741,46.461407],[4.845576,46.461656],[4.845557,46.46166],[4.845474,46.461679],[4.845201,46.461739],[4.844923,46.461801],[4.844794,46.461828],[4.844862,46.462007],[4.844936,46.462202],[4.844972,46.462292],[4.844989,46.462335],[4.845048,46.462464],[4.84509,46.46253],[4.845095,46.462536],[4.845122,46.462645],[4.845148,46.462747],[4.845152,46.462834],[4.845161,46.463014],[4.845162,46.463021],[4.845172,46.46321],[4.845177,46.463293],[4.84518,46.463342]]],[[[4.850738,46.468865],[4.850695,46.468758],[4.850866,46.468728],[4.850966,46.46871],[4.85092,46.468591],[4.851369,46.468541],[4.851258,46.46834],[4.85121,46.468255],[4.851141,46.468181],[4.851086,46.46812],[4.851045,46.468058],[4.851041,46.468047],[4.851032,46.468022],[4.850947,46.46777],[4.850737,46.468049],[4.850654,46.468056],[4.850516,46.468239],[4.850448,46.468329],[4.850506,46.468324],[4.850557,46.468287],[4.850531,46.468321],[4.850459,46.468416],[4.850273,46.468659],[4.850167,46.468787],[4.849865,46.469161],[4.849605,46.469519],[4.849581,46.469554],[4.849614,46.469557],[4.850036,46.469593],[4.850045,46.469534],[4.850091,46.469423],[4.850188,46.469313],[4.850292,46.469246],[4.85042,46.469195],[4.850535,46.469164],[4.850796,46.469097],[4.850827,46.469088],[4.85082,46.469071],[4.850805,46.469033],[4.850738,46.468865]]],[[[4.851133,46.469349],[4.851126,46.469323],[4.851109,46.469268],[4.851048,46.469276],[4.851011,46.469171],[4.850598,46.469318],[4.850438,46.469393],[4.85036,46.469444],[4.850283,46.469535],[4.850274,46.469563],[4.850261,46.469612],[4.850191,46.469613],[4.850182,46.469652],[4.850249,46.469654],[4.850206,46.469818],[4.8502,46.469846],[4.850178,46.469969],[4.850214,46.470003],[4.850469,46.470024],[4.850469,46.469948],[4.850655,46.469954],[4.850685,46.469955],[4.850837,46.469957],[4.850836,46.469971],[4.850873,46.46997],[4.850853,46.469865],[4.850845,46.469834],[4.850893,46.469825],[4.850893,46.469793],[4.850882,46.469705],[4.850855,46.469602],[4.850932,46.469599],[4.850953,46.469643],[4.850959,46.469656],[4.851004,46.46971],[4.85123,46.469679],[4.85122,46.469631],[4.851247,46.469629],[4.851234,46.469587],[4.851226,46.469559],[4.851306,46.469547],[4.851284,46.469475],[4.851223,46.469481],[4.851222,46.469478],[4.85119,46.469374],[4.851137,46.469355],[4.851133,46.469349]]],[[[4.847951,46.469315],[4.847893,46.469298],[4.847715,46.469237],[4.847638,46.469204],[4.847551,46.469164],[4.847447,46.469109],[4.847392,46.469279],[4.847354,46.469353],[4.847168,46.46972],[4.846883,46.470277],[4.846858,46.470323],[4.846752,46.470496],[4.846586,46.470713],[4.846418,46.47088],[4.846395,46.470907],[4.846375,46.470934],[4.846363,46.470958],[4.846337,46.471013],[4.846271,46.47121],[4.846126,46.471639],[4.846015,46.471932],[4.846069,46.471946],[4.846113,46.471953],[4.846159,46.47196],[4.846206,46.471963],[4.84625,46.471958],[4.846303,46.47195],[4.846443,46.471922],[4.846817,46.471849],[4.846909,46.471833],[4.847002,46.4718],[4.847048,46.471781],[4.847106,46.471747],[4.847153,46.471717],[4.847228,46.471656],[4.847276,46.471614],[4.847313,46.471571],[4.847345,46.471523],[4.847379,46.471452],[4.847565,46.471028],[4.847622,46.470896],[4.847667,46.470812],[4.847729,46.470701],[4.84776,46.470644],[4.847847,46.470526],[4.847909,46.470456],[4.848053,46.470328],[4.848184,46.470242],[4.848289,46.470183],[4.84837,46.47014],[4.848527,46.470068],[4.84869,46.469995],[4.848967,46.469874],[4.849101,46.469821],[4.849233,46.46973],[4.849274,46.469702],[4.849189,46.469658],[4.849116,46.46963],[4.849047,46.469605],[4.848996,46.469588],[4.84893,46.469568],[4.848805,46.469534],[4.848632,46.469491],[4.848396,46.469429],[4.848066,46.469346],[4.847951,46.469315]]],[[[4.849631,46.470433],[4.849631,46.47043],[4.849611,46.470322],[4.849533,46.469892],[4.849494,46.469893],[4.849473,46.469893],[4.849436,46.469892],[4.849292,46.469886],[4.849272,46.469885],[4.849206,46.469888],[4.849182,46.469891],[4.849159,46.469896],[4.849072,46.469924],[4.848866,46.470011],[4.84862,46.470117],[4.848408,46.470215],[4.848259,46.470293],[4.848162,46.470354],[4.848136,46.470373],[4.847996,46.470495],[4.84796,46.470529],[4.847892,46.470608],[4.847858,46.470653],[4.84783,46.470694],[4.847784,46.470775],[4.847769,46.470804],[4.847637,46.471122],[4.847472,46.471512],[4.8474,46.47165],[4.847397,46.471811],[4.848016,46.471942],[4.848041,46.471945],[4.848285,46.471989],[4.848369,46.472004],[4.848448,46.472024],[4.848622,46.472015],[4.848789,46.472006],[4.849073,46.471993],[4.849477,46.471977],[4.849586,46.471971],[4.84971,46.471326],[4.849818,46.470839],[4.849859,46.470672],[4.84985,46.470612],[4.849877,46.470465],[4.849895,46.470406],[4.849818,46.47041],[4.849706,46.470425],[4.849631,46.470433]]],[[[4.851632,46.471379],[4.851639,46.471412],[4.85166,46.471581],[4.851666,46.471636],[4.851666,46.471698],[4.851668,46.471721],[4.851674,46.471751],[4.851686,46.471775],[4.851715,46.471812],[4.851728,46.471821],[4.851903,46.471861],[4.851949,46.471868],[4.851989,46.471872],[4.852069,46.471876],[4.852197,46.471878],[4.852225,46.471878],[4.852983,46.471836],[4.853006,46.471831],[4.853027,46.471821],[4.853038,46.471812],[4.853049,46.471799],[4.853058,46.471784],[4.853062,46.471768],[4.853063,46.471751],[4.853034,46.471582],[4.852997,46.47146],[4.852866,46.471019],[4.852853,46.470963],[4.852856,46.470954],[4.852875,46.470901],[4.852931,46.470781],[4.852941,46.470756],[4.852995,46.470599],[4.853018,46.470526],[4.853022,46.47049],[4.853022,46.470464],[4.853018,46.470442],[4.853012,46.47042],[4.853003,46.4704],[4.852927,46.470301],[4.852906,46.470272],[4.852894,46.470253],[4.852815,46.470086],[4.852577,46.470063],[4.85245,46.47004],[4.852355,46.470027],[4.852094,46.469995],[4.851942,46.469975],[4.851941,46.469983],[4.851935,46.47002],[4.851845,46.470014],[4.851832,46.470023],[4.851836,46.470067],[4.851874,46.470066],[4.851879,46.470109],[4.851839,46.470111],[4.851807,46.470112],[4.851805,46.470191],[4.851796,46.470249],[4.851787,46.470308],[4.851786,46.470316],[4.851661,46.470339],[4.851571,46.470353],[4.851585,46.470411],[4.851598,46.470526],[4.851512,46.470537],[4.851531,46.470603],[4.851473,46.470612],[4.851482,46.47064],[4.851349,46.47065],[4.851356,46.470664],[4.85139,46.470753],[4.851436,46.470863],[4.85145,46.47089],[4.851502,46.471001],[4.851528,46.471065],[4.851632,46.471379]]],[[[4.851492,46.471165],[4.851456,46.47117],[4.851383,46.471179],[4.851369,46.471143],[4.851366,46.471136],[4.851083,46.471178],[4.851049,46.471092],[4.851027,46.471034],[4.850908,46.470771],[4.85088,46.470708],[4.850847,46.47064],[4.850829,46.470602],[4.850807,46.470566],[4.850785,46.470534],[4.850833,46.470521],[4.850778,46.470437],[4.850762,46.470442],[4.850699,46.470462],[4.850694,46.470454],[4.850683,46.470435],[4.850644,46.470318],[4.85064,46.470279],[4.850439,46.470281],[4.85044,46.470203],[4.850399,46.470203],[4.850398,46.470066],[4.850143,46.470054],[4.850097,46.470279],[4.850057,46.470475],[4.850017,46.470475],[4.849961,46.470723],[4.849948,46.470776],[4.849848,46.471276],[4.849735,46.471909],[4.849775,46.471901],[4.84981,46.471895],[4.849945,46.471859],[4.85018,46.471827],[4.850265,46.471817],[4.850364,46.471809],[4.850839,46.471765],[4.850967,46.471752],[4.851066,46.471743],[4.851532,46.471735],[4.851581,46.471717],[4.851587,46.471707],[4.851593,46.471688],[4.851597,46.471668],[4.851598,46.471645],[4.851587,46.471553],[4.851572,46.471409],[4.851553,46.47134],[4.851521,46.471235],[4.851492,46.471165]]],[[[4.854473,46.47056],[4.854449,46.470481],[4.854388,46.470271],[4.854391,46.470254],[4.854427,46.470081],[4.854384,46.470078],[4.852883,46.470089],[4.852902,46.470173],[4.852972,46.470277],[4.853054,46.470399],[4.853072,46.470446],[4.853073,46.470478],[4.85307,46.470505],[4.853062,46.470544],[4.853042,46.470611],[4.85298,46.470778],[4.852959,46.470821],[4.852921,46.470888],[4.852902,46.470935],[4.852901,46.470954],[4.853027,46.471446],[4.853056,46.471558],[4.853066,46.471598],[4.853102,46.47179],[4.854363,46.471656],[4.854743,46.471594],[4.85471,46.471386],[4.854692,46.471277],[4.854684,46.47123],[4.854665,46.471132],[4.854611,46.470909],[4.854518,46.470663],[4.854473,46.47056]]],[[[4.84483,46.470976],[4.844659,46.470971],[4.844517,46.470963],[4.844198,46.470945],[4.844163,46.470941],[4.844129,46.470938],[4.844099,46.470934],[4.844074,46.471295],[4.844074,46.471305],[4.844113,46.471312],[4.844162,46.471321],[4.844464,46.471374],[4.844761,46.471436],[4.84517,46.471542],[4.845299,46.471595],[4.84554,46.471701],[4.845982,46.471911],[4.846319,46.470976],[4.845903,46.47111],[4.845863,46.471119],[4.845815,46.471127],[4.845733,46.471133],[4.845694,46.471134],[4.845685,46.471134],[4.845501,46.471106],[4.84544,46.471095],[4.845403,46.471089],[4.845296,46.471065],[4.845103,46.471021],[4.845012,46.471002],[4.844901,46.470985],[4.84483,46.470976]]],[[[4.843954,46.471747],[4.843952,46.471767],[4.843959,46.471846],[4.843961,46.471924],[4.843962,46.471959],[4.843961,46.471987],[4.843957,46.472005],[4.843956,46.472019],[4.843948,46.472152],[4.843968,46.472151],[4.843978,46.47215],[4.844021,46.472149],[4.844074,46.472141],[4.844109,46.472133],[4.844308,46.472071],[4.844396,46.472045],[4.844496,46.472019],[4.844727,46.471932],[4.844866,46.47188],[4.844938,46.471847],[4.845044,46.471808],[4.845096,46.471795],[4.845155,46.471785],[4.845241,46.471775],[4.845331,46.47176],[4.845368,46.471758],[4.845467,46.471755],[4.845377,46.471715],[4.845151,46.471632],[4.84509,46.471612],[4.844983,46.471581],[4.844784,46.471532],[4.844683,46.471512],[4.84463,46.471501],[4.844343,46.471446],[4.844042,46.471392],[4.843801,46.471355],[4.843767,46.47135],[4.843776,46.47136],[4.8439,46.471507],[4.843935,46.471553],[4.843941,46.471564],[4.843945,46.471583],[4.843949,46.471612],[4.843958,46.471661],[4.843977,46.47172],[4.843954,46.471747]]],[[[4.843919,46.472196],[4.843911,46.472196],[4.843909,46.472521],[4.843909,46.472702],[4.843909,46.472735],[4.843926,46.472738],[4.843933,46.47274],[4.844095,46.472775],[4.844544,46.472745],[4.844717,46.47274],[4.844801,46.472741],[4.844805,46.471962],[4.844691,46.472005],[4.844521,46.472065],[4.844438,46.472086],[4.844197,46.472151],[4.843986,46.472189],[4.843923,46.472195],[4.843919,46.472196]]],[[[4.8546,46.473258],[4.854887,46.473366],[4.854984,46.473368],[4.854792,46.471952],[4.854749,46.471638],[4.854373,46.471698],[4.853091,46.471835],[4.853075,46.471914],[4.853121,46.47198],[4.853228,46.472068],[4.853325,46.472182],[4.853413,46.472295],[4.853768,46.472462],[4.853975,46.472694],[4.854344,46.473131],[4.854432,46.47318],[4.8546,46.473258]]],[[[4.850504,46.473455],[4.850511,46.473486],[4.850527,46.473485],[4.850445,46.473896],[4.850424,46.473898],[4.850433,46.474132],[4.851087,46.474138],[4.85132,46.47414],[4.851301,46.474067],[4.851247,46.473866],[4.851228,46.473802],[4.851124,46.473446],[4.851073,46.473274],[4.851058,46.473223],[4.851048,46.473175],[4.851044,46.473144],[4.85104,46.473108],[4.851017,46.473006],[4.850977,46.47301],[4.850914,46.472755],[4.85079,46.472263],[4.850702,46.471905],[4.850695,46.471817],[4.850248,46.471851],[4.850046,46.471887],[4.849917,46.471905],[4.849753,46.471961],[4.849714,46.471974],[4.849729,46.472117],[4.849742,46.472243],[4.849861,46.472449],[4.849909,46.472675],[4.849897,46.472733],[4.849927,46.472864],[4.84996,46.472958],[4.850063,46.473108],[4.850168,46.473238],[4.85025,46.473323],[4.850328,46.473463],[4.850504,46.473455]]],[[[4.847192,46.478367],[4.847174,46.478496],[4.847171,46.478524],[4.8472,46.478525],[4.847474,46.478533],[4.84771,46.478534],[4.848077,46.478534],[4.848357,46.478536],[4.848273,46.478247],[4.848215,46.478066],[4.848205,46.478033],[4.848005,46.477493],[4.847258,46.477584],[4.847252,46.477585],[4.847237,46.477587],[4.847224,46.477768],[4.847179,46.477999],[4.847204,46.47813],[4.847209,46.478175],[4.847192,46.478367]]],[[[4.847147,46.479788],[4.847193,46.479789],[4.847804,46.479789],[4.847782,46.478995],[4.847762,46.478589],[4.847488,46.478578],[4.847191,46.47857],[4.847169,46.47857],[4.847169,46.47858],[4.847147,46.479772],[4.847147,46.479778],[4.847147,46.479788]]],[[[4.87789,46.469166],[4.877281,46.469394],[4.877105,46.469467],[4.876496,46.469713],[4.876661,46.469849],[4.876825,46.469987],[4.876925,46.470069],[4.876964,46.470105],[4.877283,46.470379],[4.877621,46.470251],[4.878009,46.470096],[4.878276,46.469988],[4.878446,46.469441],[4.878466,46.469364],[4.878734,46.468904],[4.878152,46.469079],[4.87789,46.469166]]],[[[4.876949,46.470724],[4.876621,46.470422],[4.875529,46.471001],[4.875577,46.471088],[4.875061,46.471293],[4.875233,46.471527],[4.875381,46.471726],[4.87542,46.47178],[4.875945,46.471588],[4.876132,46.471514],[4.87636,46.471426],[4.877251,46.471091],[4.877167,46.47099],[4.877074,46.470872],[4.877007,46.470781],[4.876949,46.470724]]],[[[4.861226,46.470968],[4.861831,46.471832],[4.862003,46.472073],[4.86252,46.471932],[4.862029,46.471233],[4.861733,46.470816],[4.861268,46.470902],[4.861226,46.470968]]],[[[4.858157,46.473926],[4.858294,46.47395],[4.858547,46.473812],[4.858642,46.473808],[4.858795,46.473854],[4.858966,46.473888],[4.85901,46.473893],[4.859241,46.473917],[4.859354,46.473934],[4.859463,46.473955],[4.859452,46.473918],[4.859394,46.473719],[4.859367,46.473625],[4.859466,46.473613],[4.859672,46.473586],[4.859619,46.473515],[4.85924,46.473015],[4.858974,46.472635],[4.858904,46.47253],[4.858876,46.472485],[4.858832,46.472381],[4.858735,46.472125],[4.858679,46.471966],[4.858658,46.471875],[4.8584,46.470744],[4.85838,46.470687],[4.858332,46.470593],[4.858323,46.470575],[4.858049,46.470166],[4.857955,46.470023],[4.857857,46.469879],[4.857777,46.469769],[4.85773,46.469706],[4.85768,46.469644],[4.857649,46.469613],[4.857616,46.469589],[4.857577,46.469566],[4.85753,46.469545],[4.857468,46.469527],[4.857429,46.469519],[4.857387,46.469514],[4.857353,46.469512],[4.857306,46.469514],[4.85725,46.469523],[4.857208,46.469533],[4.856518,46.469721],[4.856164,46.46979],[4.855469,46.469918],[4.85541,46.469928],[4.855789,46.471288],[4.855945,46.471837],[4.856093,46.472361],[4.856253,46.472933],[4.856381,46.472907],[4.856597,46.473592],[4.856985,46.473694],[4.857107,46.473732],[4.858157,46.473926]]],[[[4.879441,46.472264],[4.879651,46.472193],[4.879823,46.47213],[4.880202,46.471983],[4.880556,46.471822],[4.880725,46.471743],[4.879722,46.47054],[4.879534,46.470609],[4.878451,46.471017],[4.878526,46.471206],[4.878542,46.471248],[4.878563,46.471303],[4.878681,46.471614],[4.878785,46.471884],[4.878806,46.471927],[4.878955,46.472329],[4.879033,46.472359],[4.879441,46.472264]]],[[[4.861097,46.470939],[4.860607,46.471045],[4.860542,46.47106],[4.861192,46.472489],[4.860949,46.472544],[4.861004,46.472691],[4.86063,46.472757],[4.861036,46.473185],[4.862492,46.472943],[4.862476,46.472903],[4.862367,46.472758],[4.862328,46.472713],[4.862255,46.472615],[4.862192,46.472527],[4.862063,46.472342],[4.862056,46.47233],[4.862045,46.472321],[4.862038,46.472308],[4.862032,46.472296],[4.862015,46.472281],[4.862004,46.472263],[4.861984,46.472222],[4.861792,46.471932],[4.861097,46.470939]]],[[[4.875508,46.471775],[4.875495,46.47178],[4.875362,46.47183],[4.87529,46.471857],[4.875737,46.472236],[4.875877,46.472355],[4.876015,46.472475],[4.876543,46.472923],[4.876614,46.472895],[4.876749,46.472842],[4.87663,46.47273],[4.876961,46.472581],[4.877393,46.47238],[4.87726,46.472254],[4.877189,46.472185],[4.877087,46.472085],[4.876983,46.471983],[4.877737,46.47161],[4.877601,46.47147],[4.877575,46.471442],[4.877398,46.471253],[4.877265,46.471106],[4.876805,46.471284],[4.876348,46.471457],[4.87596,46.471605],[4.875508,46.471775]]],[[[4.858793,46.47527],[4.858839,46.475265],[4.858895,46.475266],[4.859076,46.475276],[4.859098,46.475275],[4.859129,46.475272],[4.859156,46.475267],[4.859447,46.475173],[4.859511,46.475152],[4.859544,46.47514],[4.859599,46.475112],[4.859742,46.475029],[4.859759,46.475018],[4.859788,46.474989],[4.859816,46.474956],[4.859972,46.47468],[4.859897,46.474442],[4.859872,46.474353],[4.859865,46.474295],[4.859853,46.474141],[4.85967,46.474044],[4.859506,46.474005],[4.859401,46.473986],[4.858582,46.473863],[4.858303,46.474016],[4.857087,46.473777],[4.856858,46.47372],[4.856411,46.473606],[4.856023,46.473504],[4.855382,46.473447],[4.855354,46.473445],[4.855057,46.473431],[4.854934,46.473627],[4.854837,46.473835],[4.854816,46.473893],[4.854744,46.474018],[4.854692,46.474098],[4.854627,46.474212],[4.854553,46.474406],[4.854528,46.474524],[4.854527,46.474565],[4.854907,46.474592],[4.855167,46.474611],[4.855078,46.475224],[4.85524,46.47528],[4.855508,46.475309],[4.855795,46.475298],[4.85664,46.47521],[4.856934,46.475178],[4.857044,46.475169],[4.858075,46.475244],[4.858187,46.475255],[4.858362,46.47527],[4.858391,46.475272],[4.858453,46.475262],[4.858521,46.475255],[4.858687,46.475261],[4.858712,46.475268],[4.858745,46.475279],[4.858793,46.47527]]],[[[4.870903,46.473809],[4.869999,46.474003],[4.869991,46.474004],[4.870615,46.474798],[4.870664,46.474846],[4.870672,46.474853],[4.870701,46.474878],[4.87075,46.474903],[4.870789,46.474916],[4.870874,46.474928],[4.87102,46.474943],[4.871269,46.474968],[4.871423,46.474983],[4.87165,46.475066],[4.871831,46.474652],[4.871614,46.474574],[4.871453,46.474515],[4.871461,46.474475],[4.871459,46.474438],[4.871449,46.474401],[4.871426,46.474356],[4.871398,46.474312],[4.870903,46.473809]]],[[[4.860502,46.477965],[4.860537,46.477954],[4.861101,46.477799],[4.861324,46.477739],[4.861495,46.47769],[4.861503,46.477684],[4.861504,46.477679],[4.8615,46.477668],[4.861471,46.477621],[4.861416,46.477517],[4.861338,46.477333],[4.861267,46.477183],[4.861217,46.47719],[4.861147,46.477199],[4.861108,46.477204],[4.861089,46.477138],[4.861062,46.477138],[4.860843,46.47714],[4.860818,46.477141],[4.860783,46.477143],[4.860449,46.47717],[4.860422,46.477172],[4.860103,46.477198],[4.860114,46.477422],[4.86009,46.477422],[4.85987,46.477426],[4.859874,46.477442],[4.859878,46.477495],[4.859915,46.477836],[4.859932,46.478044],[4.859959,46.478348],[4.860097,46.478218],[4.860187,46.478142],[4.860278,46.478077],[4.860306,46.47806],[4.860415,46.478002],[4.860452,46.477985],[4.860502,46.477965]]],[[[4.859807,46.47822],[4.859786,46.478149],[4.85979,46.477887],[4.859786,46.477808],[4.859769,46.477516],[4.859753,46.477266],[4.859735,46.477013],[4.858932,46.477062],[4.858899,46.477239],[4.858904,46.477329],[4.858908,46.477457],[4.858927,46.477583],[4.858963,46.477855],[4.858958,46.477939],[4.85894,46.478206],[4.858932,46.478254],[4.858923,46.478402],[4.858961,46.478702],[4.859001,46.478932],[4.859004,46.478947],[4.859026,46.478994],[4.859057,46.479081],[4.859415,46.478967],[4.859483,46.478942],[4.859554,46.478914],[4.859589,46.478895],[4.85964,46.478861],[4.859658,46.478838],[4.8597,46.478784],[4.859806,46.478615],[4.859823,46.478564],[4.859824,46.478532],[4.859807,46.47822]]],[[[4.860832,46.477954],[4.860658,46.478002],[4.860406,46.478104],[4.86008,46.47837],[4.859968,46.478556],[4.85997,46.478684],[4.85999,46.478817],[4.860043,46.478936],[4.860182,46.479145],[4.860808,46.479002],[4.861203,46.478901],[4.86137,46.47886],[4.861009,46.477901],[4.860832,46.477954]]],[[[4.878462,46.480012],[4.87853,46.480055],[4.878901,46.480021],[4.87926,46.479875],[4.878863,46.479467],[4.878568,46.479162],[4.878541,46.479173],[4.878365,46.47897],[4.87827,46.478861],[4.878201,46.478782],[4.878117,46.478685],[4.87806,46.47862],[4.878004,46.478555],[4.878578,46.478344],[4.878407,46.478145],[4.878358,46.478089],[4.878311,46.478034],[4.878293,46.478013],[4.87828,46.477998],[4.878184,46.477887],[4.878134,46.477832],[4.878058,46.477758],[4.877885,46.477589],[4.877753,46.477461],[4.877565,46.477274],[4.877306,46.477016],[4.877043,46.477076],[4.876096,46.477281],[4.87594,46.477315],[4.875687,46.477367],[4.875643,46.477416],[4.875756,46.477614],[4.875841,46.47776],[4.875852,46.477786],[4.876032,46.478193],[4.876077,46.478297],[4.876159,46.478406],[4.876215,46.478481],[4.876392,46.47866],[4.876485,46.478755],[4.876537,46.478806],[4.876797,46.479063],[4.876818,46.479076],[4.876946,46.479155],[4.876981,46.479165],[4.877159,46.479215],[4.877323,46.479262],[4.877515,46.479316],[4.877538,46.479328],[4.877831,46.479478],[4.878191,46.479747],[4.878142,46.479768],[4.878462,46.480012]]],[[[4.872231,46.482775],[4.872825,46.482715],[4.872873,46.482708],[4.872285,46.481192],[4.871966,46.481186],[4.8719,46.481191],[4.871812,46.481195],[4.87145,46.481189],[4.871314,46.481183],[4.87114,46.481178],[4.8711,46.481179],[4.871135,46.481264],[4.87118,46.481384],[4.871195,46.481424],[4.871103,46.481458],[4.870964,46.481511],[4.870896,46.48154],[4.870591,46.481643],[4.870563,46.481653],[4.870067,46.481759],[4.869951,46.481784],[4.86983,46.48181],[4.869712,46.481832],[4.869555,46.481863],[4.868986,46.481946],[4.869298,46.482735],[4.869194,46.482755],[4.869161,46.482761],[4.869403,46.483324],[4.86977,46.483217],[4.870049,46.483144],[4.870275,46.483085],[4.870316,46.483076],[4.870565,46.483022],[4.87076,46.482987],[4.870934,46.482957],[4.871097,46.482939],[4.87142,46.482893],[4.871639,46.482861],[4.871747,46.482847],[4.871825,46.482836],[4.872231,46.482775]]],[[[4.867052,46.488051],[4.867056,46.488063],[4.867145,46.488219],[4.867222,46.488278],[4.86726,46.488308],[4.867436,46.488519],[4.867507,46.488606],[4.867695,46.488836],[4.867793,46.488957],[4.867837,46.489011],[4.868755,46.488647],[4.868711,46.488589],[4.868623,46.488473],[4.868445,46.488239],[4.868431,46.488221],[4.868456,46.488211],[4.868399,46.488135],[4.867955,46.487542],[4.867881,46.487436],[4.867872,46.487425],[4.867677,46.487175],[4.867405,46.486821],[4.867251,46.486621],[4.867072,46.486702],[4.866885,46.486786],[4.866715,46.486864],[4.866558,46.486934],[4.866555,46.486939],[4.866556,46.48696],[4.867084,46.487656],[4.867287,46.487865],[4.86732,46.487888],[4.867345,46.487902],[4.867373,46.487914],[4.867398,46.487922],[4.867434,46.487933],[4.867455,46.487935],[4.867509,46.487928],[4.867528,46.487953],[4.867487,46.487964],[4.867456,46.487961],[4.867392,46.487953],[4.86728,46.487928],[4.867274,46.487931],[4.867062,46.488036],[4.867054,46.488044],[4.867052,46.488051]]],[[[4.866149,46.487021],[4.86607,46.487016],[4.866018,46.48702],[4.865944,46.487038],[4.865827,46.487074],[4.865721,46.487113],[4.865618,46.487156],[4.865362,46.487281],[4.865342,46.487291],[4.86525,46.48734],[4.865016,46.487446],[4.864988,46.487406],[4.865214,46.487303],[4.865213,46.487302],[4.864596,46.486638],[4.863946,46.485929],[4.863778,46.485768],[4.863615,46.485611],[4.863395,46.485839],[4.863327,46.485895],[4.863248,46.485962],[4.863161,46.486029],[4.863091,46.486076],[4.863015,46.486127],[4.862942,46.48617],[4.862864,46.486213],[4.862754,46.486264],[4.862618,46.486321],[4.862463,46.486376],[4.862338,46.486418],[4.862262,46.48644],[4.861841,46.486605],[4.861739,46.486644],[4.861639,46.486699],[4.861571,46.486738],[4.861418,46.486855],[4.861391,46.486881],[4.86134,46.486945],[4.861292,46.487005],[4.862582,46.488443],[4.865035,46.491179],[4.86505,46.491195],[4.865125,46.491153],[4.865438,46.490959],[4.865807,46.490732],[4.866188,46.490523],[4.86633,46.490442],[4.866815,46.490191],[4.867614,46.48987],[4.86761,46.489864],[4.867612,46.489863],[4.867998,46.489733],[4.868002,46.489731],[4.868236,46.489645],[4.867805,46.489021],[4.867587,46.488767],[4.867498,46.488662],[4.867212,46.488324],[4.867096,46.488223],[4.866999,46.488074],[4.866988,46.488013],[4.866999,46.488011],[4.86717,46.48795],[4.867211,46.487917],[4.86724,46.487891],[4.867238,46.487871],[4.867069,46.487689],[4.867017,46.487626],[4.866725,46.487231],[4.86651,46.486952],[4.866439,46.48698],[4.866297,46.487016],[4.866262,46.487024],[4.866227,46.487029],[4.866149,46.487021]]]]}},{"type":"Feature","id":"commune-71305","properties":{"id":"commune-71305","name":"Montbellet","kind":"commune","tier":"commune"},"geometry":{"type":"MultiPolygon","coordinates":[[[[4.892952,46.445966],[4.88938,46.446985],[4.888136,46.447338],[4.887633,46.447474],[4.886724,46.447665],[4.88578,46.447858],[4.886407,46.449261],[4.886443,46.449343],[4.887245,46.451146],[4.887997,46.452835],[4.888675,46.454329],[4.888578,46.454357],[4.888548,46.454364],[4.887186,46.454695],[4.886534,46.454849],[4.88646,46.454701],[4.886392,46.454726],[4.886225,46.454754],[4.886175,46.454761],[4.886028,46.454782],[4.885676,46.454832],[4.885558,46.454849],[4.885365,46.454879],[4.885035,46.454925],[4.88498,46.45516],[4.884876,46.455143],[4.883379,46.455012],[4.882593,46.454958],[4.881258,46.454848],[4.881193,46.454984],[4.881149,46.455035],[4.881031,46.455096],[4.88099,46.455113],[4.880914,46.455143],[4.880814,46.455171],[4.880552,46.455206],[4.880266,46.45523],[4.879567,46.455243],[4.879411,46.455232],[4.879309,46.455206],[4.879198,46.45512],[4.879092,46.455082],[4.878597,46.45509],[4.878207,46.455103],[4.877646,46.455121],[4.877346,46.455147],[4.877142,46.455158],[4.877142,46.455122],[4.877023,46.454207],[4.876216,46.454255],[4.875553,46.454293],[4.875017,46.454321],[4.874795,46.454331],[4.874517,46.454342],[4.873289,46.455042],[4.873006,46.455244],[4.872978,46.455264],[4.873169,46.45554],[4.87312,46.455594],[4.873075,46.455639],[4.87304,46.45567],[4.872997,46.455701],[4.872933,46.455741],[4.872621,46.455927],[4.872581,46.455955],[4.87256,46.455981],[4.872542,46.456004],[4.872522,46.456037],[4.872511,46.456056],[4.872491,46.456121],[4.872465,46.456193],[4.872438,46.45627],[4.872409,46.456338],[4.872402,46.456355],[4.87229,46.456448],[4.872232,46.456486],[4.87207,46.456591],[4.872042,46.456609],[4.871912,46.456707],[4.871778,46.456818],[4.871648,46.456955],[4.871566,46.457048],[4.871542,46.457093],[4.871491,46.457187],[4.871423,46.45734],[4.87138,46.457436],[4.871307,46.457602],[4.871272,46.457758],[4.870942,46.457785],[4.870915,46.457785],[4.870849,46.457786],[4.869937,46.457878],[4.869957,46.457987],[4.869995,46.458197],[4.870004,46.458245],[4.870044,46.458469],[4.870026,46.458473],[4.870029,46.458564],[4.870039,46.458687],[4.870017,46.458832],[4.869974,46.458862],[4.869096,46.458772],[4.868894,46.458752],[4.868889,46.458729],[4.868466,46.458782],[4.868021,46.458825],[4.86779,46.458844],[4.867527,46.45891],[4.867182,46.458904],[4.866812,46.458887],[4.866803,46.459011],[4.866791,46.459027],[4.866768,46.459034],[4.866408,46.459008],[4.865659,46.458949],[4.865605,46.458947],[4.865154,46.458924],[4.865115,46.458927],[4.86381,46.459033],[4.863729,46.45904],[4.863687,46.459053],[4.863609,46.459025],[4.863617,46.459051],[4.863572,46.459034],[4.863525,46.459022],[4.861555,46.459339],[4.861466,46.459353],[4.861416,46.459342],[4.860652,46.458683],[4.860545,46.458576],[4.860517,46.458543],[4.859972,46.457889],[4.859794,46.457902],[4.858585,46.458015],[4.857752,46.458043],[4.85761,46.45804],[4.857482,46.458026],[4.857427,46.45801],[4.857462,46.458167],[4.857474,46.458305],[4.857484,46.458482],[4.857486,46.458602],[4.857499,46.458791],[4.857502,46.458841],[4.857572,46.458971],[4.857795,46.459306],[4.857854,46.459444],[4.857904,46.459601],[4.857956,46.459956],[4.858048,46.460301],[4.858145,46.460581],[4.858101,46.46059],[4.857155,46.460698],[4.856718,46.461037],[4.856618,46.461115],[4.856573,46.46115],[4.855632,46.461235],[4.855533,46.460847],[4.854875,46.460943],[4.854138,46.461062],[4.854142,46.461134],[4.85414,46.46115],[4.854125,46.461185],[4.854103,46.461227],[4.854094,46.461245],[4.854041,46.461298],[4.854002,46.461324],[4.85394,46.461365],[4.853732,46.46141],[4.852487,46.461655],[4.852489,46.461902],[4.852361,46.461897],[4.852185,46.461879],[4.851564,46.461778],[4.851506,46.461766],[4.8514,46.461656],[4.851302,46.461568],[4.851206,46.461558],[4.850894,46.461487],[4.850897,46.461461],[4.850886,46.461459],[4.850698,46.461422],[4.850281,46.461338],[4.849525,46.461166],[4.849382,46.461121],[4.849299,46.461109],[4.849175,46.461119],[4.849025,46.461137],[4.848814,46.461166],[4.848396,46.461221],[4.847826,46.461298],[4.847728,46.461311],[4.847727,46.461316],[4.84766,46.461331],[4.847597,46.461346],[4.846805,46.461527],[4.846772,46.461476],[4.846767,46.46147],[4.846741,46.461407],[4.845576,46.461656],[4.845202,46.461739],[4.844923,46.461801],[4.844794,46.461828],[4.844532,46.461695],[4.84451,46.461672],[4.844487,46.461643],[4.84444,46.461606],[4.844385,46.461573],[4.844318,46.461539],[4.84419,46.461475],[4.844152,46.461474],[4.844037,46.46148],[4.843951,46.461502],[4.843879,46.461517],[4.843834,46.461523],[4.843814,46.461396],[4.843812,46.461379],[4.843775,46.461327],[4.843769,46.46131],[4.843756,46.461186],[4.843733,46.46107],[4.843679,46.46094],[4.843653,46.460877],[4.843283,46.460973],[4.842932,46.461067],[4.842859,46.46105],[4.842315,46.461125],[4.84224,46.461137],[4.842113,46.461174],[4.842019,46.461169],[4.841974,46.46087],[4.841952,46.460698],[4.841945,46.460659],[4.841924,46.460538],[4.841882,46.46029],[4.841875,46.460222],[4.841867,46.460157],[4.841843,46.459889],[4.841838,46.459765],[4.84183,46.459652],[4.8413,46.459743],[4.840793,46.459828],[4.840774,46.460196],[4.840753,46.460199],[4.840714,46.460264],[4.840693,46.460303],[4.840651,46.460385],[4.840614,46.460456],[4.840578,46.46053],[4.840527,46.460633],[4.840432,46.460848],[4.840367,46.460991],[4.840344,46.461035],[4.840287,46.461149],[4.84022,46.461271],[4.840164,46.461369],[4.840091,46.461473],[4.839984,46.461605],[4.839947,46.461637],[4.839826,46.461729],[4.839609,46.461922],[4.839613,46.46196],[4.839619,46.461977],[4.839645,46.462029],[4.83968,46.462058],[4.839744,46.462117],[4.839802,46.462179],[4.83984,46.462222],[4.839852,46.462263],[4.839848,46.462415],[4.839875,46.462438],[4.83991,46.462473],[4.839945,46.462511],[4.839968,46.462543],[4.839999,46.462603],[4.840026,46.46267],[4.840047,46.462671],[4.83991,46.463],[4.839868,46.463241],[4.83983,46.463407],[4.839835,46.463534],[4.839875,46.463686],[4.839925,46.463906],[4.839993,46.464099],[4.84015,46.464302],[4.84038,46.464638],[4.840531,46.46486],[4.840626,46.464997],[4.840675,46.465165],[4.840753,46.465465],[4.840851,46.46582],[4.841019,46.466274],[4.841058,46.466344],[4.841099,46.466485],[4.841145,46.46668],[4.841185,46.4669],[4.841275,46.467451],[4.841292,46.467612],[4.841345,46.467833],[4.84137,46.467873],[4.841573,46.468428],[4.841608,46.468484],[4.841639,46.46855],[4.84166,46.468596],[4.841667,46.468671],[4.841671,46.46871],[4.841699,46.46881],[4.8417,46.468869],[4.841696,46.468903],[4.841702,46.468941],[4.841713,46.468997],[4.841683,46.469133],[4.841679,46.469172],[4.841799,46.469491],[4.841888,46.469664],[4.84198,46.469867],[4.842088,46.470099],[4.842139,46.470238],[4.842181,46.470333],[4.842206,46.470386],[4.842295,46.47053],[4.84252,46.470601],[4.842672,46.470644],[4.843195,46.470808],[4.843317,46.470831],[4.843558,46.470841],[4.843694,46.470832],[4.843757,46.470828],[4.843824,46.470831],[4.843935,46.47084],[4.844035,46.470848],[4.844103,46.470849],[4.844101,46.470895],[4.844099,46.470934],[4.844074,46.471305],[4.844065,46.471356],[4.843785,46.471306],[4.843767,46.47135],[4.8439,46.471507],[4.843936,46.471553],[4.843941,46.471564],[4.843945,46.471583],[4.843949,46.471612],[4.843958,46.471661],[4.843977,46.47172],[4.843954,46.471747],[4.843953,46.471767],[4.843959,46.471846],[4.843962,46.471959],[4.843961,46.471987],[4.843957,46.472005],[4.843948,46.472152],[4.843911,46.472197],[4.843909,46.472522],[4.843909,46.472735],[4.84391,46.472772],[4.843937,46.472789],[4.843932,46.472844],[4.843904,46.473119],[4.843885,46.473142],[4.843861,46.473176],[4.843786,46.473284],[4.843731,46.473374],[4.843624,46.473504],[4.843516,46.473631],[4.843387,46.473798],[4.843267,46.47401],[4.84321,46.474114],[4.843171,46.474189],[4.843161,46.474229],[4.843138,46.474307],[4.843077,46.474657],[4.843068,46.474758],[4.843061,46.474858],[4.843068,46.474889],[4.843089,46.475026],[4.843105,46.475123],[4.843146,46.475253],[4.843157,46.475289],[4.84341,46.475303],[4.843563,46.475333],[4.84409,46.475529],[4.8445,46.47566],[4.844606,46.475686],[4.845209,46.475783],[4.845617,46.475861],[4.845785,46.475894],[4.846159,46.475977],[4.846415,46.476097],[4.84661,46.476229],[4.846771,46.476327],[4.846767,46.476381],[4.846774,46.476408],[4.846829,46.476616],[4.846855,46.476739],[4.84687,46.476782],[4.84689,46.476823],[4.846941,46.476938],[4.84699,46.47708],[4.846988,46.477092],[4.846994,46.477113],[4.847014,46.47714],[4.847033,46.477166],[4.847115,46.477288],[4.84712,46.477301],[4.847122,46.477351],[4.847129,46.477377],[4.84715,46.477414],[4.847163,46.477445],[4.847237,46.477587],[4.847224,46.477768],[4.847179,46.477999],[4.847204,46.47813],[4.847209,46.478175],[4.847192,46.478367],[4.847171,46.478524],[4.84717,46.478546],[4.847169,46.47857],[4.847147,46.479788],[4.846841,46.479786],[4.846853,46.480095],[4.846856,46.480392],[4.846857,46.480473],[4.846861,46.480569],[4.846889,46.48111],[4.846908,46.481331],[4.846922,46.481549],[4.846936,46.481776],[4.846941,46.481847],[4.8471,46.481839],[4.84709,46.481916],[4.847062,46.482018],[4.847025,46.482137],[4.847026,46.482199],[4.847027,46.482255],[4.847026,46.482358],[4.847003,46.482521],[4.847005,46.482578],[4.846999,46.482688],[4.846954,46.482977],[4.84695,46.483118],[4.846963,46.483249],[4.846984,46.483459],[4.847014,46.483738],[4.847052,46.483919],[4.847064,46.483973],[4.846812,46.484022],[4.846813,46.484029],[4.846867,46.484372],[4.846915,46.484683],[4.846919,46.48474],[4.846934,46.484933],[4.846956,46.48512],[4.846958,46.485144],[4.847013,46.485365],[4.84707,46.485612],[4.847119,46.48587],[4.84714,46.485947],[4.847195,46.486166],[4.847286,46.486517],[4.847477,46.487268],[4.84737,46.487299],[4.847238,46.487371],[4.84717,46.487404],[4.847031,46.487458],[4.846939,46.487488],[4.846843,46.487525],[4.846761,46.487558],[4.846661,46.487592],[4.846532,46.487635],[4.846569,46.487794],[4.846647,46.488122],[4.846659,46.488174],[4.846579,46.488197],[4.846033,46.488345],[4.846096,46.488522],[4.846146,46.488698],[4.846528,46.489857],[4.846567,46.489981],[4.846376,46.490006],[4.846615,46.4908],[4.846657,46.49096],[4.846232,46.492435],[4.846255,46.492464],[4.8464,46.492617],[4.846465,46.492702],[4.84648,46.492723],[4.846694,46.492817],[4.846795,46.492864],[4.846907,46.49291],[4.847081,46.492969],[4.847319,46.493045],[4.847417,46.493067],[4.847642,46.49313],[4.847755,46.493165],[4.847981,46.49323],[4.848173,46.493286],[4.848598,46.493401],[4.848825,46.493502],[4.84903,46.493591],[4.849073,46.493604],[4.849475,46.493716],[4.849524,46.493724],[4.849979,46.493773],[4.849482,46.494354],[4.849399,46.494449],[4.849324,46.494535],[4.849311,46.49455],[4.84927,46.494597],[4.84926,46.494608],[4.8492,46.494676],[4.848899,46.495027],[4.848638,46.495332],[4.848444,46.495601],[4.849188,46.495989],[4.849296,46.496037],[4.849393,46.496077],[4.849501,46.496115],[4.849599,46.496147],[4.849675,46.496168],[4.849952,46.496236],[4.85016,46.496287],[4.85041,46.496347],[4.850254,46.49653],[4.850148,46.496734],[4.84995,46.497103],[4.849879,46.497242],[4.849946,46.497273],[4.850083,46.497303],[4.850192,46.497326],[4.850387,46.49735],[4.850555,46.497367],[4.850719,46.497388],[4.851067,46.49744],[4.851243,46.497494],[4.85129,46.497507],[4.851325,46.497434],[4.851326,46.49742],[4.851323,46.497405],[4.851239,46.497234],[4.85122,46.497142],[4.851201,46.496996],[4.851196,46.496895],[4.851195,46.496719],[4.851198,46.496588],[4.851222,46.496453],[4.851241,46.496402],[4.851301,46.496298],[4.851422,46.496111],[4.851448,46.496052],[4.851491,46.495984],[4.85163,46.495803],[4.851721,46.495704],[4.851946,46.49546],[4.852057,46.495375],[4.852158,46.49529],[4.852309,46.495211],[4.852515,46.495013],[4.852785,46.494781],[4.852943,46.494666],[4.85307,46.494567],[4.853094,46.494538],[4.853112,46.494507],[4.85312,46.494489],[4.853175,46.494342],[4.853228,46.494221],[4.853254,46.494175],[4.853284,46.494123],[4.853353,46.494029],[4.853402,46.493986],[4.853459,46.49394],[4.853613,46.493836],[4.853657,46.493804],[4.853853,46.493662],[4.853918,46.49361],[4.855816,46.494719],[4.855816,46.494621],[4.855808,46.49437],[4.855713,46.493932],[4.855684,46.493675],[4.855732,46.493597],[4.855749,46.493551],[4.855801,46.493406],[4.85583,46.493309],[4.855894,46.493131],[4.85595,46.492991],[4.856144,46.492767],[4.856171,46.492733],[4.856459,46.492397],[4.856699,46.49261],[4.856933,46.492749],[4.857052,46.492874],[4.857166,46.493004],[4.857239,46.493044],[4.85757,46.493211],[4.857797,46.493317],[4.858062,46.49344],[4.858126,46.493474],[4.858157,46.493495],[4.858569,46.493892],[4.858624,46.494024],[4.859051,46.494256],[4.859646,46.494193],[4.860057,46.494402],[4.860204,46.49436],[4.860352,46.494309],[4.860497,46.494255],[4.860614,46.494208],[4.860738,46.494154],[4.860861,46.494103],[4.860982,46.494053],[4.861098,46.494006],[4.861174,46.493974],[4.861229,46.493952],[4.861461,46.493854],[4.861579,46.493805],[4.861607,46.493792],[4.861626,46.49378],[4.861668,46.493741],[4.861669,46.49374],[4.861558,46.493539],[4.861445,46.493357],[4.861329,46.493159],[4.861201,46.492952],[4.861534,46.492865],[4.861613,46.492846],[4.861672,46.49283],[4.861752,46.492808],[4.861876,46.492774],[4.861933,46.492758],[4.862199,46.492691],[4.862446,46.492619],[4.862559,46.492589],[4.862626,46.49257],[4.862713,46.49255],[4.862852,46.492521],[4.863178,46.492457],[4.863296,46.492436],[4.863392,46.492423],[4.863589,46.492396],[4.863757,46.492361],[4.863842,46.492344],[4.863916,46.492329],[4.863973,46.492316],[4.863772,46.491829],[4.863796,46.491817],[4.864482,46.491489],[4.864615,46.491423],[4.864863,46.491298],[4.86505,46.491195],[4.865125,46.491153],[4.865438,46.490959],[4.865807,46.490733],[4.866188,46.490523],[4.86633,46.490442],[4.866815,46.490191],[4.867614,46.48987],[4.868,46.489736],[4.868237,46.489654],[4.868406,46.489894],[4.868752,46.48976],[4.868941,46.489662],[4.868963,46.489723],[4.869042,46.489938],[4.8691,46.490104],[4.869169,46.490301],[4.870668,46.489776],[4.87093,46.489693],[4.870776,46.489527],[4.872414,46.489062],[4.872535,46.489063],[4.873755,46.48866],[4.873842,46.48876],[4.875558,46.488116],[4.87608,46.487769],[4.876594,46.487442],[4.87695,46.487187],[4.877056,46.487143],[4.878085,46.486775],[4.878349,46.486689],[4.878927,46.486431],[4.879618,46.486124],[4.879667,46.486105],[4.879735,46.486463],[4.879992,46.486872],[4.880027,46.486903],[4.88042,46.487108],[4.880598,46.487224],[4.880815,46.487349],[4.88088,46.487317],[4.881255,46.487129],[4.881478,46.487018],[4.881565,46.486958],[4.881683,46.486846],[4.881702,46.486824],[4.881775,46.486739],[4.88188,46.486601],[4.882043,46.486352],[4.882188,46.486093],[4.882254,46.486012],[4.882344,46.48595],[4.882911,46.485703],[4.882948,46.485691],[4.883515,46.485509],[4.883974,46.485362],[4.885084,46.484997],[4.885428,46.485563],[4.885517,46.48571],[4.885089,46.485788],[4.886149,46.487155],[4.886178,46.487149],[4.886259,46.487286],[4.887117,46.487074],[4.887814,46.486903],[4.88813,46.487738],[4.890346,46.487219],[4.890351,46.487227],[4.890407,46.487217],[4.890579,46.487468],[4.89063,46.487443],[4.890907,46.487308],[4.89102,46.487227],[4.891213,46.487016],[4.891674,46.486554],[4.891997,46.486228],[4.89253,46.486356],[4.892763,46.486411],[4.892783,46.486416],[4.892818,46.486371],[4.893356,46.485462],[4.893535,46.485188],[4.893614,46.48512],[4.893703,46.485079],[4.894031,46.484979],[4.894164,46.484855],[4.894424,46.484546],[4.894512,46.484423],[4.894599,46.484357],[4.89472,46.484311],[4.894743,46.484262],[4.894779,46.48425],[4.895005,46.484249],[4.895078,46.484221],[4.895087,46.484127],[4.895102,46.484073],[4.895219,46.483982],[4.895254,46.483902],[4.895304,46.483891],[4.895484,46.483915],[4.89562,46.483981],[4.895681,46.48397],[4.895736,46.483956],[4.895895,46.483979],[4.895969,46.483988],[4.89606,46.483991],[4.89612,46.483966],[4.896181,46.483956],[4.896289,46.48399],[4.896384,46.484011],[4.896443,46.484029],[4.896535,46.484069],[4.896671,46.484097],[4.896699,46.484116],[4.896794,46.484228],[4.896819,46.484244],[4.896891,46.484275],[4.896945,46.484282],[4.897009,46.484298],[4.897146,46.484379],[4.897249,46.4844],[4.8974,46.484461],[4.89759,46.484462],[4.897702,46.484444],[4.897944,46.484385],[4.89806,46.484318],[4.898092,46.484306],[4.898267,46.484312],[4.8984,46.484321],[4.898448,46.484342],[4.898659,46.484269],[4.898722,46.484257],[4.898809,46.484256],[4.898887,46.484107],[4.898951,46.484094],[4.899048,46.484104],[4.899388,46.483914],[4.89944,46.483881],[4.899535,46.483852],[4.899631,46.483797],[4.899737,46.483714],[4.8998,46.483686],[4.899829,46.48366],[4.89991,46.483605],[4.899952,46.483556],[4.899946,46.483524],[4.900037,46.483219],[4.900057,46.483185],[4.900099,46.483167],[4.900175,46.483152],[4.900183,46.483151],[4.900235,46.483145],[4.900295,46.483137],[4.90031,46.483141],[4.900465,46.483122],[4.900571,46.483111],[4.900556,46.482796],[4.900735,46.482773],[4.90076,46.482764],[4.900981,46.482686],[4.901017,46.482657],[4.901149,46.48252],[4.901208,46.482497],[4.901367,46.482509],[4.901426,46.482492],[4.901498,46.482484],[4.901546,46.482494],[4.901578,46.482523],[4.901653,46.482611],[4.901676,46.482621],[4.901702,46.482619],[4.901785,46.482579],[4.901893,46.482627],[4.901943,46.482605],[4.901994,46.482572],[4.90208,46.482537],[4.902166,46.482522],[4.902241,46.482516],[4.902343,46.482485],[4.902446,46.482478],[4.902548,46.482431],[4.902706,46.482395],[4.902952,46.482374],[4.90314,46.482274],[4.903237,46.482221],[4.903255,46.482213],[4.903292,46.482221],[4.90336,46.482242],[4.903387,46.482235],[4.903454,46.482195],[4.903516,46.48216],[4.903592,46.482142],[4.903634,46.482111],[4.903651,46.482098],[4.9037,46.482068],[4.903837,46.482044],[4.904004,46.482034],[4.904279,46.482074],[4.904307,46.482071],[4.904406,46.482026],[4.904487,46.481997],[4.904609,46.481967],[4.904871,46.481896],[4.904938,46.481872],[4.905006,46.481842],[4.905079,46.481824],[4.905174,46.481814],[4.90532,46.481805],[4.90538,46.481797],[4.905423,46.481778],[4.905553,46.481729],[4.905897,46.481667],[4.906118,46.481631],[4.906289,46.481571],[4.906477,46.481502],[4.906774,46.481374],[4.906948,46.48131],[4.907084,46.481267],[4.907226,46.481236],[4.907434,46.481202],[4.907513,46.481173],[4.907676,46.481107],[4.90778,46.481068],[4.90791,46.481041],[4.908014,46.481039],[4.908082,46.481062],[4.908152,46.481121],[4.90821,46.481172],[4.908262,46.481205],[4.908314,46.481235],[4.908405,46.481334],[4.908468,46.48141],[4.908495,46.481434],[4.908531,46.481444],[4.908578,46.481435],[4.908683,46.481408],[4.909539,46.481235],[4.909762,46.481167],[4.909915,46.481114],[4.910111,46.481044],[4.910176,46.481027],[4.910218,46.481028],[4.910332,46.481059],[4.910362,46.481098],[4.910392,46.481151],[4.910411,46.481176],[4.910513,46.481258],[4.910537,46.481253],[4.910873,46.481183],[4.911716,46.481015],[4.911896,46.480977],[4.911877,46.480851],[4.911939,46.480808],[4.911891,46.480744],[4.912287,46.480628],[4.912431,46.480588],[4.912549,46.480576],[4.912667,46.480564],[4.912664,46.48059],[4.914389,46.480501],[4.914409,46.480215],[4.914497,46.479339],[4.914577,46.478749],[4.914688,46.478164],[4.914746,46.477876],[4.914833,46.477461],[4.914972,46.476907],[4.915102,46.476487],[4.91591,46.473781],[4.915907,46.473606],[4.915907,46.473093],[4.9159,46.472726],[4.915878,46.471566],[4.915784,46.470384],[4.915736,46.469928],[4.915696,46.469343],[4.915671,46.46897],[4.915752,46.468199],[4.915776,46.467968],[4.915698,46.467177],[4.915679,46.467093],[4.915544,46.466512],[4.915384,46.465886],[4.915213,46.465487],[4.914589,46.463931],[4.914586,46.463923],[4.914549,46.463781],[4.91436,46.463004],[4.914164,46.462501],[4.91397,46.462021],[4.913816,46.461632],[4.913218,46.460677],[4.91314,46.460553],[4.912868,46.460163],[4.912554,46.459736],[4.911964,46.459108],[4.911646,46.458791],[4.911451,46.458596],[4.911342,46.458489],[4.911175,46.458327],[4.910292,46.45765],[4.909629,46.45713],[4.909491,46.45703],[4.908844,46.456556],[4.90833,46.456227],[4.907547,46.455702],[4.907128,46.455436],[4.906308,46.454991],[4.905541,46.454628],[4.905387,46.454552],[4.904919,46.454323],[4.904537,46.454105],[4.904149,46.453855],[4.903576,46.45348],[4.903182,46.45321],[4.902798,46.45296],[4.902431,46.452713],[4.902028,46.45243],[4.901753,46.452243],[4.901198,46.451893],[4.900913,46.451728],[4.900081,46.451211],[4.89963,46.450916],[4.899453,46.450792],[4.899116,46.450531],[4.898754,46.450195],[4.898457,46.449891],[4.898235,46.449653],[4.898097,46.449491],[4.89808,46.449464],[4.898052,46.449438],[4.897802,46.449146],[4.897514,46.448819],[4.897248,46.448495],[4.896608,46.447726],[4.896548,46.447653],[4.896419,46.447515],[4.895949,46.447028],[4.895243,46.446225],[4.894918,46.445858],[4.894713,46.445634],[4.894599,46.445496],[4.892952,46.445966]]]]}}]}
