{"type":"FeatureCollection","features":[{"type":"Feature","id":"inao-denom-1736","properties":{"id":"inao-denom-1736","name":"Mâcon Vergisson","tier":"regional","kind":"appellation","appellationId":583,"denominationId":1736,"sourceName":"Mâcon Vergisson","communes":["71567"],"areaHa":218.95},"geometry":{"type":"MultiPolygon","coordinates":[[[[4.705096,46.301344],[4.704894,46.30132],[4.704868,46.301305],[4.704575,46.301301],[4.704415,46.3013],[4.704187,46.301251],[4.704039,46.301636],[4.70428,46.301683],[4.704607,46.30177],[4.704633,46.30177],[4.704916,46.301815],[4.704936,46.301822],[4.705032,46.301847],[4.705269,46.3019],[4.70536,46.301915],[4.706098,46.302062],[4.706158,46.301946],[4.706191,46.301877],[4.706178,46.301787],[4.706133,46.301778],[4.706166,46.301648],[4.706228,46.301477],[4.706271,46.301295],[4.706224,46.301294],[4.706054,46.301322],[4.705842,46.301387],[4.705544,46.301435],[4.705332,46.301386],[4.705096,46.301344]]],[[[4.710063,46.301711],[4.70999,46.301685],[4.709895,46.301709],[4.709777,46.301738],[4.709673,46.301735],[4.709711,46.301859],[4.709459,46.301898],[4.709463,46.301948],[4.708817,46.301838],[4.708773,46.302217],[4.70901,46.30224],[4.709239,46.302262],[4.709401,46.302256],[4.709483,46.302277],[4.709673,46.302292],[4.709853,46.302289],[4.710051,46.30226],[4.710198,46.302241],[4.710382,46.302219],[4.710352,46.302132],[4.710367,46.30213],[4.71034,46.302054],[4.710344,46.301944],[4.710319,46.30178],[4.710201,46.301756],[4.710063,46.301711]]],[[[4.709093,46.302274],[4.708795,46.30225],[4.708719,46.302244],[4.708881,46.302787],[4.708936,46.302949],[4.709144,46.302925],[4.70924,46.302907],[4.709553,46.302832],[4.709777,46.302785],[4.709906,46.30277],[4.710156,46.302735],[4.710266,46.30273],[4.710383,46.30273],[4.710557,46.30277],[4.710561,46.302524],[4.710546,46.302431],[4.71048,46.302293],[4.710291,46.302246],[4.710093,46.302287],[4.709847,46.302324],[4.709497,46.302304],[4.709093,46.302274]]],[[[4.710584,46.304739],[4.710795,46.304827],[4.710859,46.304846],[4.710921,46.304862],[4.711021,46.304891],[4.711034,46.304894],[4.71128,46.304965],[4.711392,46.304998],[4.711516,46.305031],[4.711664,46.30507],[4.711733,46.305064],[4.711754,46.305036],[4.711822,46.304905],[4.711936,46.304736],[4.711724,46.304673],[4.711476,46.304597],[4.711152,46.304496],[4.710713,46.304385],[4.710376,46.304308],[4.710519,46.3046],[4.710584,46.304739]]],[[[4.710125,46.305556],[4.709919,46.305586],[4.709359,46.30563],[4.708608,46.305685],[4.708658,46.305948],[4.709969,46.305867],[4.709985,46.306036],[4.709945,46.306039],[4.710148,46.306351],[4.7104,46.306245],[4.710816,46.306149],[4.710893,46.306109],[4.710962,46.30594],[4.710929,46.305909],[4.710914,46.305857],[4.710733,46.305718],[4.710601,46.305593],[4.710364,46.305563],[4.710219,46.305552],[4.710125,46.305556]]],[[[4.712178,46.306145],[4.711988,46.306095],[4.711933,46.306076],[4.711862,46.306042],[4.711648,46.305935],[4.711528,46.305907],[4.711451,46.305897],[4.711154,46.305881],[4.711099,46.305882],[4.71107,46.305888],[4.710999,46.305874],[4.710998,46.305956],[4.710951,46.306081],[4.710928,46.306108],[4.710928,46.306304],[4.710931,46.306381],[4.710502,46.306484],[4.710502,46.306501],[4.710106,46.306622],[4.709861,46.306664],[4.70986,46.306752],[4.709212,46.306865],[4.709215,46.307023],[4.709937,46.306955],[4.710215,46.306934],[4.710942,46.306688],[4.711083,46.306674],[4.711182,46.306678],[4.711265,46.30669],[4.711389,46.306715],[4.711633,46.306777],[4.711737,46.306799],[4.711895,46.30682],[4.711989,46.306831],[4.712132,46.306842],[4.712238,46.306843],[4.712381,46.306829],[4.712488,46.306807],[4.712565,46.306777],[4.712638,46.306746],[4.712687,46.306732],[4.712835,46.306696],[4.71286,46.306692],[4.712957,46.306688],[4.712966,46.30668],[4.712966,46.30667],[4.712833,46.306572],[4.712699,46.306477],[4.712568,46.306349],[4.712447,46.306255],[4.712248,46.306169],[4.712178,46.306145]]],[[[4.708708,46.30751],[4.708324,46.307832],[4.708413,46.307871],[4.707899,46.308595],[4.708361,46.308858],[4.708277,46.308943],[4.708604,46.309095],[4.70863,46.309104],[4.708779,46.308838],[4.708953,46.308602],[4.709166,46.308292],[4.709378,46.308136],[4.709606,46.30798],[4.709883,46.307774],[4.709942,46.307773],[4.710148,46.307778],[4.710316,46.307764],[4.71046,46.307745],[4.710586,46.307489],[4.710705,46.307235],[4.710841,46.307056],[4.710894,46.306954],[4.710951,46.306755],[4.710296,46.306976],[4.710214,46.306998],[4.709245,46.307091],[4.709175,46.307123],[4.709154,46.307103],[4.709141,46.307105],[4.708708,46.30751]]],[[[4.714013,46.307199],[4.713983,46.30718],[4.713925,46.307154],[4.713837,46.307131],[4.713742,46.307113],[4.713647,46.307098],[4.713583,46.307093],[4.713471,46.30709],[4.713224,46.307093],[4.713082,46.307093],[4.712991,46.307089],[4.712866,46.307075],[4.712565,46.307019],[4.712211,46.306952],[4.711694,46.306856],[4.711157,46.306746],[4.71104,46.306734],[4.710986,46.306847],[4.710971,46.306879],[4.710911,46.30704],[4.710775,46.307249],[4.710711,46.307385],[4.710604,46.307593],[4.710514,46.307763],[4.710504,46.307769],[4.710492,46.307775],[4.710655,46.308001],[4.710795,46.308183],[4.710674,46.30826],[4.710571,46.308335],[4.710436,46.307793],[4.710199,46.307808],[4.709971,46.307813],[4.70993,46.307815],[4.709889,46.307834],[4.709743,46.307927],[4.709449,46.308135],[4.709236,46.308272],[4.709137,46.308383],[4.709078,46.308479],[4.708965,46.308654],[4.70888,46.308769],[4.708803,46.308895],[4.708748,46.308987],[4.708694,46.309071],[4.708663,46.309126],[4.708647,46.309327],[4.708634,46.309396],[4.708605,46.30958],[4.708584,46.309751],[4.708577,46.309885],[4.708571,46.310104],[4.708544,46.310201],[4.708473,46.310477],[4.708414,46.310604],[4.708351,46.310709],[4.708432,46.310744],[4.708479,46.310755],[4.708669,46.310791],[4.708587,46.311002],[4.709094,46.311043],[4.709094,46.311047],[4.709233,46.31109],[4.709279,46.311103],[4.709356,46.311077],[4.709437,46.311052],[4.709439,46.31102],[4.709589,46.31103],[4.709676,46.311027],[4.7097,46.311019],[4.709724,46.311],[4.709735,46.310981],[4.709748,46.310976],[4.709853,46.310974],[4.709931,46.310968],[4.709995,46.310948],[4.710176,46.310872],[4.710284,46.31102],[4.710305,46.311047],[4.710628,46.310943],[4.710511,46.310708],[4.710603,46.310709],[4.710749,46.310657],[4.710762,46.31067],[4.710868,46.310616],[4.71113,46.310462],[4.711148,46.310446],[4.711162,46.310436],[4.711198,46.310401],[4.711226,46.310318],[4.711248,46.310293],[4.711267,46.310304],[4.711287,46.310284],[4.711277,46.310278],[4.711334,46.310215],[4.711316,46.310206],[4.711264,46.310169],[4.711139,46.310082],[4.711201,46.310025],[4.711295,46.310072],[4.711305,46.310071],[4.711385,46.310103],[4.711401,46.31011],[4.711617,46.310216],[4.711676,46.31017],[4.711736,46.310132],[4.71169,46.310101],[4.711506,46.309975],[4.71169,46.30983],[4.711742,46.309792],[4.711781,46.309763],[4.71183,46.309722],[4.711881,46.309799],[4.711924,46.309843],[4.712015,46.309939],[4.71202,46.309946],[4.712096,46.309899],[4.712059,46.309872],[4.712043,46.309843],[4.712011,46.30976],[4.711985,46.30965],[4.711974,46.309624],[4.711945,46.309582],[4.711951,46.309575],[4.712036,46.309469],[4.712161,46.30936],[4.712186,46.309336],[4.712245,46.309283],[4.712327,46.309207],[4.712222,46.309151],[4.712378,46.309039],[4.712459,46.30909],[4.712502,46.309053],[4.712556,46.30908],[4.712614,46.309113],[4.712625,46.30912],[4.712639,46.309086],[4.712644,46.309069],[4.71267,46.309016],[4.712702,46.308977],[4.712732,46.308942],[4.712755,46.308922],[4.71288,46.308827],[4.712953,46.308766],[4.713009,46.308709],[4.713047,46.308669],[4.71306,46.308638],[4.712969,46.30858],[4.712902,46.30856],[4.712829,46.308538],[4.712795,46.308567],[4.712761,46.308598],[4.71273,46.308567],[4.71268,46.308517],[4.712707,46.308488],[4.712744,46.308446],[4.713091,46.308605],[4.71317,46.308533],[4.713052,46.308479],[4.713129,46.3084],[4.712996,46.308351],[4.713013,46.308339],[4.712893,46.308273],[4.712707,46.308431],[4.712627,46.308391],[4.712734,46.308299],[4.712724,46.308291],[4.712841,46.308206],[4.712947,46.308114],[4.712966,46.308096],[4.713001,46.308116],[4.713047,46.308143],[4.713175,46.308036],[4.713415,46.30783],[4.713499,46.307879],[4.713741,46.308019],[4.713735,46.308023],[4.713756,46.308037],[4.713782,46.308019],[4.713819,46.308016],[4.713962,46.307939],[4.714013,46.307912],[4.714042,46.30789],[4.714132,46.307799],[4.714173,46.307745],[4.714194,46.307695],[4.714226,46.307559],[4.714197,46.307528],[4.714139,46.307446],[4.714095,46.307311],[4.714074,46.307261],[4.714042,46.307219],[4.714013,46.307199]]],[[[4.707248,46.310103],[4.707204,46.31024],[4.707199,46.310285],[4.707228,46.310316],[4.707361,46.310376],[4.707448,46.310428],[4.707558,46.310502],[4.707647,46.310403],[4.707626,46.31039],[4.707639,46.310374],[4.707704,46.310401],[4.707755,46.310342],[4.707879,46.310383],[4.708379,46.310515],[4.708509,46.310138],[4.708501,46.309888],[4.70854,46.309601],[4.708523,46.309596],[4.707906,46.309403],[4.707598,46.309216],[4.707408,46.309606],[4.707315,46.309805],[4.707271,46.309995],[4.707248,46.310103]]],[[[4.7075,46.310517],[4.707394,46.310429],[4.707282,46.310377],[4.707005,46.310315],[4.706759,46.310294],[4.706772,46.310258],[4.706555,46.310208],[4.70646,46.310169],[4.706374,46.310082],[4.706185,46.309788],[4.706061,46.309595],[4.705749,46.309683],[4.70558,46.309751],[4.705377,46.309819],[4.705357,46.309912],[4.705351,46.310046],[4.705359,46.310388],[4.705289,46.310933],[4.705305,46.310988],[4.705338,46.311052],[4.705401,46.31111],[4.705513,46.31116],[4.705636,46.311175],[4.705811,46.311166],[4.70624,46.311123],[4.706495,46.311105],[4.706604,46.311119],[4.706666,46.311069],[4.706834,46.310952],[4.707174,46.310758],[4.707265,46.310726],[4.707215,46.310786],[4.706998,46.310958],[4.706735,46.311143],[4.706844,46.311192],[4.706916,46.311242],[4.706976,46.311295],[4.707027,46.311351],[4.707109,46.311443],[4.707177,46.311501],[4.707255,46.311543],[4.707343,46.311571],[4.707414,46.311584],[4.707538,46.311584],[4.707667,46.311578],[4.707844,46.311569],[4.708139,46.311517],[4.70816,46.311494],[4.708189,46.311286],[4.708216,46.31116],[4.708208,46.311044],[4.708179,46.310856],[4.708167,46.310828],[4.70783,46.310706],[4.707604,46.310582],[4.707477,46.310539],[4.7075,46.310517]]],[[[4.711499,46.310416],[4.711374,46.310616],[4.711355,46.310678],[4.711214,46.310863],[4.711149,46.310927],[4.71106,46.310996],[4.710886,46.311167],[4.710869,46.311204],[4.710861,46.31123],[4.710858,46.31128],[4.710871,46.311311],[4.710912,46.311359],[4.71099,46.311411],[4.711046,46.311448],[4.711114,46.311492],[4.711133,46.311482],[4.711354,46.311623],[4.711471,46.311585],[4.711582,46.311355],[4.711723,46.311067],[4.711728,46.311071],[4.711757,46.311011],[4.71178,46.31097],[4.711813,46.310928],[4.711853,46.310889],[4.711934,46.310838],[4.711776,46.310547],[4.711686,46.310404],[4.711658,46.310361],[4.711615,46.310296],[4.711599,46.310307],[4.711526,46.310376],[4.711499,46.310416]]],[[[4.709987,46.311577],[4.709965,46.311495],[4.709552,46.31154],[4.709179,46.311576],[4.708865,46.311603],[4.708505,46.311622],[4.708284,46.311631],[4.708002,46.311641],[4.707593,46.311655],[4.707391,46.311653],[4.707256,46.311627],[4.707227,46.311654],[4.706882,46.311514],[4.706776,46.311467],[4.706682,46.311427],[4.706442,46.311311],[4.706471,46.311288],[4.706504,46.311199],[4.706508,46.311163],[4.706345,46.311172],[4.706095,46.311201],[4.705856,46.311253],[4.705834,46.3113],[4.705523,46.311349],[4.705494,46.311365],[4.705645,46.311487],[4.705833,46.311598],[4.705937,46.31165],[4.705998,46.311713],[4.706018,46.311765],[4.706145,46.311909],[4.706221,46.312024],[4.706223,46.312026],[4.706078,46.312164],[4.70608,46.312191],[4.706145,46.312526],[4.706166,46.312708],[4.706178,46.312849],[4.706173,46.3129],[4.706178,46.312953],[4.706293,46.313133],[4.706319,46.313183],[4.706348,46.313287],[4.70636,46.313403],[4.706363,46.313546],[4.70635,46.313618],[4.706386,46.313941],[4.706407,46.314288],[4.70668,46.314244],[4.706752,46.314244],[4.706928,46.314253],[4.707157,46.31426],[4.707414,46.314232],[4.707577,46.31421],[4.70775,46.314168],[4.707934,46.314117],[4.708173,46.314046],[4.708355,46.313996],[4.708799,46.31388],[4.708888,46.313824],[4.70921,46.3136],[4.709434,46.313427],[4.709533,46.313328],[4.709579,46.313278],[4.709591,46.313241],[4.709602,46.313143],[4.70964,46.313036],[4.709706,46.312925],[4.709829,46.312705],[4.710015,46.312366],[4.710066,46.31225],[4.710263,46.311872],[4.710298,46.311815],[4.710342,46.311752],[4.710397,46.311675],[4.710453,46.311613],[4.710522,46.311531],[4.710561,46.311482],[4.710657,46.311365],[4.710528,46.311348],[4.71038,46.311354],[4.710359,46.311369],[4.710344,46.31138],[4.710063,46.311476],[4.710082,46.311565],[4.709987,46.311577]]],[[[4.711807,46.312983],[4.711704,46.312904],[4.711646,46.312839],[4.711558,46.312707],[4.711512,46.312582],[4.711484,46.312488],[4.71133,46.31251],[4.711232,46.312532],[4.711213,46.312534],[4.711084,46.312557],[4.710981,46.312293],[4.711192,46.312252],[4.711144,46.31213],[4.711431,46.312111],[4.711415,46.312008],[4.711405,46.31194],[4.711391,46.311781],[4.711372,46.311739],[4.711357,46.311714],[4.711308,46.311674],[4.711275,46.311658],[4.711175,46.311592],[4.711021,46.311476],[4.710927,46.311424],[4.710865,46.311398],[4.710801,46.311384],[4.71074,46.31138],[4.710705,46.311394],[4.710686,46.311402],[4.710576,46.31151],[4.710498,46.311597],[4.710422,46.31171],[4.710258,46.311941],[4.7102,46.312035],[4.710159,46.312117],[4.710105,46.312224],[4.710003,46.312421],[4.709961,46.312504],[4.709861,46.312694],[4.709643,46.313113],[4.709621,46.313185],[4.709625,46.313243],[4.709644,46.313301],[4.709698,46.313379],[4.709733,46.313422],[4.709779,46.313526],[4.709814,46.313648],[4.709858,46.313732],[4.7098,46.313772],[4.709766,46.313844],[4.709759,46.313914],[4.709747,46.313949],[4.709745,46.31407],[4.709737,46.314139],[4.709731,46.3142],[4.709728,46.314274],[4.70973,46.314351],[4.709741,46.314454],[4.709757,46.314553],[4.709717,46.314642],[4.709698,46.314642],[4.709653,46.31473],[4.709685,46.314735],[4.709604,46.314864],[4.709594,46.314864],[4.70955,46.314975],[4.70949,46.315081],[4.709407,46.315207],[4.709378,46.315268],[4.709346,46.315325],[4.709274,46.315441],[4.709216,46.31554],[4.709211,46.315596],[4.709432,46.315615],[4.709735,46.315631],[4.71034,46.315618],[4.711336,46.315635],[4.711571,46.315637],[4.71164,46.315633],[4.711674,46.315625],[4.711696,46.31561],[4.711711,46.315546],[4.711732,46.315462],[4.711744,46.315419],[4.711757,46.315369],[4.711794,46.315259],[4.711839,46.315153],[4.711894,46.315038],[4.71196,46.314907],[4.711994,46.314823],[4.712025,46.314743],[4.712052,46.314666],[4.712076,46.314586],[4.712086,46.314557],[4.712189,46.314234],[4.712314,46.313844],[4.712385,46.313659],[4.712395,46.313595],[4.712397,46.313527],[4.712376,46.313426],[4.712333,46.313355],[4.712281,46.313302],[4.712235,46.313251],[4.712113,46.313171],[4.711989,46.313098],[4.711807,46.312983]]],[[[4.708746,46.313927],[4.708628,46.313957],[4.708484,46.313986],[4.708249,46.314059],[4.708007,46.314151],[4.707757,46.314209],[4.70758,46.31425],[4.707567,46.314275],[4.707498,46.314279],[4.706724,46.314302],[4.706704,46.314315],[4.706662,46.314467],[4.706621,46.314615],[4.706593,46.314759],[4.706597,46.314845],[4.706607,46.314937],[4.706638,46.315184],[4.706737,46.315323],[4.706547,46.315339],[4.706623,46.315641],[4.707773,46.315577],[4.707854,46.315567],[4.708122,46.315552],[4.708343,46.315522],[4.708429,46.315523],[4.708794,46.315553],[4.709,46.315571],[4.709163,46.315517],[4.709245,46.315437],[4.709363,46.31516],[4.709444,46.315013],[4.709496,46.314935],[4.709623,46.314696],[4.709654,46.314596],[4.709662,46.314393],[4.709676,46.31423],[4.709699,46.314157],[4.709712,46.314043],[4.709708,46.313973],[4.709722,46.313799],[4.709738,46.3138],[4.709741,46.313746],[4.70974,46.313632],[4.709712,46.313534],[4.709675,46.313447],[4.709606,46.31337],[4.709428,46.3135],[4.709242,46.313652],[4.708811,46.31393],[4.708746,46.313927]]],[[[4.708183,46.317281],[4.708152,46.317135],[4.708138,46.317076],[4.708116,46.316974],[4.708078,46.316803],[4.708039,46.316623],[4.707999,46.316452],[4.707958,46.316277],[4.707947,46.316227],[4.707797,46.315682],[4.706944,46.315897],[4.706927,46.316172],[4.706544,46.316182],[4.706538,46.316097],[4.706068,46.316178],[4.705843,46.316256],[4.705829,46.316283],[4.705835,46.316334],[4.705906,46.316487],[4.705943,46.316572],[4.705946,46.316643],[4.705941,46.316747],[4.705909,46.316913],[4.705893,46.317015],[4.705887,46.31712],[4.705878,46.317274],[4.705811,46.317272],[4.705734,46.317536],[4.705672,46.31777],[4.705639,46.317906],[4.70564,46.317987],[4.705661,46.31823],[4.705685,46.31839],[4.705722,46.318657],[4.705766,46.318988],[4.706378,46.319023],[4.707005,46.319042],[4.708134,46.319057],[4.708223,46.31874],[4.708294,46.318532],[4.708303,46.318443],[4.708312,46.318207],[4.708306,46.318044],[4.708301,46.317956],[4.70829,46.317829],[4.708266,46.317622],[4.708234,46.317484],[4.708183,46.317281]]],[[[4.705054,46.318049],[4.705063,46.318127],[4.705119,46.318127],[4.705101,46.318373],[4.705334,46.318381],[4.705644,46.318384],[4.705623,46.31814],[4.705615,46.318065],[4.705612,46.317987],[4.705611,46.317905],[4.705633,46.317771],[4.705701,46.317538],[4.705777,46.317267],[4.705197,46.317217],[4.705168,46.317518],[4.705152,46.317745],[4.705142,46.317895],[4.705132,46.317974],[4.705045,46.317975],[4.705054,46.318049]]],[[[4.710249,46.315814],[4.71006,46.31595],[4.710053,46.31594],[4.709926,46.315944],[4.709787,46.315948],[4.709478,46.315925],[4.709217,46.31588],[4.709045,46.31583],[4.708907,46.31577],[4.708733,46.315663],[4.708645,46.315629],[4.708571,46.315616],[4.708486,46.315605],[4.708297,46.315606],[4.708215,46.315614],[4.70814,46.31563],[4.708061,46.315653],[4.708022,46.315675],[4.707998,46.315704],[4.707982,46.315852],[4.708002,46.316013],[4.708052,46.316297],[4.708102,46.316438],[4.708173,46.316428],[4.708189,46.316755],[4.70819,46.316903],[4.708263,46.3172],[4.708333,46.317535],[4.70839,46.317919],[4.708431,46.318218],[4.708392,46.318534],[4.708362,46.318673],[4.708336,46.318672],[4.708286,46.31888],[4.708242,46.318924],[4.708216,46.319032],[4.708107,46.319395],[4.708041,46.319581],[4.707926,46.319733],[4.707734,46.319967],[4.707514,46.320225],[4.708169,46.320285],[4.708134,46.320382],[4.708684,46.320414],[4.709082,46.320436],[4.709477,46.320456],[4.70944,46.320837],[4.709247,46.320829],[4.709217,46.321004],[4.709216,46.321024],[4.709214,46.32112],[4.70921,46.321154],[4.709188,46.321251],[4.709118,46.321484],[4.709278,46.321503],[4.709545,46.32156],[4.709763,46.321629],[4.709858,46.32166],[4.709955,46.321702],[4.71005,46.321767],[4.710055,46.322208],[4.710259,46.322083],[4.710567,46.321908],[4.710628,46.321889],[4.710824,46.321836],[4.710839,46.321814],[4.710927,46.321815],[4.711069,46.321593],[4.711187,46.321379],[4.711343,46.320846],[4.711407,46.320433],[4.711428,46.320309],[4.711493,46.319942],[4.711558,46.31957],[4.711595,46.319417],[4.711624,46.319253],[4.711598,46.319058],[4.711578,46.31887],[4.711562,46.318786],[4.711518,46.318557],[4.711446,46.318153],[4.71145,46.318002],[4.711464,46.317872],[4.711515,46.317581],[4.711539,46.317408],[4.711546,46.317304],[4.711547,46.316931],[4.711553,46.316655],[4.711575,46.316326],[4.711607,46.316117],[4.711649,46.315877],[4.711673,46.315726],[4.711629,46.315706],[4.71152,46.3157],[4.710948,46.315707],[4.710524,46.315695],[4.710422,46.315716],[4.710323,46.315762],[4.710249,46.315814]]],[[[4.711184,46.321786],[4.711394,46.321751],[4.71161,46.321706],[4.711662,46.321694],[4.712006,46.321629],[4.712457,46.321592],[4.712465,46.321298],[4.712002,46.321299],[4.711618,46.321299],[4.711319,46.321298],[4.711178,46.321608],[4.711092,46.321771],[4.711114,46.321782],[4.711184,46.321786]]],[[[4.710838,46.322204],[4.710795,46.322283],[4.710661,46.322526],[4.710551,46.322724],[4.71049,46.322845],[4.710831,46.322851],[4.711439,46.322878],[4.711988,46.322915],[4.712077,46.322941],[4.71208,46.322894],[4.712135,46.322859],[4.712206,46.322823],[4.712409,46.322711],[4.71246,46.322661],[4.712465,46.322376],[4.712471,46.322306],[4.712481,46.322238],[4.712485,46.322092],[4.712489,46.321971],[4.712517,46.321823],[4.712526,46.32161],[4.711908,46.321677],[4.711629,46.321731],[4.71138,46.321786],[4.71104,46.321846],[4.710921,46.322052],[4.710878,46.322139],[4.710838,46.322204]]],[[[4.713571,46.301617],[4.713554,46.301589],[4.713507,46.30154],[4.713393,46.301433],[4.713337,46.301329],[4.71329,46.30121],[4.713273,46.301173],[4.71328,46.301089],[4.713373,46.300993],[4.713398,46.300976],[4.713459,46.300962],[4.713303,46.300737],[4.713366,46.300716],[4.713363,46.300678],[4.713304,46.300563],[4.713274,46.300358],[4.713222,46.300354],[4.713101,46.30022],[4.712995,46.300221],[4.713029,46.300181],[4.71293,46.300066],[4.712994,46.300054],[4.71304,46.300012],[4.713053,46.299981],[4.71304,46.299895],[4.713031,46.299753],[4.713008,46.299591],[4.712993,46.299455],[4.712943,46.299257],[4.71291,46.299255],[4.712849,46.29908],[4.711675,46.299164],[4.711742,46.299317],[4.711769,46.299575],[4.71179,46.299686],[4.711863,46.299845],[4.711923,46.299977],[4.711918,46.300095],[4.711923,46.300117],[4.711947,46.300165],[4.71193,46.300244],[4.711843,46.300243],[4.711851,46.300322],[4.711863,46.300321],[4.711868,46.300438],[4.711809,46.300523],[4.711783,46.300597],[4.711766,46.300719],[4.711756,46.300966],[4.711692,46.300983],[4.711624,46.300967],[4.711615,46.300928],[4.711571,46.30089],[4.71154,46.30084],[4.711253,46.300935],[4.711155,46.300965],[4.710942,46.300998],[4.710792,46.30102],[4.710767,46.301056],[4.71078,46.301062],[4.710786,46.301134],[4.710812,46.301217],[4.710824,46.301237],[4.710851,46.30128],[4.710883,46.30131],[4.71098,46.301349],[4.710977,46.301419],[4.710987,46.301454],[4.711044,46.30152],[4.711169,46.301652],[4.711178,46.301669],[4.711214,46.301741],[4.711241,46.301772],[4.711272,46.301788],[4.711302,46.301797],[4.711414,46.301805],[4.711596,46.301812],[4.711702,46.301814],[4.711887,46.30183],[4.71208,46.301846],[4.712277,46.301855],[4.71239,46.301855],[4.712493,46.301873],[4.71264,46.301922],[4.712846,46.302045],[4.713036,46.302173],[4.713293,46.302294],[4.713375,46.302318],[4.713569,46.302398],[4.713766,46.302362],[4.713719,46.30214],[4.713691,46.302055],[4.713663,46.301996],[4.713483,46.30168],[4.713585,46.30168],[4.713581,46.301651],[4.713571,46.301617]]],[[[4.713847,46.30302],[4.713842,46.302913],[4.71382,46.302822],[4.713789,46.302767],[4.713744,46.30266],[4.713698,46.30255],[4.713669,46.302517],[4.713632,46.302487],[4.713571,46.302453],[4.713478,46.302407],[4.713372,46.302366],[4.713143,46.302271],[4.713054,46.302235],[4.712995,46.3022],[4.712872,46.302116],[4.712657,46.301976],[4.712612,46.301956],[4.712562,46.301939],[4.712466,46.301912],[4.71242,46.301902],[4.712356,46.301894],[4.712058,46.301886],[4.711857,46.301868],[4.711749,46.301858],[4.711637,46.301855],[4.711515,46.301859],[4.711476,46.301859],[4.711466,46.301867],[4.711211,46.302044],[4.711155,46.30216],[4.711289,46.302234],[4.711303,46.302311],[4.711242,46.302329],[4.711218,46.302356],[4.711158,46.302373],[4.711087,46.302434],[4.711036,46.302538],[4.711013,46.302609],[4.71089,46.302683],[4.710814,46.302793],[4.710771,46.302849],[4.710696,46.302928],[4.710746,46.302968],[4.7108,46.303004],[4.710902,46.303065],[4.711024,46.3031],[4.711101,46.303123],[4.711238,46.303143],[4.711256,46.303214],[4.711314,46.303326],[4.711305,46.303402],[4.711299,46.303448],[4.711303,46.303518],[4.71131,46.303626],[4.711316,46.303679],[4.711325,46.303708],[4.711343,46.303744],[4.711412,46.303812],[4.711462,46.303855],[4.711507,46.303886],[4.711547,46.303929],[4.711617,46.303995],[4.71167,46.304045],[4.711742,46.304095],[4.711837,46.304153],[4.711995,46.304244],[4.712019,46.30426],[4.712061,46.304298],[4.712103,46.304361],[4.712117,46.304389],[4.712125,46.304492],[4.712002,46.304656],[4.71207,46.304669],[4.712207,46.304675],[4.712391,46.304664],[4.712512,46.304647],[4.712518,46.304606],[4.712971,46.304533],[4.71296,46.304455],[4.71302,46.304447],[4.713158,46.304475],[4.713269,46.304437],[4.71332,46.304414],[4.713386,46.304373],[4.713425,46.304326],[4.713495,46.304213],[4.713552,46.304157],[4.713615,46.304105],[4.713665,46.304078],[4.713713,46.304057],[4.71351,46.304094],[4.71346,46.303956],[4.713593,46.303928],[4.713589,46.303915],[4.713548,46.303837],[4.713517,46.303782],[4.713741,46.303729],[4.713614,46.303554],[4.713652,46.303539],[4.713667,46.303535],[4.713868,46.303456],[4.713889,46.303439],[4.713895,46.30342],[4.713871,46.303363],[4.713891,46.303358],[4.713872,46.303269],[4.713884,46.303267],[4.713887,46.303184],[4.713875,46.303114],[4.713847,46.30302]]],[[[4.713478,46.306267],[4.713178,46.306295],[4.713011,46.306341],[4.712879,46.306391],[4.712812,46.306427],[4.712786,46.306452],[4.712776,46.306465],[4.712795,46.306487],[4.712905,46.306569],[4.713051,46.306665],[4.713212,46.306755],[4.713408,46.30681],[4.713577,46.306844],[4.713772,46.306888],[4.713833,46.306903],[4.713986,46.306707],[4.714289,46.306308],[4.713941,46.306277],[4.71378,46.306272],[4.713781,46.306253],[4.71364,46.306266],[4.713549,46.306266],[4.713478,46.306267]]],[[[4.713253,46.306811],[4.713139,46.306776],[4.71294,46.306737],[4.712876,46.306734],[4.71284,46.306739],[4.712738,46.30676],[4.712673,46.30678],[4.712543,46.306825],[4.712405,46.30686],[4.712353,46.306869],[4.712168,46.306873],[4.712167,46.306877],[4.712231,46.306889],[4.712461,46.306928],[4.712702,46.306967],[4.712804,46.306984],[4.71289,46.306997],[4.713057,46.307013],[4.71323,46.307019],[4.713361,46.307019],[4.713484,46.307017],[4.713612,46.307021],[4.713677,46.307027],[4.713747,46.307037],[4.713862,46.307056],[4.713978,46.307083],[4.714011,46.307049],[4.713927,46.307005],[4.713833,46.306956],[4.713764,46.30693],[4.71366,46.306902],[4.713506,46.306866],[4.713362,46.306837],[4.713253,46.306811]]],[[[4.717192,46.307244],[4.71716,46.30722],[4.717104,46.307174],[4.717071,46.307142],[4.717021,46.307095],[4.716998,46.307075],[4.71697,46.307031],[4.716942,46.306985],[4.716916,46.306944],[4.716836,46.306803],[4.716812,46.306779],[4.716776,46.306752],[4.716716,46.306736],[4.71662,46.306712],[4.716418,46.30667],[4.716177,46.306622],[4.715999,46.306586],[4.715928,46.306586],[4.715796,46.306586],[4.715628,46.306564],[4.715557,46.30655],[4.715484,46.30653],[4.715387,46.306625],[4.715288,46.306581],[4.715189,46.306564],[4.714963,46.306521],[4.714894,46.306503],[4.714657,46.306445],[4.71448,46.306397],[4.714402,46.306376],[4.714318,46.306352],[4.714244,46.306435],[4.714152,46.306557],[4.714225,46.306579],[4.714259,46.306584],[4.71435,46.306599],[4.714326,46.306633],[4.714493,46.306691],[4.714476,46.306718],[4.714673,46.306792],[4.714704,46.306804],[4.714765,46.306828],[4.714861,46.306865],[4.714674,46.307037],[4.714617,46.307087],[4.714771,46.307209],[4.714856,46.307285],[4.714941,46.307354],[4.714709,46.307447],[4.714628,46.30748],[4.714635,46.307487],[4.714665,46.307523],[4.714605,46.307566],[4.714458,46.307664],[4.714578,46.307778],[4.714682,46.307886],[4.714798,46.307821],[4.714913,46.307956],[4.714814,46.308018],[4.714871,46.308072],[4.714915,46.308111],[4.714964,46.308147],[4.714969,46.308156],[4.714976,46.308175],[4.714975,46.308239],[4.714983,46.308237],[4.715118,46.308157],[4.715109,46.308092],[4.715129,46.308025],[4.715134,46.308005],[4.715136,46.30799],[4.715139,46.307976],[4.715172,46.307956],[4.715304,46.308054],[4.715503,46.307939],[4.71554,46.307919],[4.715595,46.307887],[4.71562,46.307886],[4.715693,46.307903],[4.715756,46.307937],[4.715805,46.307968],[4.715889,46.308022],[4.715927,46.308056],[4.716025,46.307987],[4.716166,46.308102],[4.716204,46.308071],[4.716352,46.308157],[4.716298,46.308197],[4.716231,46.308185],[4.716219,46.308242],[4.716207,46.308258],[4.716117,46.308285],[4.71608,46.308366],[4.716065,46.308406],[4.716046,46.308496],[4.716043,46.308509],[4.716037,46.308545],[4.716199,46.308574],[4.716242,46.308582],[4.716295,46.308592],[4.716467,46.308624],[4.716437,46.308742],[4.7164,46.308873],[4.716525,46.308876],[4.716571,46.308877],[4.716588,46.308869],[4.716605,46.308844],[4.716643,46.308766],[4.716697,46.308659],[4.716742,46.308581],[4.716798,46.308536],[4.716918,46.308414],[4.716986,46.308338],[4.717065,46.308252],[4.717212,46.30801],[4.717269,46.307964],[4.717333,46.307956],[4.717414,46.307958],[4.717449,46.307955],[4.717499,46.307944],[4.717552,46.307898],[4.717564,46.307849],[4.71757,46.307758],[4.71758,46.307678],[4.717582,46.307621],[4.717555,46.307561],[4.717543,46.307519],[4.717502,46.307471],[4.717433,46.307406],[4.717414,46.307391],[4.717253,46.307288],[4.717192,46.307244]]],[[[4.71486,46.308203],[4.714847,46.308163],[4.714819,46.308126],[4.714679,46.308209],[4.714744,46.308326],[4.714866,46.308288],[4.71486,46.308203]]],[[[4.715092,46.308304],[4.715194,46.308419],[4.715218,46.308446],[4.715234,46.308438],[4.715242,46.308447],[4.71525,46.308455],[4.715267,46.308473],[4.715296,46.308506],[4.715354,46.3085],[4.715342,46.308439],[4.715394,46.308415],[4.715377,46.308266],[4.715343,46.308188],[4.715311,46.308107],[4.715195,46.308156],[4.71517,46.308169],[4.715044,46.308248],[4.715092,46.308304]]],[[[4.714854,46.308337],[4.714645,46.308436],[4.714705,46.308621],[4.714736,46.308708],[4.714781,46.3088],[4.714817,46.308796],[4.714925,46.308781],[4.715004,46.308769],[4.715003,46.308757],[4.715013,46.308755],[4.714954,46.308677],[4.714914,46.308614],[4.714895,46.308581],[4.714878,46.308556],[4.714861,46.308514],[4.714849,46.308434],[4.714854,46.308337]]],[[[4.714311,46.308153],[4.714173,46.307978],[4.714094,46.307965],[4.714006,46.30797],[4.713945,46.307994],[4.713757,46.3081],[4.713598,46.308227],[4.713511,46.308344],[4.713478,46.308374],[4.713244,46.308553],[4.713158,46.308636],[4.713134,46.308657],[4.713197,46.308697],[4.713208,46.308706],[4.71333,46.30879],[4.713339,46.308796],[4.7133,46.308822],[4.713202,46.308894],[4.713172,46.308874],[4.713123,46.30891],[4.713104,46.308925],[4.713097,46.30892],[4.71303,46.308877],[4.713017,46.308868],[4.713008,46.308863],[4.712998,46.30887],[4.712942,46.308839],[4.712906,46.308867],[4.712814,46.308932],[4.712727,46.309035],[4.712702,46.309069],[4.712696,46.309086],[4.712723,46.309101],[4.71273,46.309089],[4.712741,46.309101],[4.71281,46.309187],[4.712816,46.309196],[4.712938,46.309357],[4.71295,46.309379],[4.71289,46.309395],[4.712893,46.309402],[4.713038,46.309366],[4.713113,46.309528],[4.713301,46.309477],[4.713363,46.309455],[4.713574,46.309374],[4.713747,46.309288],[4.713774,46.309276],[4.713951,46.309259],[4.714107,46.309247],[4.714165,46.30924],[4.714289,46.309216],[4.714185,46.30897],[4.714737,46.308842],[4.7147,46.308754],[4.714608,46.308527],[4.714579,46.308469],[4.714559,46.308434],[4.71451,46.308366],[4.714477,46.308329],[4.714311,46.308153]]],[[[4.716196,46.308868],[4.716206,46.308842],[4.716263,46.30868],[4.716208,46.308691],[4.71595,46.30869],[4.715937,46.30869],[4.716072,46.308909],[4.716142,46.308887],[4.716196,46.308868]]],[[[4.716451,46.309198],[4.716452,46.309168],[4.716454,46.309097],[4.716455,46.309069],[4.71643,46.309068],[4.716434,46.309021],[4.716456,46.309023],[4.716456,46.308978],[4.716457,46.308901],[4.716175,46.30891],[4.716152,46.308916],[4.716124,46.308927],[4.716143,46.309141],[4.716153,46.309281],[4.716321,46.309234],[4.716451,46.309198]]],[[[4.71593,46.309727],[4.715883,46.309845],[4.715737,46.309827],[4.71574,46.309837],[4.715728,46.309839],[4.715736,46.309859],[4.715754,46.309918],[4.715849,46.309938],[4.715848,46.309957],[4.715934,46.309966],[4.715919,46.310052],[4.716123,46.310067],[4.716087,46.310168],[4.716042,46.310291],[4.716107,46.31029],[4.716177,46.31029],[4.716337,46.310288],[4.716459,46.310287],[4.716463,46.310226],[4.716467,46.310176],[4.716492,46.310066],[4.71631,46.310014],[4.716155,46.309993],[4.716187,46.309885],[4.71615,46.309882],[4.71617,46.309784],[4.716013,46.309746],[4.71593,46.309727]]],[[[4.715096,46.309389],[4.714971,46.309385],[4.714966,46.309385],[4.714884,46.309385],[4.714885,46.309285],[4.714885,46.309277],[4.714634,46.309288],[4.714597,46.30922],[4.714604,46.309218],[4.714568,46.309142],[4.714406,46.309199],[4.714406,46.30921],[4.714319,46.309234],[4.714187,46.30926],[4.714127,46.309271],[4.713996,46.30928],[4.713875,46.309288],[4.713835,46.309292],[4.713809,46.309297],[4.713765,46.30931],[4.713649,46.309369],[4.713576,46.3094],[4.713496,46.309433],[4.713406,46.309475],[4.713367,46.309491],[4.71306,46.309579],[4.712709,46.309677],[4.712586,46.309705],[4.712392,46.309769],[4.7124,46.30979],[4.712447,46.309977],[4.712568,46.310215],[4.712188,46.310274],[4.712254,46.31035],[4.712045,46.31041],[4.711951,46.310251],[4.711903,46.310269],[4.711725,46.310328],[4.711887,46.310604],[4.711995,46.310573],[4.712118,46.310537],[4.712154,46.310598],[4.712247,46.310756],[4.712257,46.310754],[4.712262,46.310764],[4.712256,46.310765],[4.712325,46.310896],[4.712336,46.310916],[4.712368,46.310978],[4.712325,46.310987],[4.712335,46.311013],[4.712405,46.311192],[4.712505,46.311418],[4.712545,46.311499],[4.712569,46.311533],[4.712598,46.311558],[4.712628,46.311573],[4.71268,46.311585],[4.712724,46.311588],[4.71278,46.31158],[4.712852,46.311562],[4.712923,46.311538],[4.713343,46.311387],[4.713794,46.311232],[4.713874,46.311203],[4.71396,46.311169],[4.713995,46.311147],[4.714017,46.31113],[4.714035,46.311104],[4.714053,46.311051],[4.71405,46.311014],[4.714044,46.310979],[4.714006,46.310891],[4.71397,46.310826],[4.713933,46.310752],[4.713873,46.31064],[4.713846,46.310562],[4.71382,46.310392],[4.713816,46.310224],[4.713818,46.310186],[4.713829,46.310119],[4.713848,46.310044],[4.713861,46.310006],[4.713901,46.309927],[4.713955,46.309856],[4.713996,46.309815],[4.714029,46.309788],[4.714084,46.30976],[4.714128,46.309756],[4.71417,46.309753],[4.714244,46.309757],[4.714315,46.309775],[4.714342,46.309792],[4.714362,46.309808],[4.714384,46.309829],[4.71439,46.309851],[4.714411,46.309937],[4.714449,46.310062],[4.71447,46.310102],[4.714506,46.310141],[4.71456,46.310176],[4.714602,46.310191],[4.714642,46.310201],[4.714699,46.310205],[4.714833,46.310203],[4.715042,46.310158],[4.715133,46.310138],[4.715304,46.3101],[4.715208,46.309959],[4.715196,46.309948],[4.715182,46.30995],[4.715177,46.309938],[4.71515,46.309886],[4.714774,46.309978],[4.714753,46.309919],[4.715374,46.309773],[4.71526,46.309575],[4.715081,46.309614],[4.715072,46.30959],[4.71502,46.309452],[4.715015,46.309445],[4.715095,46.309442],[4.715096,46.309389]]],[[[4.715633,46.310573],[4.715618,46.310546],[4.715575,46.310463],[4.715425,46.310156],[4.715232,46.310196],[4.714971,46.31025],[4.714822,46.310272],[4.714745,46.310275],[4.714646,46.310271],[4.714575,46.310261],[4.714506,46.310242],[4.714461,46.310216],[4.714419,46.310188],[4.714389,46.310155],[4.714347,46.310097],[4.714323,46.310022],[4.714314,46.309977],[4.714295,46.309886],[4.714283,46.309854],[4.714258,46.30983],[4.71422,46.30982],[4.714167,46.309818],[4.714131,46.309823],[4.714104,46.309834],[4.714083,46.309848],[4.714059,46.309877],[4.714048,46.309881],[4.713997,46.30995],[4.71396,46.310039],[4.713947,46.310089],[4.713925,46.310234],[4.713921,46.310328],[4.713929,46.310504],[4.713953,46.310607],[4.713966,46.310637],[4.713985,46.310686],[4.714142,46.310978],[4.714165,46.310975],[4.71418,46.31106],[4.71417,46.311092],[4.714582,46.311007],[4.714568,46.310976],[4.71465,46.310961],[4.714688,46.311057],[4.714774,46.311049],[4.714785,46.311082],[4.715111,46.311034],[4.715214,46.311018],[4.715197,46.310968],[4.715213,46.310963],[4.715229,46.310958],[4.715329,46.310934],[4.715364,46.310925],[4.715377,46.310946],[4.715433,46.311058],[4.71557,46.311003],[4.715654,46.310964],[4.715677,46.310944],[4.715698,46.310847],[4.715701,46.310794],[4.715697,46.310784],[4.715668,46.310664],[4.715652,46.310665],[4.715576,46.310677],[4.715544,46.310587],[4.715623,46.310574],[4.715633,46.310573]]],[[[4.714057,46.311249],[4.71433,46.311324],[4.714456,46.311229],[4.714336,46.31106],[4.71417,46.311092],[4.714143,46.311146],[4.714123,46.311174],[4.714065,46.311227],[4.714057,46.311238],[4.714057,46.311249]]],[[[4.713405,46.311456],[4.713205,46.311525],[4.713062,46.311569],[4.712822,46.311651],[4.712743,46.311669],[4.712618,46.311667],[4.712535,46.31162],[4.712494,46.311569],[4.712415,46.311465],[4.712264,46.311113],[4.712242,46.311055],[4.711938,46.311115],[4.711859,46.311037],[4.711808,46.311158],[4.711637,46.311528],[4.711619,46.311561],[4.711527,46.311746],[4.711527,46.312029],[4.711568,46.312325],[4.71161,46.312546],[4.711649,46.312658],[4.71171,46.312772],[4.711744,46.312816],[4.711844,46.312901],[4.711957,46.312977],[4.711985,46.312994],[4.71212,46.313069],[4.712229,46.313137],[4.712266,46.313163],[4.712337,46.313218],[4.712421,46.313312],[4.712462,46.313366],[4.712495,46.313435],[4.712534,46.313457],[4.712571,46.31346],[4.712621,46.313428],[4.71281,46.313187],[4.712895,46.313076],[4.713034,46.31291],[4.713123,46.312813],[4.713262,46.312689],[4.713387,46.312586],[4.713515,46.312473],[4.713759,46.312172],[4.713891,46.312016],[4.713986,46.311924],[4.714076,46.311841],[4.71427,46.311636],[4.714427,46.311518],[4.714534,46.311436],[4.714475,46.311414],[4.714417,46.311402],[4.71433,46.311375],[4.713983,46.311291],[4.713905,46.311293],[4.713638,46.311371],[4.713405,46.311456]]],[[[4.713089,46.312956],[4.71296,46.313097],[4.71278,46.313304],[4.712914,46.313363],[4.713267,46.313506],[4.713405,46.313551],[4.713463,46.31355],[4.713499,46.313542],[4.713699,46.313451],[4.713899,46.313365],[4.714013,46.313332],[4.714094,46.313316],[4.714147,46.31331],[4.714201,46.313305],[4.714483,46.313306],[4.714538,46.313234],[4.714431,46.313191],[4.714106,46.313027],[4.713558,46.312775],[4.713358,46.312686],[4.71323,46.312814],[4.713089,46.312956]]],[[[4.712454,46.313748],[4.71243,46.313808],[4.712607,46.313883],[4.712667,46.313841],[4.712757,46.313804],[4.712876,46.31379],[4.713058,46.313772],[4.713143,46.31376],[4.713236,46.31374],[4.713324,46.313701],[4.713343,46.313687],[4.713446,46.313616],[4.713132,46.313501],[4.712734,46.313354],[4.712649,46.313463],[4.712572,46.313555],[4.712516,46.313639],[4.712468,46.313713],[4.712454,46.313748]]],[[[4.718482,46.321748],[4.7184,46.321663],[4.718368,46.321632],[4.718296,46.321512],[4.718233,46.321379],[4.718204,46.321324],[4.718145,46.321161],[4.718127,46.321055],[4.718117,46.32082],[4.718114,46.320643],[4.7181,46.320604],[4.717683,46.320658],[4.717386,46.320698],[4.717295,46.320713],[4.716998,46.32078],[4.716838,46.320815],[4.716692,46.320865],[4.716474,46.320931],[4.716248,46.321004],[4.716133,46.321045],[4.71609,46.321052],[4.716006,46.321198],[4.715908,46.321322],[4.715663,46.321249],[4.715624,46.321237],[4.715578,46.321306],[4.715373,46.321186],[4.715031,46.321283],[4.714803,46.321351],[4.714499,46.321432],[4.714385,46.321459],[4.714206,46.321488],[4.713734,46.322637],[4.713618,46.322898],[4.713563,46.323026],[4.713538,46.323076],[4.713527,46.323095],[4.713462,46.323232],[4.713367,46.323221],[4.713284,46.323368],[4.713339,46.323388],[4.713334,46.323555],[4.715175,46.323747],[4.715494,46.323597],[4.715511,46.323499],[4.715648,46.323517],[4.715687,46.323381],[4.715695,46.323365],[4.715738,46.323216],[4.715761,46.323169],[4.715978,46.323208],[4.716007,46.323134],[4.71625,46.323182],[4.716922,46.321896],[4.716795,46.321848],[4.716853,46.321749],[4.716902,46.321669],[4.717034,46.321518],[4.716996,46.321493],[4.717109,46.32143],[4.717266,46.321347],[4.717589,46.321199],[4.717687,46.321374],[4.71806,46.321343],[4.718076,46.321384],[4.718071,46.321477],[4.718055,46.321518],[4.718022,46.321603],[4.717925,46.321758],[4.717768,46.321952],[4.717732,46.321986],[4.717674,46.322016],[4.717525,46.322064],[4.717429,46.322104],[4.717265,46.322192],[4.717181,46.322254],[4.7171,46.32234],[4.717036,46.322422],[4.71687,46.322682],[4.717052,46.322757],[4.717184,46.322814],[4.717323,46.322877],[4.717524,46.323016],[4.717498,46.323048],[4.717211,46.323348],[4.716854,46.323737],[4.717416,46.323923],[4.71775,46.323557],[4.718017,46.323266],[4.718265,46.322987],[4.718587,46.322591],[4.718801,46.322358],[4.718917,46.322255],[4.719026,46.322199],[4.719031,46.32218],[4.718989,46.322138],[4.718803,46.321964],[4.71874,46.321968],[4.718704,46.321989],[4.718667,46.321936],[4.718563,46.321824],[4.718482,46.321748]]],[[[4.719302,46.302996],[4.719252,46.302966],[4.719178,46.302948],[4.719011,46.302935],[4.718966,46.302922],[4.718949,46.302881],[4.718984,46.302693],[4.71894,46.302625],[4.718824,46.302524],[4.718739,46.302455],[4.7186,46.302357],[4.718262,46.302138],[4.718312,46.302084],[4.718465,46.30198],[4.718433,46.301857],[4.718334,46.301807],[4.718277,46.30163],[4.718197,46.301476],[4.718046,46.301281],[4.718014,46.301261],[4.717961,46.301096],[4.71786,46.301069],[4.71779,46.301017],[4.717725,46.300957],[4.71789,46.300804],[4.717676,46.300687],[4.717625,46.300722],[4.717481,46.300652],[4.717445,46.300677],[4.717372,46.300606],[4.717341,46.300564],[4.71728,46.300359],[4.717131,46.30021],[4.716237,46.300476],[4.715543,46.300676],[4.715547,46.300723],[4.714977,46.300831],[4.714628,46.300901],[4.71455,46.300991],[4.71452,46.301076],[4.714519,46.301134],[4.714504,46.301267],[4.714649,46.30127],[4.714654,46.301404],[4.714666,46.301464],[4.714709,46.301707],[4.714766,46.301945],[4.714782,46.302036],[4.714863,46.302269],[4.714868,46.302295],[4.714858,46.302346],[4.714745,46.302362],[4.714757,46.302469],[4.714772,46.302621],[4.714814,46.302824],[4.714946,46.303054],[4.714959,46.303089],[4.714946,46.303096],[4.7144,46.303232],[4.714488,46.303403],[4.714579,46.303563],[4.714702,46.303761],[4.714875,46.303799],[4.714928,46.303797],[4.715267,46.303704],[4.715488,46.303652],[4.715813,46.303615],[4.716115,46.303611],[4.716409,46.303562],[4.716262,46.303265],[4.716202,46.303124],[4.716103,46.302952],[4.716142,46.302943],[4.716336,46.303319],[4.716482,46.30359],[4.716645,46.303585],[4.716869,46.303561],[4.716991,46.303568],[4.717347,46.303569],[4.717431,46.303568],[4.717606,46.303577],[4.717677,46.303583],[4.717722,46.303586],[4.717844,46.303594],[4.718042,46.303607],[4.718205,46.303612],[4.71865,46.303661],[4.718891,46.303736],[4.719149,46.30391],[4.719276,46.30401],[4.719436,46.304095],[4.71954,46.304027],[4.719587,46.30397],[4.719598,46.303937],[4.719429,46.303851],[4.719522,46.30376],[4.719783,46.303625],[4.719877,46.303565],[4.719836,46.303402],[4.719782,46.303352],[4.719581,46.303286],[4.719641,46.303186],[4.719531,46.30315],[4.719446,46.303131],[4.719302,46.302996]]],[[[4.721055,46.30408],[4.72098,46.303894],[4.720939,46.303859],[4.720672,46.303774],[4.720602,46.303778],[4.720543,46.303785],[4.720466,46.303769],[4.720341,46.303791],[4.720269,46.303882],[4.720242,46.303891],[4.720147,46.303895],[4.720039,46.303937],[4.719718,46.304274],[4.71987,46.304375],[4.720061,46.304484],[4.720144,46.304559],[4.720256,46.304681],[4.72046,46.304768],[4.720891,46.304959],[4.721104,46.305038],[4.721326,46.305139],[4.721559,46.30495],[4.721761,46.304824],[4.721768,46.304799],[4.721631,46.304625],[4.72146,46.304534],[4.721211,46.304436],[4.721106,46.304351],[4.721036,46.304195],[4.72103,46.304143],[4.721055,46.30408]]],[[[4.718974,46.303843],[4.71891,46.303798],[4.718766,46.303735],[4.718589,46.303702],[4.718348,46.303668],[4.718208,46.303654],[4.717945,46.303636],[4.717813,46.303627],[4.717538,46.303613],[4.717403,46.303609],[4.716978,46.30361],[4.716902,46.303598],[4.71668,46.303617],[4.716433,46.30364],[4.716355,46.303628],[4.716066,46.303649],[4.71565,46.303665],[4.715401,46.30372],[4.714569,46.303948],[4.7146,46.304015],[4.714616,46.304058],[4.714644,46.304133],[4.714671,46.304204],[4.714752,46.304195],[4.714756,46.304219],[4.714712,46.304223],[4.714741,46.304301],[4.714772,46.304365],[4.714825,46.304447],[4.714851,46.304517],[4.714855,46.304533],[4.715057,46.304573],[4.715237,46.304566],[4.715363,46.304584],[4.715475,46.304586],[4.715586,46.304605],[4.715572,46.304775],[4.715563,46.304838],[4.715524,46.304844],[4.715452,46.304921],[4.71538,46.304933],[4.71531,46.304925],[4.71519,46.304852],[4.715127,46.304782],[4.715078,46.304762],[4.715022,46.30476],[4.714929,46.304767],[4.714962,46.304863],[4.715018,46.304981],[4.715336,46.305099],[4.715462,46.305062],[4.715541,46.305059],[4.715573,46.305047],[4.715671,46.304965],[4.715696,46.304952],[4.715791,46.304983],[4.715824,46.304952],[4.716083,46.304977],[4.716063,46.305104],[4.716383,46.305179],[4.716426,46.305189],[4.71615,46.305837],[4.716311,46.305892],[4.716554,46.305947],[4.716784,46.30598],[4.716989,46.306016],[4.717196,46.306064],[4.717487,46.30615],[4.717667,46.306217],[4.71778,46.306234],[4.71795,46.306069],[4.718188,46.30585],[4.718422,46.305596],[4.718497,46.305502],[4.718533,46.305436],[4.718559,46.30526],[4.718693,46.305025],[4.718794,46.304896],[4.718821,46.304908],[4.719036,46.304716],[4.71929,46.304539],[4.719536,46.304411],[4.719574,46.304382],[4.719593,46.304342],[4.719584,46.304283],[4.719566,46.304242],[4.719545,46.30422],[4.719373,46.304098],[4.719213,46.304011],[4.719119,46.303932],[4.718974,46.303843]]],[[[4.724047,46.306327],[4.723721,46.306282],[4.723579,46.306258],[4.72344,46.306212],[4.72333,46.306175],[4.723261,46.306155],[4.723178,46.306141],[4.723112,46.306127],[4.72297,46.306092],[4.722782,46.30606],[4.722566,46.305974],[4.722313,46.305833],[4.722112,46.305714],[4.722075,46.305652],[4.72202,46.305605],[4.721984,46.305572],[4.721968,46.305574],[4.721887,46.305498],[4.721637,46.305379],[4.721506,46.305283],[4.721402,46.305229],[4.721127,46.305107],[4.720938,46.305009],[4.720786,46.304961],[4.720686,46.304907],[4.720541,46.304847],[4.720369,46.304784],[4.720221,46.304695],[4.720117,46.304587],[4.720042,46.30456],[4.71992,46.304521],[4.719837,46.304509],[4.719756,46.304492],[4.719673,46.304456],[4.719593,46.304442],[4.719543,46.30445],[4.71946,46.304481],[4.719151,46.304688],[4.719023,46.304785],[4.718835,46.304937],[4.718726,46.305077],[4.718647,46.305199],[4.718615,46.305282],[4.718561,46.305468],[4.718506,46.305556],[4.718347,46.305742],[4.717998,46.306086],[4.717883,46.306194],[4.717814,46.306277],[4.717739,46.306399],[4.717571,46.306683],[4.717418,46.306924],[4.717445,46.307065],[4.717467,46.307082],[4.717608,46.307236],[4.717691,46.30725],[4.717912,46.307206],[4.718084,46.307195],[4.718222,46.30721],[4.718237,46.307171],[4.718552,46.307163],[4.718588,46.307037],[4.719126,46.307249],[4.719078,46.307408],[4.719254,46.307383],[4.719439,46.307452],[4.719617,46.307539],[4.719621,46.307529],[4.720037,46.307533],[4.720042,46.307511],[4.720185,46.307498],[4.720464,46.307467],[4.720706,46.30743],[4.720766,46.307421],[4.720915,46.307398],[4.720962,46.307391],[4.721214,46.307353],[4.721227,46.307306],[4.721306,46.307356],[4.721329,46.307502],[4.721972,46.307395],[4.722182,46.307371],[4.722292,46.307364],[4.722523,46.307334],[4.722951,46.307268],[4.723233,46.307214],[4.723405,46.30717],[4.723514,46.307139],[4.723613,46.30711],[4.723891,46.307034],[4.724518,46.306878],[4.724878,46.306819],[4.725193,46.306774],[4.725211,46.306756],[4.725216,46.30673],[4.725197,46.30671],[4.725138,46.306665],[4.724975,46.306566],[4.724731,46.306501],[4.724583,46.306452],[4.72421,46.306363],[4.724047,46.306327]]],[[[4.723642,46.305789],[4.723518,46.305978],[4.72346,46.306102],[4.723456,46.306154],[4.723599,46.306208],[4.724371,46.30636],[4.724779,46.306479],[4.724903,46.306503],[4.72498,46.306168],[4.724916,46.306069],[4.724897,46.305984],[4.724647,46.30591],[4.724432,46.305876],[4.724137,46.305851],[4.723642,46.305789]]],[[[4.725656,46.30685],[4.725602,46.306837],[4.725382,46.30683],[4.725259,46.306842],[4.725016,46.306867],[4.7245,46.306915],[4.724323,46.30696],[4.723981,46.307053],[4.723963,46.307072],[4.723933,46.307074],[4.723949,46.307419],[4.724306,46.307472],[4.724347,46.307476],[4.724762,46.307532],[4.724916,46.307512],[4.725129,46.30748],[4.725389,46.307446],[4.725779,46.307382],[4.725861,46.307374],[4.726037,46.307346],[4.72616,46.307321],[4.726237,46.307287],[4.726472,46.307194],[4.726603,46.307154],[4.726846,46.307076],[4.727061,46.306998],[4.727171,46.306957],[4.727123,46.306884],[4.726933,46.306898],[4.726372,46.306886],[4.726112,46.306874],[4.725862,46.306851],[4.725719,46.306847],[4.725656,46.30685]]],[[[4.718462,46.307802],[4.718192,46.307806],[4.718101,46.30806],[4.717786,46.308012],[4.717787,46.307997],[4.717559,46.307979],[4.717487,46.307983],[4.71732,46.307994],[4.717249,46.308024],[4.7172,46.308097],[4.717063,46.308311],[4.716799,46.30859],[4.716665,46.308821],[4.716622,46.308902],[4.717051,46.309033],[4.717515,46.308893],[4.717691,46.30884],[4.717906,46.30883],[4.717966,46.308828],[4.718112,46.308823],[4.718352,46.30881],[4.718629,46.308803],[4.718773,46.308599],[4.718877,46.308391],[4.719073,46.30821],[4.719187,46.308122],[4.719004,46.308061],[4.718836,46.307998],[4.718886,46.3079],[4.718826,46.307892],[4.718598,46.307884],[4.71844,46.307855],[4.718462,46.307802]]],[[[4.719441,46.307934],[4.719417,46.307935],[4.719212,46.308132],[4.719022,46.308279],[4.718887,46.30842],[4.718836,46.308507],[4.718777,46.30864],[4.718664,46.308801],[4.719288,46.308804],[4.719305,46.308783],[4.719496,46.308814],[4.719693,46.308841],[4.719931,46.308851],[4.720406,46.308863],[4.720722,46.308877],[4.720739,46.308846],[4.720895,46.308794],[4.720935,46.308759],[4.720967,46.308696],[4.721001,46.30861],[4.721014,46.308555],[4.721057,46.308216],[4.720621,46.308146],[4.720614,46.308146],[4.720259,46.30808],[4.720224,46.308073],[4.719825,46.307979],[4.719742,46.307957],[4.719441,46.307934]]],[[[4.723295,46.307974],[4.722884,46.30797],[4.722883,46.307993],[4.722703,46.307995],[4.722606,46.307997],[4.722605,46.308035],[4.72223,46.308066],[4.722128,46.308098],[4.722028,46.3081],[4.722028,46.308159],[4.721601,46.308165],[4.721537,46.308166],[4.721288,46.308171],[4.721135,46.308173],[4.721106,46.30853],[4.72105,46.30884],[4.721225,46.308787],[4.721475,46.308702],[4.721537,46.308678],[4.721809,46.30859],[4.722044,46.308503],[4.722127,46.308481],[4.722237,46.308453],[4.722386,46.308423],[4.722625,46.308379],[4.722704,46.308371],[4.722917,46.308345],[4.723235,46.308299],[4.723641,46.308238],[4.723738,46.308227],[4.723942,46.308194],[4.723944,46.308055],[4.723731,46.308051],[4.723735,46.308097],[4.723632,46.308097],[4.723632,46.308085],[4.723531,46.308083],[4.723285,46.308027],[4.723295,46.307974]]],[[[4.726253,46.30862],[4.726227,46.308694],[4.726171,46.308683],[4.726166,46.308702],[4.72612,46.308699],[4.72607,46.308744],[4.726051,46.308804],[4.72592,46.308833],[4.725721,46.308813],[4.725683,46.30882],[4.725409,46.30885],[4.725239,46.30887],[4.724919,46.308869],[4.724568,46.308872],[4.724574,46.308836],[4.724637,46.308634],[4.724698,46.308497],[4.724777,46.308252],[4.724581,46.30826],[4.72441,46.308256],[4.724265,46.308235],[4.724105,46.308234],[4.723935,46.30826],[4.723809,46.30828],[4.72374,46.308288],[4.723637,46.308305],[4.72336,46.308346],[4.723165,46.308378],[4.723,46.308399],[4.722799,46.308427],[4.7225,46.308475],[4.722366,46.308493],[4.722203,46.308523],[4.722052,46.30857],[4.721941,46.308612],[4.72104,46.308908],[4.721037,46.308941],[4.721,46.308944],[4.720876,46.30894],[4.720582,46.308929],[4.720346,46.308919],[4.720088,46.308911],[4.719504,46.308883],[4.7189,46.30886],[4.718482,46.308866],[4.718323,46.309201],[4.718249,46.309354],[4.718267,46.309359],[4.71837,46.309385],[4.718322,46.309465],[4.718226,46.309443],[4.718214,46.30944],[4.718091,46.30967],[4.718042,46.3098],[4.718033,46.309832],[4.718016,46.309892],[4.718046,46.309923],[4.718119,46.309945],[4.718294,46.309989],[4.718289,46.310006],[4.718255,46.310005],[4.718237,46.310041],[4.718206,46.310025],[4.718182,46.310011],[4.71813,46.310008],[4.718096,46.310156],[4.71817,46.310163],[4.71816,46.310208],[4.717978,46.310193],[4.717984,46.310247],[4.717963,46.310295],[4.717922,46.310331],[4.717878,46.310396],[4.717864,46.310416],[4.717855,46.310428],[4.717789,46.310526],[4.717942,46.310567],[4.718267,46.310519],[4.718445,46.310468],[4.718488,46.310455],[4.718615,46.310416],[4.718806,46.310374],[4.719087,46.310298],[4.719222,46.310265],[4.719487,46.310164],[4.719703,46.310102],[4.719897,46.31006],[4.720257,46.310033],[4.720377,46.310045],[4.720637,46.310093],[4.720687,46.31009],[4.720806,46.310074],[4.720888,46.31006],[4.720982,46.310043],[4.721051,46.310002],[4.721171,46.309925],[4.721323,46.309868],[4.721427,46.30981],[4.721521,46.309757],[4.721597,46.309734],[4.72172,46.309708],[4.722103,46.309602],[4.722293,46.30951],[4.722379,46.309467],[4.722453,46.30941],[4.722553,46.309327],[4.722587,46.309309],[4.72287,46.309185],[4.723173,46.309068],[4.723338,46.309013],[4.72347,46.308983],[4.723545,46.308985],[4.723681,46.30899],[4.723748,46.309007],[4.723802,46.30903],[4.723918,46.309074],[4.72399,46.309099],[4.724187,46.309152],[4.724298,46.309199],[4.724398,46.309277],[4.724498,46.309371],[4.72455,46.309418],[4.724705,46.309489],[4.724783,46.309514],[4.724873,46.309529],[4.725024,46.309544],[4.725134,46.309559],[4.725212,46.309549],[4.725279,46.309539],[4.725624,46.309495],[4.725884,46.30946],[4.726019,46.309441],[4.726318,46.309407],[4.7265,46.309385],[4.72676,46.309345],[4.726761,46.309339],[4.726747,46.309218],[4.726695,46.309023],[4.72651,46.309009],[4.726511,46.308989],[4.726441,46.308645],[4.726364,46.308644],[4.726253,46.30862]]],[[[4.726515,46.309414],[4.726221,46.309444],[4.726019,46.309475],[4.726015,46.309542],[4.726675,46.309613],[4.726741,46.309377],[4.726515,46.309414]]],[[[4.716639,46.30921],[4.716668,46.309524],[4.716691,46.309754],[4.716725,46.310026],[4.716739,46.310131],[4.716727,46.310147],[4.716707,46.310154],[4.716709,46.310171],[4.716632,46.310207],[4.716623,46.310238],[4.71661,46.310304],[4.716588,46.310449],[4.716608,46.310446],[4.716657,46.310438],[4.71666,46.310438],[4.716682,46.310434],[4.716977,46.31038],[4.717023,46.310507],[4.717036,46.310549],[4.717038,46.310553],[4.717089,46.310689],[4.71721,46.310664],[4.717484,46.31061],[4.717533,46.310597],[4.717577,46.310582],[4.717667,46.310536],[4.717706,46.310512],[4.717779,46.310429],[4.717868,46.310271],[4.717783,46.310266],[4.717761,46.3101],[4.717656,46.310101],[4.717381,46.310106],[4.717363,46.309955],[4.717354,46.309955],[4.717358,46.309796],[4.717505,46.309796],[4.717604,46.309798],[4.71761,46.309782],[4.717636,46.30965],[4.71765,46.309563],[4.717727,46.309566],[4.717864,46.309573],[4.718019,46.30959],[4.718067,46.309598],[4.718083,46.309559],[4.718145,46.309415],[4.718268,46.309152],[4.718389,46.308873],[4.718154,46.308886],[4.717656,46.308912],[4.717375,46.308982],[4.717048,46.309079],[4.716664,46.309202],[4.716639,46.30921]]],[[[4.721199,46.309961],[4.720989,46.310078],[4.720833,46.310117],[4.720688,46.310127],[4.720581,46.310115],[4.720337,46.31008],[4.720122,46.310087],[4.720004,46.31011],[4.719744,46.310144],[4.719674,46.310149],[4.719494,46.310212],[4.719273,46.31029],[4.718781,46.310413],[4.718356,46.310544],[4.718044,46.310598],[4.717858,46.310598],[4.717672,46.31061],[4.717284,46.310679],[4.717054,46.310742],[4.717077,46.310798],[4.716831,46.310863],[4.716802,46.310871],[4.71679,46.310875],[4.716818,46.310971],[4.716657,46.311003],[4.716708,46.31112],[4.716485,46.311179],[4.716449,46.311043],[4.716386,46.31105],[4.716385,46.311072],[4.716298,46.311085],[4.716304,46.31112],[4.716127,46.31114],[4.716132,46.311148],[4.716135,46.311159],[4.716113,46.311164],[4.716132,46.311187],[4.716163,46.311249],[4.716043,46.311273],[4.716051,46.311287],[4.716056,46.3113],[4.716067,46.311326],[4.716088,46.31138],[4.716129,46.311481],[4.716,46.311504],[4.715855,46.311533],[4.715849,46.311515],[4.715835,46.31151],[4.715735,46.311508],[4.715598,46.311523],[4.715494,46.311534],[4.715477,46.311513],[4.715445,46.311517],[4.715371,46.311539],[4.715394,46.311599],[4.715302,46.311617],[4.715291,46.311603],[4.71524,46.311615],[4.71518,46.311628],[4.715048,46.311661],[4.715051,46.31167],[4.715,46.311684],[4.715017,46.31172],[4.715052,46.311782],[4.715098,46.311859],[4.714929,46.311915],[4.714867,46.31182],[4.714772,46.311849],[4.714575,46.311913],[4.714561,46.3119],[4.714527,46.311844],[4.714514,46.311849],[4.714504,46.311852],[4.714321,46.311909],[4.714231,46.311942],[4.714089,46.311991],[4.714042,46.311938],[4.713872,46.312114],[4.713702,46.312321],[4.713558,46.312486],[4.713418,46.312635],[4.713423,46.312668],[4.71344,46.312689],[4.713537,46.312732],[4.713679,46.312787],[4.713989,46.312928],[4.714226,46.313022],[4.714344,46.313069],[4.714439,46.313129],[4.714602,46.313206],[4.714712,46.313232],[4.714801,46.313244],[4.714963,46.313231],[4.715147,46.313217],[4.715631,46.313175],[4.715844,46.313153],[4.716298,46.312998],[4.716317,46.31305],[4.71649,46.313011],[4.71656,46.312986],[4.716712,46.312938],[4.716933,46.312853],[4.716966,46.312833],[4.717007,46.312819],[4.717042,46.312783],[4.717103,46.312724],[4.717185,46.312661],[4.717245,46.312634],[4.717237,46.312602],[4.717395,46.312574],[4.717522,46.312542],[4.717627,46.312551],[4.717853,46.312496],[4.718089,46.31243],[4.71806,46.312389],[4.718255,46.312334],[4.7185,46.312257],[4.718602,46.312228],[4.718899,46.312139],[4.718981,46.312114],[4.719149,46.312069],[4.719223,46.312036],[4.719311,46.312029],[4.719463,46.312017],[4.719516,46.31201],[4.719614,46.311987],[4.71965,46.311973],[4.719694,46.311952],[4.719717,46.311938],[4.719735,46.311915],[4.719742,46.311886],[4.719738,46.311856],[4.719694,46.311812],[4.719586,46.311729],[4.719873,46.311648],[4.719905,46.311638],[4.719847,46.311517],[4.719933,46.311492],[4.720031,46.31146],[4.720248,46.311391],[4.720235,46.311344],[4.720359,46.311312],[4.720532,46.311262],[4.720663,46.311263],[4.720891,46.31123],[4.720886,46.311191],[4.72103,46.311166],[4.721051,46.311134],[4.72109,46.311095],[4.721144,46.310992],[4.721188,46.310893],[4.721212,46.31081],[4.721292,46.310714],[4.721289,46.310614],[4.721418,46.310562],[4.721359,46.310469],[4.721509,46.310344],[4.721591,46.31028],[4.721635,46.310239],[4.721693,46.310171],[4.7218,46.31001],[4.721875,46.30989],[4.721987,46.30981],[4.722013,46.30978],[4.722029,46.30976],[4.721981,46.309687],[4.721782,46.309737],[4.721639,46.309758],[4.721569,46.309775],[4.721473,46.309826],[4.721267,46.309929],[4.721199,46.309961]]],[[[4.726803,46.309702],[4.72677,46.30974],[4.726257,46.309651],[4.725841,46.309594],[4.725653,46.309569],[4.725368,46.309612],[4.725107,46.30965],[4.72504,46.309663],[4.724846,46.309688],[4.724859,46.309831],[4.724867,46.30989],[4.724835,46.310006],[4.724891,46.310229],[4.724888,46.310278],[4.724787,46.310635],[4.724673,46.310575],[4.724453,46.310452],[4.724259,46.310345],[4.724086,46.31025],[4.724059,46.310231],[4.724032,46.310245],[4.723782,46.310176],[4.723275,46.310901],[4.723292,46.310911],[4.723277,46.310925],[4.722703,46.311705],[4.72293,46.311821],[4.723158,46.311947],[4.723305,46.312048],[4.723423,46.312145],[4.723579,46.312297],[4.723713,46.312425],[4.723827,46.312536],[4.723941,46.312656],[4.724019,46.312728],[4.724287,46.313012],[4.724458,46.313205],[4.724461,46.313252],[4.724451,46.313436],[4.724434,46.31369],[4.72441,46.313959],[4.724376,46.314331],[4.724342,46.314793],[4.724318,46.314992],[4.724373,46.315036],[4.724572,46.314948],[4.724786,46.314841],[4.725099,46.314669],[4.725181,46.314612],[4.725298,46.314523],[4.725497,46.314336],[4.725686,46.314161],[4.725763,46.314091],[4.726121,46.313873],[4.726336,46.313721],[4.726546,46.313569],[4.726657,46.313473],[4.726712,46.313401],[4.726769,46.313322],[4.726809,46.313288],[4.726905,46.313253],[4.727222,46.313164],[4.727825,46.313],[4.728139,46.312915],[4.728304,46.312872],[4.728368,46.312833],[4.72852,46.31266],[4.729032,46.312155],[4.729236,46.31196],[4.729128,46.311822],[4.729023,46.311687],[4.728832,46.311449],[4.729296,46.31108],[4.729869,46.310616],[4.72885,46.31031],[4.7286,46.310236],[4.728336,46.310155],[4.727835,46.310012],[4.727323,46.309855],[4.726886,46.309723],[4.726803,46.309702]]],[[[4.72328,46.312178],[4.723256,46.312151],[4.723167,46.312095],[4.722996,46.311995],[4.722851,46.31191],[4.722716,46.311831],[4.722515,46.311709],[4.722136,46.311856],[4.721742,46.312004],[4.72156,46.312076],[4.721445,46.312115],[4.721419,46.312122],[4.721122,46.312174],[4.721047,46.312403],[4.721,46.312608],[4.720939,46.31263],[4.720907,46.312652],[4.720885,46.312785],[4.720906,46.312882],[4.720879,46.313077],[4.720887,46.313219],[4.720888,46.313317],[4.720895,46.313347],[4.720898,46.313386],[4.720921,46.313454],[4.720922,46.313533],[4.720902,46.313615],[4.72088,46.313612],[4.720853,46.313683],[4.720846,46.313697],[4.72082,46.31381],[4.72084,46.313895],[4.720844,46.313963],[4.72079,46.313985],[4.720827,46.314334],[4.720838,46.3144],[4.720909,46.314583],[4.720968,46.314576],[4.720985,46.314617],[4.721032,46.314608],[4.721155,46.314575],[4.721244,46.31453],[4.72124,46.31452],[4.721375,46.314484],[4.721528,46.314476],[4.721613,46.31445],[4.721804,46.314379],[4.721856,46.314337],[4.721956,46.314308],[4.722123,46.314259],[4.722309,46.314169],[4.722709,46.31403],[4.722668,46.313972],[4.722821,46.313915],[4.72284,46.31395],[4.722901,46.314145],[4.723218,46.314016],[4.723135,46.313855],[4.723629,46.313605],[4.723883,46.313486],[4.724348,46.313256],[4.724221,46.313117],[4.724099,46.312982],[4.72396,46.312851],[4.723697,46.312593],[4.723568,46.312461],[4.723426,46.312323],[4.72328,46.312178]]],[[[4.721208,46.315405],[4.721144,46.315448],[4.721382,46.315728],[4.721693,46.3161],[4.722194,46.316708],[4.722493,46.317054],[4.723216,46.316283],[4.723316,46.316178],[4.723365,46.316125],[4.723663,46.315803],[4.723877,46.31559],[4.724025,46.315448],[4.724076,46.315388],[4.724115,46.315327],[4.724143,46.315276],[4.724161,46.315234],[4.724179,46.315121],[4.724186,46.315097],[4.724173,46.314978],[4.724151,46.314872],[4.724145,46.314774],[4.724206,46.31452],[4.724237,46.314278],[4.72427,46.313936],[4.7243,46.3137],[4.724321,46.313544],[4.72436,46.313365],[4.724155,46.313499],[4.723555,46.313888],[4.723272,46.314067],[4.72293,46.314285],[4.722566,46.314525],[4.721654,46.315114],[4.721208,46.315405]]],[[[4.726582,46.313632],[4.726413,46.313749],[4.725878,46.31412],[4.725841,46.314108],[4.725588,46.314343],[4.725449,46.31449],[4.72523,46.314724],[4.725011,46.314818],[4.724944,46.314849],[4.724662,46.314989],[4.72463,46.315006],[4.724497,46.315076],[4.724403,46.315181],[4.724374,46.315208],[4.72414,46.315474],[4.724055,46.31556],[4.723688,46.315917],[4.723529,46.31611],[4.723284,46.316386],[4.723052,46.31661],[4.722624,46.317118],[4.723298,46.317433],[4.723206,46.317567],[4.723168,46.317659],[4.723123,46.317832],[4.723423,46.317995],[4.723565,46.318044],[4.723817,46.318226],[4.723926,46.318184],[4.725208,46.316822],[4.725843,46.316146],[4.72632,46.315638],[4.726595,46.315347],[4.726955,46.314965],[4.727083,46.314832],[4.727326,46.314578],[4.727498,46.314391],[4.727607,46.314282],[4.727687,46.314193],[4.727865,46.314003],[4.727943,46.314045],[4.728117,46.313885],[4.728422,46.313177],[4.728589,46.31324],[4.729091,46.312708],[4.728632,46.312659],[4.728451,46.312907],[4.72768,46.313105],[4.726827,46.313339],[4.726796,46.313445],[4.72667,46.313557],[4.726582,46.313632]]],[[[4.7235,46.319411],[4.723362,46.319382],[4.723215,46.319375],[4.723064,46.319375],[4.722863,46.319388],[4.72287,46.31919],[4.72286,46.319076],[4.722682,46.319119],[4.722716,46.319223],[4.722531,46.319266],[4.722563,46.319378],[4.722453,46.319441],[4.722274,46.319495],[4.722139,46.319538],[4.722051,46.319478],[4.722026,46.319441],[4.721976,46.319424],[4.721943,46.319419],[4.721936,46.319319],[4.721802,46.319306],[4.721677,46.31929],[4.721669,46.319245],[4.721436,46.319243],[4.721343,46.31923],[4.721215,46.319201],[4.721219,46.319101],[4.721164,46.319092],[4.721022,46.31907],[4.720933,46.319056],[4.72082,46.319034],[4.720789,46.319026],[4.720713,46.319029],[4.720435,46.319074],[4.720363,46.319065],[4.720252,46.319005],[4.720248,46.318944],[4.720117,46.318938],[4.719991,46.318927],[4.719983,46.318887],[4.719844,46.318908],[4.719699,46.318892],[4.719688,46.318867],[4.719615,46.318868],[4.719431,46.318851],[4.719321,46.31882],[4.719178,46.318767],[4.719141,46.318756],[4.719091,46.318759],[4.719003,46.318752],[4.718882,46.318744],[4.71879,46.318735],[4.718502,46.318715],[4.718587,46.318587],[4.718801,46.318306],[4.718265,46.318153],[4.718264,46.318046],[4.717915,46.317995],[4.717885,46.31821],[4.717881,46.318281],[4.717611,46.318182],[4.717502,46.318138],[4.71764,46.317952],[4.717513,46.317893],[4.717647,46.317701],[4.717615,46.317674],[4.717549,46.317638],[4.717377,46.317581],[4.71716,46.317534],[4.717228,46.317439],[4.716954,46.317323],[4.716964,46.317305],[4.716857,46.317272],[4.716802,46.317257],[4.716727,46.317243],[4.716627,46.3172],[4.716419,46.317105],[4.716388,46.317101],[4.71633,46.317084],[4.716238,46.317076],[4.716105,46.317017],[4.715957,46.316952],[4.715603,46.316811],[4.71531,46.316686],[4.715335,46.316635],[4.715306,46.316614],[4.715052,46.316446],[4.71484,46.316276],[4.714747,46.316187],[4.714628,46.316063],[4.714457,46.315811],[4.714363,46.315821],[4.714255,46.315714],[4.714291,46.315703],[4.714142,46.315546],[4.714097,46.315542],[4.714079,46.315461],[4.714049,46.315405],[4.714008,46.315378],[4.713971,46.315358],[4.713905,46.315344],[4.713605,46.31532],[4.713595,46.315217],[4.7136,46.315098],[4.713603,46.315018],[4.713876,46.315082],[4.713946,46.31499],[4.713992,46.314923],[4.714004,46.3149],[4.71414,46.314961],[4.714333,46.315073],[4.714356,46.314984],[4.714345,46.314931],[4.714289,46.314833],[4.714284,46.314705],[4.714072,46.314626],[4.714077,46.31462],[4.714088,46.314494],[4.714284,46.314579],[4.714332,46.314512],[4.714404,46.314416],[4.714207,46.314335],[4.714216,46.314234],[4.71424,46.314129],[4.714285,46.314055],[4.714441,46.314118],[4.714672,46.313967],[4.714941,46.313799],[4.715076,46.313727],[4.715072,46.313713],[4.715162,46.313653],[4.715243,46.313544],[4.715278,46.313458],[4.715215,46.313305],[4.714759,46.313359],[4.714415,46.313402],[4.714261,46.313416],[4.714099,46.313436],[4.713887,46.313476],[4.713797,46.313499],[4.713714,46.313528],[4.713618,46.313575],[4.713594,46.313597],[4.713514,46.313641],[4.713413,46.313712],[4.713334,46.31376],[4.713163,46.313814],[4.713017,46.313833],[4.712862,46.313831],[4.712773,46.313855],[4.71274,46.313868],[4.712688,46.313906],[4.712675,46.313918],[4.712565,46.314025],[4.712403,46.314177],[4.712298,46.314274],[4.71227,46.314357],[4.712181,46.314633],[4.712146,46.314737],[4.712108,46.314828],[4.712037,46.314991],[4.711929,46.315213],[4.711886,46.315331],[4.711852,46.315422],[4.711768,46.315701],[4.711736,46.315904],[4.711687,46.316227],[4.711675,46.316323],[4.71167,46.316396],[4.711662,46.316478],[4.71168,46.316662],[4.711686,46.316712],[4.711703,46.316807],[4.711722,46.316869],[4.711755,46.316932],[4.711785,46.316957],[4.711892,46.317022],[4.712085,46.317121],[4.712198,46.317165],[4.712537,46.317298],[4.71275,46.317388],[4.71292,46.317457],[4.713479,46.3177],[4.71404,46.317884],[4.714674,46.318091],[4.714668,46.318109],[4.714279,46.317985],[4.714122,46.317933],[4.713434,46.317705],[4.712877,46.317458],[4.712717,46.317394],[4.712399,46.317267],[4.712096,46.317146],[4.711952,46.31708],[4.71178,46.317004],[4.711732,46.316953],[4.711696,46.31693],[4.711703,46.317043],[4.711736,46.317223],[4.711727,46.317386],[4.711735,46.31759],[4.711754,46.31771],[4.711779,46.31777],[4.71188,46.317876],[4.711944,46.317937],[4.712031,46.318036],[4.712097,46.318114],[4.712186,46.318243],[4.712252,46.318347],[4.712426,46.318417],[4.71276,46.318554],[4.713205,46.318737],[4.71381,46.318992],[4.713803,46.319031],[4.713801,46.319075],[4.713792,46.319179],[4.713873,46.319209],[4.714375,46.319405],[4.714799,46.319564],[4.714883,46.319416],[4.714929,46.319343],[4.714981,46.319266],[4.715258,46.319343],[4.715429,46.319392],[4.715319,46.319566],[4.715973,46.319794],[4.71595,46.319812],[4.715756,46.319946],[4.715639,46.320035],[4.715413,46.320197],[4.715629,46.320229],[4.715282,46.320594],[4.715473,46.32074],[4.71565,46.32084],[4.715873,46.320958],[4.715987,46.321],[4.716037,46.321005],[4.716113,46.320994],[4.716374,46.32093],[4.7165,46.320891],[4.716843,46.32079],[4.717128,46.320713],[4.717466,46.320656],[4.717977,46.320555],[4.718112,46.320522],[4.718449,46.320548],[4.71855,46.320557],[4.71862,46.320577],[4.71878,46.320596],[4.718858,46.320611],[4.718962,46.320629],[4.719041,46.320643],[4.719125,46.320656],[4.719236,46.320671],[4.71948,46.320698],[4.719607,46.320701],[4.719721,46.320713],[4.719813,46.320728],[4.720051,46.320735],[4.720132,46.320739],[4.720214,46.320764],[4.720406,46.320771],[4.720585,46.320785],[4.720715,46.320797],[4.720799,46.320801],[4.720895,46.32081],[4.721138,46.320819],[4.721415,46.320825],[4.721693,46.320844],[4.721837,46.320862],[4.721947,46.320888],[4.722022,46.320894],[4.722106,46.3209],[4.722229,46.320902],[4.722305,46.320886],[4.722565,46.320795],[4.722659,46.320758],[4.722681,46.320746],[4.722781,46.320695],[4.722896,46.320671],[4.722979,46.320603],[4.72312,46.320523],[4.723451,46.320355],[4.723657,46.320267],[4.723897,46.320236],[4.723963,46.320221],[4.724027,46.320214],[4.724145,46.32019],[4.724553,46.3201],[4.724762,46.320023],[4.724919,46.31997],[4.724982,46.319947],[4.725046,46.31992],[4.725082,46.319887],[4.725104,46.319841],[4.725094,46.319618],[4.725096,46.319527],[4.725104,46.319431],[4.725132,46.319285],[4.725161,46.31918],[4.725208,46.319119],[4.724831,46.318809],[4.724684,46.318869],[4.724409,46.318975],[4.724282,46.319039],[4.723726,46.31923],[4.723727,46.319375],[4.7235,46.319411]]]]}},{"type":"Feature","id":"commune-71567","properties":{"id":"commune-71567","name":"Vergisson","kind":"commune","tier":"commune"},"geometry":{"type":"MultiPolygon","coordinates":[[[[4.693611,46.295298],[4.693476,46.29557],[4.693264,46.295868],[4.693195,46.296002],[4.693133,46.296269],[4.693056,46.296516],[4.692963,46.296859],[4.69289,46.29703],[4.692751,46.297455],[4.692727,46.297675],[4.69271,46.297927],[4.692662,46.298235],[4.692619,46.298504],[4.692583,46.298573],[4.692521,46.298821],[4.692527,46.299179],[4.692584,46.299477],[4.692633,46.299753],[4.692666,46.300091],[4.69266,46.30037],[4.692667,46.300591],[4.692803,46.30079],[4.692814,46.300843],[4.692951,46.301036],[4.693189,46.301325],[4.693289,46.301529],[4.693377,46.301876],[4.693403,46.302109],[4.693401,46.30246],[4.693427,46.302554],[4.693615,46.302748],[4.693787,46.302911],[4.693889,46.303108],[4.694124,46.30344],[4.694506,46.303981],[4.694802,46.304421],[4.695057,46.30478],[4.695129,46.304932],[4.695242,46.305056],[4.695326,46.305219],[4.695447,46.305703],[4.695538,46.306109],[4.695637,46.306419],[4.695755,46.306662],[4.695782,46.306719],[4.695761,46.30673],[4.695802,46.30681],[4.695979,46.30711],[4.696167,46.307302],[4.696364,46.30757],[4.696548,46.307934],[4.696751,46.308165],[4.696848,46.308374],[4.696976,46.308851],[4.697027,46.309006],[4.697116,46.309096],[4.697406,46.30924],[4.697737,46.309476],[4.697868,46.309578],[4.698279,46.310612],[4.69835,46.310848],[4.698329,46.311115],[4.698298,46.311586],[4.698387,46.311785],[4.698429,46.311981],[4.698367,46.312366],[4.698516,46.312858],[4.698642,46.313341],[4.698713,46.313658],[4.698714,46.313928],[4.698906,46.314326],[4.699009,46.31468],[4.69901,46.314961],[4.698951,46.315353],[4.698902,46.315617],[4.698844,46.315787],[4.698826,46.316047],[4.698895,46.316326],[4.698972,46.316438],[4.699239,46.3166],[4.699529,46.316736],[4.699767,46.316847],[4.70013,46.31706],[4.700478,46.317126],[4.700902,46.317175],[4.700987,46.317207],[4.701386,46.317581],[4.701589,46.317974],[4.701927,46.318566],[4.702193,46.319046],[4.702498,46.31916],[4.702548,46.319162],[4.70276,46.319162],[4.702846,46.319195],[4.702856,46.319211],[4.702856,46.319406],[4.70291,46.319642],[4.702951,46.3199],[4.702973,46.319952],[4.703015,46.320088],[4.703132,46.32029],[4.703185,46.320333],[4.703291,46.320518],[4.703473,46.320813],[4.703509,46.320928],[4.703445,46.320963],[4.70359,46.321217],[4.703636,46.321283],[4.703719,46.321552],[4.703806,46.321787],[4.703829,46.321786],[4.703893,46.3219],[4.703895,46.321927],[4.704005,46.322054],[4.704075,46.32211],[4.704161,46.322217],[4.704184,46.322249],[4.704233,46.322402],[4.704304,46.322627],[4.704357,46.322738],[4.704523,46.32294],[4.704697,46.323257],[4.704741,46.323336],[4.704845,46.323582],[4.704876,46.323664],[4.704897,46.323718],[4.70492,46.323715],[4.704954,46.323784],[4.705002,46.323798],[4.705039,46.323793],[4.705064,46.323806],[4.705259,46.323586],[4.705338,46.32343],[4.705382,46.323427],[4.706014,46.323445],[4.706763,46.323472],[4.706785,46.323472],[4.70689,46.323279],[4.707094,46.323247],[4.707455,46.323177],[4.707572,46.323157],[4.708142,46.322961],[4.709278,46.322661],[4.71019,46.322672],[4.710474,46.32267],[4.710461,46.322845],[4.71049,46.322846],[4.71083,46.322851],[4.71144,46.322877],[4.711988,46.322915],[4.712076,46.32294],[4.712674,46.323007],[4.712915,46.323032],[4.712866,46.323167],[4.712835,46.323247],[4.713254,46.32329],[4.713264,46.323364],[4.713283,46.323368],[4.713339,46.323388],[4.713334,46.323554],[4.715175,46.323747],[4.715679,46.32381],[4.71605,46.323854],[4.717416,46.323923],[4.717751,46.323557],[4.718016,46.323266],[4.718265,46.322987],[4.718587,46.322592],[4.718801,46.322358],[4.718917,46.322255],[4.719027,46.322198],[4.719032,46.32218],[4.718989,46.322137],[4.718804,46.321963],[4.718668,46.321881],[4.718593,46.321818],[4.718479,46.321717],[4.718327,46.321534],[4.718242,46.321345],[4.718161,46.321117],[4.718157,46.320571],[4.718453,46.320586],[4.718781,46.320632],[4.719328,46.320702],[4.719714,46.320739],[4.720319,46.32079],[4.720961,46.320827],[4.72168,46.320855],[4.721993,46.320908],[4.722203,46.320919],[4.722229,46.320902],[4.722306,46.320886],[4.722565,46.320796],[4.722659,46.320758],[4.722682,46.320747],[4.722782,46.320695],[4.722895,46.320671],[4.72298,46.320603],[4.723119,46.320523],[4.72345,46.320355],[4.723658,46.320267],[4.723896,46.320236],[4.723962,46.320221],[4.724027,46.320214],[4.724145,46.32019],[4.724554,46.3201],[4.724553,46.320115],[4.725075,46.319935],[4.725107,46.319916],[4.72512,46.319866],[4.725141,46.319409],[4.725183,46.319248],[4.725246,46.31916],[4.725215,46.3191],[4.724848,46.318799],[4.724062,46.318146],[4.723927,46.318184],[4.725208,46.316822],[4.725843,46.316146],[4.72632,46.315638],[4.726595,46.315347],[4.726955,46.314966],[4.727083,46.314832],[4.727326,46.314578],[4.727498,46.314391],[4.727608,46.314282],[4.727687,46.314193],[4.727864,46.314003],[4.727943,46.314044],[4.728117,46.313884],[4.728421,46.313177],[4.728589,46.31324],[4.72909,46.312708],[4.729283,46.3125],[4.730621,46.311069],[4.730666,46.311035],[4.730587,46.310919],[4.730398,46.310771],[4.730132,46.310645],[4.729863,46.310531],[4.72959,46.310401],[4.729314,46.310287],[4.729159,46.310245],[4.728673,46.310138],[4.728484,46.310074],[4.728056,46.309927],[4.727584,46.3098],[4.727138,46.309706],[4.726691,46.309658],[4.726675,46.309613],[4.726742,46.309377],[4.726759,46.309345],[4.72676,46.30934],[4.726747,46.309218],[4.726695,46.309023],[4.72667,46.308903],[4.726642,46.30872],[4.726583,46.308717],[4.7265,46.308589],[4.726525,46.308523],[4.726633,46.308436],[4.726818,46.308194],[4.727111,46.307887],[4.727382,46.307609],[4.727609,46.307509],[4.727695,46.307408],[4.727763,46.307383],[4.727843,46.307338],[4.727829,46.307314],[4.728361,46.307079],[4.72854,46.307036],[4.728528,46.307003],[4.72852,46.306995],[4.728429,46.30689],[4.72828,46.306862],[4.727752,46.306846],[4.726919,46.306869],[4.726046,46.306847],[4.725553,46.3068],[4.72531,46.306737],[4.72503,46.306569],[4.724903,46.306524],[4.724904,46.306503],[4.72498,46.306169],[4.724916,46.306069],[4.724898,46.305984],[4.724891,46.305868],[4.724897,46.305771],[4.724859,46.305708],[4.724871,46.305611],[4.724894,46.30535],[4.724876,46.305067],[4.72497,46.304735],[4.724732,46.304453],[4.724655,46.30439],[4.72453,46.304234],[4.724459,46.304082],[4.724411,46.303931],[4.724303,46.303821],[4.724277,46.303779],[4.724281,46.303701],[4.724225,46.303621],[4.724131,46.303524],[4.724041,46.303482],[4.723896,46.303492],[4.723789,46.303523],[4.723415,46.303681],[4.723146,46.303865],[4.723279,46.304255],[4.7233,46.304472],[4.723282,46.304741],[4.72317,46.304879],[4.723172,46.305145],[4.723076,46.305479],[4.722677,46.30504],[4.722292,46.30449],[4.72184,46.303751],[4.721646,46.30343],[4.721241,46.302965],[4.720734,46.303031],[4.720199,46.303089],[4.719908,46.302996],[4.719593,46.302746],[4.719403,46.302697],[4.718984,46.302692],[4.718941,46.302625],[4.718824,46.302524],[4.71874,46.302456],[4.7186,46.302357],[4.718261,46.302138],[4.718312,46.302084],[4.718464,46.30198],[4.718433,46.301857],[4.718334,46.301807],[4.718276,46.30163],[4.718197,46.301476],[4.718046,46.301281],[4.718014,46.301261],[4.717961,46.301096],[4.71786,46.30107],[4.71779,46.301018],[4.717725,46.300957],[4.717889,46.300805],[4.717677,46.300687],[4.717625,46.300723],[4.717481,46.300652],[4.717445,46.300678],[4.717372,46.300606],[4.717341,46.300564],[4.71728,46.300359],[4.717131,46.30021],[4.716237,46.300475],[4.715543,46.300676],[4.715548,46.300723],[4.714977,46.300831],[4.714628,46.300901],[4.714622,46.300878],[4.713825,46.30104],[4.713797,46.301045],[4.713648,46.300295],[4.71355,46.299912],[4.713445,46.299574],[4.713291,46.299126],[4.713255,46.298923],[4.713191,46.298675],[4.713106,46.298272],[4.713085,46.298277],[4.712705,46.298302],[4.712084,46.298325],[4.711807,46.29834],[4.711546,46.298366],[4.710958,46.29845],[4.710863,46.298463],[4.710582,46.298524],[4.709147,46.298631],[4.708043,46.298713],[4.70798,46.298714],[4.707902,46.298745],[4.707898,46.298561],[4.707898,46.298527],[4.708046,46.298511],[4.708146,46.298504],[4.708507,46.298469],[4.708493,46.29838],[4.709001,46.298347],[4.70905,46.298325],[4.709024,46.298231],[4.709008,46.298032],[4.708906,46.297848],[4.708883,46.297757],[4.708775,46.297496],[4.70872,46.297421],[4.708616,46.297276],[4.708507,46.297055],[4.708431,46.297074],[4.708392,46.29707],[4.708372,46.297039],[4.708322,46.296893],[4.708199,46.296734],[4.708122,46.296663],[4.707987,46.296639],[4.707916,46.29653],[4.707915,46.296483],[4.707829,46.296311],[4.707699,46.296124],[4.707597,46.296145],[4.707191,46.296245],[4.706908,46.29631],[4.705591,46.296448],[4.705594,46.296364],[4.705544,46.296043],[4.705358,46.295747],[4.705308,46.29555],[4.704211,46.295661],[4.7033,46.295749],[4.70333,46.295858],[4.702617,46.295938],[4.701883,46.296019],[4.701281,46.296079],[4.701229,46.296094],[4.700966,46.295774],[4.700886,46.295798],[4.70083,46.295857],[4.700701,46.295946],[4.700519,46.296032],[4.700326,46.296082],[4.700285,46.296011],[4.700104,46.29575],[4.700061,46.295725],[4.699871,46.295745],[4.699544,46.295759],[4.699187,46.295724],[4.699053,46.295868],[4.698856,46.296171],[4.698763,46.296292],[4.698663,46.29637],[4.698563,46.296366],[4.698333,46.296415],[4.698237,46.296497],[4.698077,46.296531],[4.697952,46.296538],[4.697829,46.296519],[4.697638,46.296426],[4.697353,46.296296],[4.697192,46.296222],[4.696967,46.296142],[4.696888,46.296144],[4.695934,46.295602],[4.695559,46.295475],[4.695451,46.295436],[4.695054,46.295209],[4.694726,46.295116],[4.694212,46.29498],[4.693776,46.294938],[4.693611,46.295298]]]]}}]}
