{"type":"FeatureCollection","features":[{"type":"Feature","id":"inao-denom-1717","properties":{"id":"inao-denom-1717","name":"Mâcon Bussières","tier":"regional","kind":"appellation","appellationId":583,"denominationId":1717,"sourceName":"Mâcon Bussières","communes":["71069"],"areaHa":213.45},"geometry":{"type":"MultiPolygon","coordinates":[[[[4.704575,46.323862],[4.704535,46.323862],[4.704069,46.324119],[4.703849,46.324225],[4.703751,46.324252],[4.703695,46.324268],[4.703591,46.324302],[4.70347,46.324352],[4.703342,46.324411],[4.703244,46.324466],[4.703108,46.324542],[4.702959,46.324625],[4.702904,46.324654],[4.702838,46.324686],[4.702782,46.324715],[4.702729,46.324745],[4.702598,46.324817],[4.702555,46.324842],[4.702522,46.324864],[4.702499,46.324884],[4.702477,46.324911],[4.702469,46.32493],[4.702467,46.324937],[4.702636,46.325191],[4.702731,46.325327],[4.702856,46.325427],[4.702999,46.325533],[4.703137,46.325644],[4.703166,46.325674],[4.703192,46.325708],[4.703227,46.325775],[4.703515,46.325592],[4.70379,46.325417],[4.704134,46.325201],[4.704196,46.325167],[4.704321,46.325106],[4.704479,46.325037],[4.704552,46.325011],[4.704676,46.32497],[4.704694,46.32497],[4.704715,46.324914],[4.704724,46.324871],[4.704732,46.324802],[4.704733,46.324667],[4.704742,46.324618],[4.704764,46.324557],[4.704814,46.324451],[4.704847,46.324356],[4.704805,46.324346],[4.704818,46.324263],[4.704834,46.324205],[4.704846,46.324157],[4.704854,46.324108],[4.704866,46.323998],[4.704884,46.323908],[4.704887,46.323892],[4.704817,46.323871],[4.704753,46.323863],[4.70465,46.32386],[4.704575,46.323862]]],[[[4.704346,46.327751],[4.704862,46.327608],[4.704736,46.327348],[4.704665,46.327216],[4.704622,46.327151],[4.704496,46.327001],[4.704414,46.326913],[4.704376,46.326871],[4.704307,46.326813],[4.704276,46.32679],[4.704246,46.32677],[4.70408,46.326684],[4.704012,46.326647],[4.703879,46.326562],[4.703809,46.326514],[4.703771,46.326485],[4.7036,46.326338],[4.703513,46.326271],[4.703449,46.326221],[4.703414,46.326189],[4.703388,46.32616],[4.703364,46.326125],[4.70325,46.325945],[4.70319,46.325828],[4.703142,46.325744],[4.70312,46.325707],[4.703111,46.325691],[4.703104,46.325695],[4.703087,46.325704],[4.703023,46.32574],[4.702992,46.325754],[4.70294,46.325773],[4.702886,46.325791],[4.702825,46.325809],[4.702722,46.325832],[4.702601,46.325867],[4.702545,46.325888],[4.702494,46.325913],[4.702433,46.325946],[4.70239,46.325971],[4.702381,46.32598],[4.702364,46.325995],[4.702356,46.326011],[4.70235,46.326083],[4.702346,46.326097],[4.702333,46.326131],[4.70224,46.326235],[4.702228,46.326243],[4.70221,46.326253],[4.702178,46.326259],[4.702144,46.326259],[4.702012,46.326256],[4.701835,46.326282],[4.701797,46.326282],[4.701774,46.326279],[4.701753,46.326268],[4.701751,46.326267],[4.701739,46.326258],[4.701729,46.326244],[4.701725,46.326224],[4.701722,46.326172],[4.701722,46.32609],[4.701675,46.326057],[4.701641,46.325938],[4.701612,46.325781],[4.701607,46.325757],[4.701638,46.325711],[4.701646,46.325699],[4.70158,46.325665],[4.701569,46.325659],[4.701487,46.325602],[4.701464,46.325586],[4.701442,46.325571],[4.701405,46.32555],[4.701366,46.325527],[4.701357,46.325522],[4.701225,46.325689],[4.701214,46.325707],[4.701187,46.325786],[4.701165,46.325845],[4.701107,46.325998],[4.70109,46.326052],[4.701068,46.326123],[4.701066,46.326131],[4.701041,46.326179],[4.701035,46.326189],[4.700999,46.326241],[4.700976,46.326272],[4.700952,46.326295],[4.700928,46.326316],[4.70085,46.326365],[4.700815,46.326386],[4.700764,46.326422],[4.700707,46.32647],[4.700701,46.326475],[4.700694,46.32648],[4.700415,46.326726],[4.700273,46.326843],[4.700181,46.326913],[4.700111,46.326961],[4.700083,46.326979],[4.700043,46.327],[4.699942,46.327044],[4.699932,46.327048],[4.699919,46.327094],[4.699889,46.327148],[4.699878,46.327164],[4.699826,46.327215],[4.699729,46.327301],[4.699649,46.327382],[4.699624,46.327404],[4.6996,46.327423],[4.699569,46.327441],[4.699556,46.327448],[4.699524,46.327462],[4.699484,46.327479],[4.699448,46.327492],[4.699427,46.327498],[4.69934,46.327525],[4.699238,46.327558],[4.699227,46.327563],[4.699213,46.327569],[4.699048,46.327668],[4.698971,46.327717],[4.698843,46.327797],[4.698843,46.327802],[4.699037,46.328325],[4.699203,46.328764],[4.69929,46.328996],[4.699542,46.329649],[4.699578,46.329745],[4.699637,46.329893],[4.699856,46.330444],[4.699875,46.33043],[4.6999,46.330404],[4.699964,46.330316],[4.700154,46.330014],[4.700227,46.32991],[4.700278,46.329847],[4.700303,46.329826],[4.700334,46.329802],[4.700416,46.329757],[4.700534,46.329703],[4.700769,46.329599],[4.700902,46.329534],[4.701002,46.329478],[4.701095,46.329419],[4.701188,46.329358],[4.701377,46.329231],[4.701533,46.329128],[4.701693,46.329022],[4.701895,46.328886],[4.702146,46.328714],[4.702905,46.328201],[4.703037,46.32811],[4.70311,46.328089],[4.703711,46.327925],[4.703965,46.327856],[4.704346,46.327751]]],[[[4.707008,46.329595],[4.707011,46.329589],[4.707038,46.329584],[4.707037,46.329582],[4.707032,46.329567],[4.707056,46.329564],[4.707109,46.329555],[4.707117,46.329559],[4.707256,46.329494],[4.707368,46.329427],[4.70749,46.32933],[4.707493,46.329319],[4.707626,46.328926],[4.707435,46.328907],[4.707203,46.328881],[4.707015,46.329002],[4.706998,46.328991],[4.706923,46.329005],[4.706651,46.329056],[4.706438,46.329094],[4.706274,46.329095],[4.706165,46.3291],[4.706084,46.329101],[4.70597,46.329047],[4.705848,46.328995],[4.705838,46.328961],[4.705914,46.328597],[4.705922,46.328534],[4.705922,46.328444],[4.70594,46.327892],[4.705373,46.327829],[4.7053,46.327822],[4.70507,46.327796],[4.705001,46.327798],[4.704702,46.327783],[4.704625,46.327788],[4.704578,46.327792],[4.704525,46.3278],[4.704424,46.327819],[4.704282,46.327856],[4.703145,46.328156],[4.703233,46.328343],[4.703186,46.328382],[4.702788,46.328404],[4.702765,46.32841],[4.702748,46.32842],[4.702319,46.328702],[4.701977,46.328926],[4.701438,46.329283],[4.701085,46.329517],[4.701006,46.329565],[4.700967,46.329587],[4.700896,46.329622],[4.700667,46.32973],[4.70044,46.329836],[4.700406,46.329856],[4.700351,46.3299],[4.700299,46.329959],[4.700244,46.330033],[4.700092,46.330276],[4.700235,46.330243],[4.700342,46.330221],[4.700449,46.330204],[4.701091,46.330088],[4.701241,46.330057],[4.701384,46.330024],[4.701584,46.329974],[4.701862,46.329902],[4.702064,46.329849],[4.702311,46.329786],[4.702523,46.329737],[4.702614,46.329719],[4.702795,46.329691],[4.702844,46.329684],[4.703019,46.329667],[4.703173,46.329654],[4.703246,46.329655],[4.703411,46.329666],[4.703438,46.329668],[4.703467,46.329667],[4.703579,46.329656],[4.703845,46.329622],[4.703946,46.329608],[4.704018,46.329601],[4.704786,46.329513],[4.705072,46.329489],[4.70519,46.329481],[4.705317,46.329478],[4.705425,46.329478],[4.705612,46.329481],[4.705673,46.329479],[4.705707,46.329479],[4.705814,46.32947],[4.705867,46.329464],[4.705912,46.329484],[4.705936,46.329493],[4.706012,46.329513],[4.706099,46.329531],[4.706366,46.329585],[4.706436,46.329604],[4.706506,46.329629],[4.706577,46.329651],[4.706658,46.329671],[4.706734,46.329671],[4.70673,46.329644],[4.70676,46.329655],[4.70678,46.32965],[4.706855,46.329631],[4.706946,46.329612],[4.706943,46.329604],[4.707008,46.329595]]],[[[4.707444,46.329866],[4.707387,46.329856],[4.707355,46.32985],[4.707359,46.329922],[4.707205,46.329906],[4.707219,46.329825],[4.707196,46.329823],[4.707197,46.329814],[4.707052,46.329815],[4.707038,46.32984],[4.706819,46.329841],[4.70675,46.329739],[4.706328,46.329907],[4.706104,46.329996],[4.706009,46.330051],[4.705985,46.330086],[4.705983,46.330097],[4.705982,46.330128],[4.705986,46.330158],[4.706056,46.330399],[4.70607,46.330431],[4.706082,46.330449],[4.706126,46.330483],[4.705834,46.330666],[4.70568,46.330763],[4.705568,46.330831],[4.705484,46.330878],[4.70521,46.331023],[4.70516,46.331047],[4.704894,46.331162],[4.70488,46.331172],[4.704871,46.331188],[4.704871,46.331199],[4.704974,46.331449],[4.705058,46.33164],[4.70508,46.331672],[4.705103,46.331697],[4.705131,46.331716],[4.70517,46.331735],[4.705247,46.331751],[4.705442,46.331767],[4.705549,46.331773],[4.705681,46.331776],[4.705767,46.331773],[4.705812,46.33177],[4.705896,46.331761],[4.706254,46.331725],[4.706264,46.331723],[4.706423,46.331705],[4.706775,46.331661],[4.707091,46.331615],[4.70736,46.331569],[4.707435,46.331547],[4.707481,46.331559],[4.707524,46.331567],[4.707576,46.331572],[4.70825,46.331568],[4.708309,46.331565],[4.708559,46.331525],[4.708758,46.331485],[4.708822,46.33147],[4.709101,46.331396],[4.709199,46.331379],[4.709319,46.331363],[4.709353,46.331361],[4.709379,46.331361],[4.709408,46.33137],[4.708842,46.330435],[4.708856,46.330432],[4.708871,46.33014],[4.708908,46.32956],[4.708967,46.328817],[4.708944,46.328434],[4.708839,46.328215],[4.708531,46.327983],[4.708429,46.328033],[4.708328,46.328089],[4.708253,46.328139],[4.708183,46.328196],[4.708147,46.328236],[4.708055,46.32837],[4.70803,46.328418],[4.707873,46.328745],[4.707851,46.328797],[4.707613,46.329319],[4.707879,46.329382],[4.707865,46.329396],[4.707734,46.329525],[4.707672,46.3296],[4.707841,46.329734],[4.707801,46.329863],[4.707769,46.329965],[4.707752,46.330027],[4.707616,46.330061],[4.707612,46.330062],[4.707603,46.330044],[4.70753,46.329917],[4.707572,46.329904],[4.707563,46.329888],[4.707444,46.329866]]],[[[4.704258,46.330129],[4.70434,46.330277],[4.704506,46.330598],[4.704545,46.330663],[4.70459,46.330714],[4.704636,46.330779],[4.704677,46.33083],[4.704703,46.330857],[4.704742,46.330914],[4.704765,46.330942],[4.704798,46.330977],[4.704827,46.33101],[4.704852,46.331039],[4.704882,46.33106],[4.704927,46.331083],[4.704945,46.331091],[4.70514,46.330986],[4.705202,46.330959],[4.705318,46.330903],[4.705495,46.330815],[4.705619,46.330745],[4.70567,46.330713],[4.705711,46.330682],[4.70588,46.330532],[4.705901,46.330503],[4.70591,46.330475],[4.705909,46.330445],[4.70592,46.330371],[4.70592,46.330332],[4.705869,46.330163],[4.705866,46.330137],[4.705879,46.330107],[4.705899,46.330078],[4.705965,46.330029],[4.706036,46.329978],[4.706178,46.329897],[4.706294,46.329843],[4.706323,46.329832],[4.706393,46.329808],[4.706519,46.32977],[4.706524,46.329761],[4.706511,46.329662],[4.706334,46.329622],[4.705945,46.329537],[4.705878,46.32953],[4.705574,46.329527],[4.705257,46.329522],[4.705165,46.329524],[4.704689,46.329561],[4.704587,46.329571],[4.704512,46.329581],[4.704317,46.329612],[4.704246,46.329624],[4.704218,46.329632],[4.704235,46.329715],[4.704247,46.329757],[4.704221,46.32977],[4.704216,46.329779],[4.704227,46.329974],[4.704231,46.330031],[4.704244,46.330099],[4.704258,46.330129]]],[[[4.704565,46.332577],[4.704655,46.332585],[4.70475,46.332583],[4.704797,46.332579],[4.70488,46.332569],[4.704923,46.332563],[4.704979,46.332555],[4.705232,46.332499],[4.705452,46.332458],[4.70547,46.332451],[4.705474,46.332437],[4.705164,46.331844],[4.705151,46.331826],[4.705124,46.331793],[4.705073,46.331749],[4.705045,46.331721],[4.705023,46.331692],[4.705006,46.33166],[4.704978,46.331601],[4.704869,46.331331],[4.704806,46.331181],[4.704784,46.331123],[4.704752,46.331059],[4.704697,46.330969],[4.704641,46.330879],[4.704595,46.330824],[4.704571,46.3308],[4.704543,46.330765],[4.704522,46.330728],[4.704478,46.330635],[4.704461,46.330594],[4.704424,46.33053],[4.704301,46.330306],[4.704198,46.330113],[4.704186,46.330084],[4.704172,46.330049],[4.704124,46.32976],[4.704109,46.329719],[4.704088,46.329696],[4.704053,46.32967],[4.70402,46.329661],[4.703833,46.329677],[4.70368,46.329692],[4.7034,46.329717],[4.703384,46.3297],[4.703317,46.329694],[4.703257,46.32969],[4.703213,46.32969],[4.703176,46.329691],[4.703144,46.329693],[4.703105,46.329696],[4.703084,46.329697],[4.703043,46.329702],[4.703013,46.329706],[4.702981,46.32971],[4.702957,46.329714],[4.702927,46.329718],[4.702834,46.329736],[4.70264,46.329773],[4.702618,46.329756],[4.702604,46.32976],[4.702393,46.329811],[4.702007,46.329905],[4.701934,46.329925],[4.701634,46.330004],[4.70158,46.330018],[4.701153,46.330112],[4.701067,46.330129],[4.700864,46.330166],[4.700643,46.330206],[4.700372,46.330248],[4.70026,46.330269],[4.700172,46.33029],[4.700134,46.330302],[4.700103,46.330316],[4.700053,46.330351],[4.699951,46.330481],[4.69995,46.330501],[4.699954,46.33052],[4.700103,46.330903],[4.700179,46.331106],[4.700233,46.331272],[4.700285,46.331418],[4.700708,46.331504],[4.700753,46.331508],[4.700775,46.331514],[4.701183,46.331586],[4.70138,46.331603],[4.701554,46.331613],[4.701695,46.331618],[4.701941,46.331628],[4.702315,46.33164],[4.702458,46.331645],[4.702485,46.331683],[4.702498,46.331695],[4.703218,46.332052],[4.703482,46.332181],[4.70389,46.332383],[4.70391,46.332385],[4.704148,46.33249],[4.704195,46.332507],[4.70435,46.332542],[4.704445,46.33256],[4.704498,46.332568],[4.704565,46.332577]],[[4.70286,46.329741],[4.702906,46.329733],[4.702912,46.329751],[4.702866,46.329759],[4.70286,46.329741]]],[[[4.70847,46.332599],[4.708566,46.332584],[4.708721,46.332561],[4.708925,46.332517],[4.70911,46.33248],[4.709324,46.332431],[4.709321,46.332425],[4.709554,46.332323],[4.709631,46.332285],[4.709782,46.332207],[4.709857,46.332168],[4.709962,46.332113],[4.709983,46.332098],[4.709997,46.332074],[4.709992,46.332041],[4.709935,46.331918],[4.709858,46.331766],[4.709815,46.331701],[4.709733,46.331601],[4.709672,46.331537],[4.709628,46.3315],[4.709575,46.331464],[4.709522,46.33144],[4.709409,46.331396],[4.709386,46.331391],[4.709342,46.331383],[4.709302,46.331385],[4.709266,46.33139],[4.709232,46.331394],[4.709127,46.331416],[4.709016,46.331442],[4.70886,46.331491],[4.708687,46.331531],[4.70863,46.331541],[4.708515,46.331557],[4.708333,46.331585],[4.708207,46.331591],[4.708074,46.331596],[4.707723,46.331604],[4.707668,46.331604],[4.707424,46.331594],[4.70736,46.3316],[4.707239,46.331619],[4.707177,46.331629],[4.707039,46.331653],[4.707031,46.33166],[4.707024,46.331657],[4.707012,46.331658],[4.707005,46.331663],[4.706991,46.331659],[4.706767,46.331686],[4.706597,46.331706],[4.706349,46.331735],[4.705977,46.331773],[4.705723,46.331796],[4.705618,46.331803],[4.705553,46.331804],[4.705458,46.331802],[4.705366,46.331795],[4.705313,46.331798],[4.705278,46.331803],[4.705247,46.331815],[4.705243,46.331829],[4.705245,46.331853],[4.705257,46.33188],[4.70534,46.33208],[4.705418,46.33224],[4.705482,46.332341],[4.705522,46.332395],[4.705553,46.332429],[4.705572,46.332442],[4.705705,46.332502],[4.705752,46.33252],[4.705845,46.332543],[4.705849,46.332554],[4.706262,46.332611],[4.706625,46.332663],[4.706716,46.332675],[4.706881,46.332693],[4.706974,46.332704],[4.707125,46.332716],[4.70725,46.332721],[4.707316,46.33272],[4.707516,46.332718],[4.707668,46.332706],[4.707737,46.332703],[4.708173,46.332645],[4.70836,46.332614],[4.70847,46.332599]]],[[[4.701938,46.335827],[4.701927,46.335685],[4.701927,46.335512],[4.701927,46.335509],[4.70178,46.335205],[4.701688,46.335004],[4.701115,46.334747],[4.700163,46.333842],[4.699894,46.333825],[4.699472,46.333805],[4.699362,46.3338],[4.699219,46.3338],[4.699048,46.333804],[4.698739,46.333827],[4.698047,46.333893],[4.697889,46.333908],[4.697796,46.333917],[4.697658,46.333979],[4.697727,46.334041],[4.697885,46.334096],[4.698039,46.334153],[4.698303,46.334255],[4.698414,46.334309],[4.698498,46.334359],[4.698612,46.33445],[4.698843,46.334648],[4.698921,46.334717],[4.699031,46.334813],[4.69919,46.334953],[4.699303,46.335053],[4.699433,46.335193],[4.699552,46.335336],[4.699642,46.335464],[4.699712,46.335575],[4.699789,46.3357],[4.699797,46.335701],[4.699933,46.335907],[4.700024,46.336045],[4.700072,46.336154],[4.700105,46.336239],[4.700209,46.336503],[4.700238,46.336506],[4.700244,46.336553],[4.700251,46.336558],[4.700264,46.336661],[4.700246,46.336683],[4.700303,46.336885],[4.700417,46.337285],[4.700535,46.337657],[4.700558,46.337705],[4.700612,46.337802],[4.700673,46.337894],[4.700701,46.337926],[4.700745,46.337972],[4.700807,46.338024],[4.700983,46.338101],[4.701016,46.338112],[4.701547,46.33827],[4.701608,46.33818],[4.701686,46.338062],[4.701839,46.338082],[4.702044,46.338107],[4.702105,46.338115],[4.70236,46.338147],[4.702418,46.338154],[4.702543,46.33789],[4.702743,46.337434],[4.702713,46.337418],[4.702396,46.337379],[4.70217,46.337367],[4.701706,46.337344],[4.701528,46.337336],[4.701522,46.337081],[4.701521,46.336983],[4.701532,46.336894],[4.701557,46.336864],[4.701703,46.336716],[4.701706,46.336712],[4.701822,46.336503],[4.701943,46.336514],[4.701961,46.336408],[4.701989,46.336361],[4.702032,46.336279],[4.702095,46.336163],[4.702082,46.336109],[4.702046,46.336042],[4.701947,46.335844],[4.701938,46.335827]]],[[[4.705008,46.337063],[4.705207,46.336953],[4.70523,46.336967],[4.705609,46.336784],[4.70578,46.336686],[4.705663,46.336621],[4.705747,46.336649],[4.705756,46.336651],[4.70579,46.336662],[4.70581,46.336668],[4.705843,46.33667],[4.705916,46.336658],[4.706014,46.336634],[4.706205,46.336586],[4.706398,46.336529],[4.7066,46.336472],[4.706683,46.336452],[4.707019,46.336365],[4.707141,46.336338],[4.707524,46.336257],[4.707665,46.336224],[4.707468,46.335417],[4.706809,46.335507],[4.706403,46.335656],[4.706112,46.335764],[4.705852,46.335874],[4.705765,46.335909],[4.705674,46.335946],[4.705622,46.335967],[4.705579,46.335983],[4.705435,46.336036],[4.705187,46.336129],[4.704957,46.336207],[4.704649,46.336442],[4.704538,46.336526],[4.704528,46.336534],[4.704416,46.336619],[4.704368,46.336654],[4.703926,46.337004],[4.703743,46.337149],[4.703672,46.337205],[4.703928,46.337318],[4.703963,46.33734],[4.704132,46.337468],[4.704136,46.337464],[4.704224,46.337453],[4.704336,46.337438],[4.704424,46.337406],[4.704497,46.337362],[4.704749,46.337208],[4.704833,46.337159],[4.705008,46.337063]]],[[[4.710146,46.337815],[4.710325,46.337805],[4.710388,46.337701],[4.710376,46.337512],[4.710372,46.337489],[4.710104,46.336735],[4.710097,46.336732],[4.709974,46.336398],[4.709796,46.336362],[4.709649,46.336248],[4.709609,46.336213],[4.709496,46.33621],[4.709123,46.33619],[4.708404,46.336156],[4.708273,46.336151],[4.708244,46.336152],[4.707999,46.336209],[4.707309,46.336368],[4.70712,46.336414],[4.705871,46.336733],[4.705422,46.336944],[4.70608,46.33746],[4.706264,46.337421],[4.706314,46.337409],[4.706416,46.337378],[4.706441,46.337408],[4.706587,46.337356],[4.706919,46.337238],[4.706926,46.337109],[4.706958,46.3371],[4.707205,46.337033],[4.707239,46.337028],[4.707388,46.33702],[4.707554,46.337004],[4.707625,46.336996],[4.707767,46.337465],[4.707865,46.337918],[4.708009,46.337916],[4.707894,46.337463],[4.70826,46.337412],[4.708337,46.337629],[4.70843,46.337902],[4.708438,46.337902],[4.708628,46.337892],[4.70871,46.337887],[4.708766,46.337884],[4.709264,46.337859],[4.709597,46.337842],[4.709891,46.337827],[4.709999,46.337822],[4.710146,46.337815]]],[[[4.701011,46.340735],[4.701051,46.340687],[4.701081,46.34064],[4.701126,46.340554],[4.701142,46.340514],[4.701158,46.340474],[4.701174,46.340421],[4.70119,46.34031],[4.701193,46.340247],[4.701169,46.340265],[4.701073,46.340344],[4.701063,46.340339],[4.701052,46.34035],[4.701026,46.340338],[4.700997,46.340325],[4.700863,46.340265],[4.700903,46.34022],[4.700851,46.340178],[4.70081,46.340145],[4.700814,46.340141],[4.700785,46.340125],[4.700793,46.340116],[4.70045,46.339939],[4.700436,46.339932],[4.700404,46.339954],[4.700333,46.340038],[4.700295,46.340094],[4.700203,46.340242],[4.700116,46.340386],[4.700087,46.340423],[4.700052,46.340462],[4.700012,46.340498],[4.699971,46.340529],[4.69988,46.340589],[4.699799,46.340645],[4.699766,46.340624],[4.699756,46.340616],[4.699744,46.340581],[4.699823,46.340568],[4.699877,46.340553],[4.69996,46.340503],[4.700025,46.340451],[4.700074,46.340396],[4.700149,46.340272],[4.700229,46.340149],[4.700167,46.340113],[4.700097,46.340073],[4.700083,46.340065],[4.700071,46.340059],[4.699899,46.339961],[4.699904,46.339955],[4.699665,46.339852],[4.699815,46.339694],[4.699818,46.339691],[4.699983,46.339516],[4.699893,46.339483],[4.699719,46.339415],[4.699517,46.339345],[4.699175,46.339639],[4.699129,46.33956],[4.698924,46.339683],[4.69866,46.339527],[4.698845,46.339326],[4.698935,46.339384],[4.698983,46.339393],[4.699042,46.339393],[4.699352,46.339371],[4.699442,46.339309],[4.699372,46.339251],[4.699386,46.339239],[4.699359,46.339197],[4.699334,46.339175],[4.699072,46.338976],[4.698808,46.338755],[4.698976,46.338659],[4.698955,46.338391],[4.698611,46.338372],[4.698134,46.33835],[4.698134,46.338346],[4.698147,46.338172],[4.69815,46.337981],[4.698151,46.337955],[4.698152,46.337909],[4.6982,46.337681],[4.698254,46.337424],[4.697656,46.337266],[4.697659,46.337232],[4.697571,46.337081],[4.697416,46.33715],[4.697113,46.337305],[4.696925,46.337398],[4.696763,46.337466],[4.696574,46.337539],[4.696335,46.337629],[4.696131,46.337701],[4.695891,46.337773],[4.695661,46.337848],[4.695579,46.337896],[4.695543,46.337922],[4.695515,46.337949],[4.695401,46.33799],[4.695037,46.33803],[4.6946,46.33807],[4.694597,46.338019],[4.69489,46.337997],[4.694892,46.338006],[4.695207,46.337945],[4.695482,46.337879],[4.695508,46.337867],[4.695618,46.337817],[4.696066,46.337688],[4.6963,46.337613],[4.696543,46.337524],[4.696763,46.337433],[4.696691,46.337201],[4.696866,46.336956],[4.697119,46.336602],[4.697044,46.336576],[4.697054,46.336559],[4.696806,46.336517],[4.696666,46.336493],[4.696766,46.335961],[4.696751,46.335961],[4.696683,46.33596],[4.696542,46.33595],[4.696251,46.335932],[4.696122,46.335931],[4.696061,46.335932],[4.696053,46.335899],[4.696055,46.335467],[4.696095,46.335437],[4.69622,46.335488],[4.696603,46.335462],[4.69701,46.335434],[4.697081,46.33543],[4.697104,46.335439],[4.697594,46.33559],[4.697794,46.33564],[4.697941,46.335688],[4.6982,46.335777],[4.698228,46.335788],[4.698285,46.335799],[4.698359,46.33572],[4.698402,46.335737],[4.698548,46.335802],[4.698701,46.335872],[4.698617,46.335956],[4.698417,46.336099],[4.6981,46.336325],[4.698138,46.336355],[4.698179,46.336333],[4.698214,46.33639],[4.698734,46.336104],[4.699035,46.335933],[4.699315,46.336223],[4.699856,46.336029],[4.699678,46.335743],[4.699547,46.335523],[4.699506,46.335464],[4.699059,46.335763],[4.698912,46.33562],[4.699335,46.335243],[4.699326,46.335232],[4.699226,46.335124],[4.699154,46.335054],[4.699025,46.334943],[4.698733,46.334689],[4.69863,46.334601],[4.698502,46.334487],[4.698424,46.334427],[4.698415,46.334432],[4.698387,46.334448],[4.69836,46.334421],[4.698385,46.334407],[4.698311,46.334361],[4.698163,46.334299],[4.697841,46.334179],[4.697503,46.334071],[4.697157,46.333973],[4.696923,46.333912],[4.696623,46.333842],[4.696413,46.333795],[4.696369,46.333786],[4.69636,46.333784],[4.696356,46.333795],[4.696333,46.333852],[4.696322,46.333867],[4.696264,46.333894],[4.696187,46.333921],[4.695924,46.334016],[4.695672,46.334109],[4.69558,46.334141],[4.695477,46.334175],[4.695297,46.334231],[4.695219,46.334262],[4.695178,46.33428],[4.695152,46.334292],[4.694963,46.334373],[4.69489,46.334405],[4.694851,46.334417],[4.694799,46.334444],[4.694436,46.334546],[4.694424,46.33455],[4.694374,46.334623],[4.694252,46.334804],[4.694237,46.334826],[4.69424,46.334827],[4.694215,46.334864],[4.694212,46.334863],[4.694087,46.335048],[4.693988,46.335194],[4.693881,46.335349],[4.693715,46.335598],[4.693617,46.335745],[4.693566,46.335822],[4.693531,46.335867],[4.693492,46.33592],[4.6934,46.336042],[4.693317,46.336146],[4.693283,46.33633],[4.693283,46.336426],[4.693266,46.336431],[4.693267,46.33649],[4.693203,46.336607],[4.693187,46.336696],[4.693156,46.336872],[4.693137,46.337059],[4.693115,46.337246],[4.69328,46.337465],[4.69362,46.337886],[4.693605,46.337895],[4.69356,46.33792],[4.693543,46.337937],[4.693489,46.337994],[4.693468,46.338024],[4.693418,46.338052],[4.693386,46.338082],[4.693378,46.338089],[4.693492,46.338186],[4.69353,46.338214],[4.693563,46.338197],[4.693619,46.338276],[4.693775,46.338448],[4.693883,46.338581],[4.694022,46.338747],[4.69418,46.338936],[4.694269,46.339044],[4.69445,46.339235],[4.69464,46.339434],[4.694699,46.339499],[4.694827,46.339636],[4.694944,46.339764],[4.694989,46.33976],[4.695032,46.339881],[4.695107,46.340082],[4.695263,46.34048],[4.695285,46.340513],[4.695333,46.340558],[4.69539,46.340595],[4.695441,46.340621],[4.695525,46.340648],[4.695587,46.340659],[4.695694,46.340667],[4.695799,46.340666],[4.696668,46.340649],[4.696974,46.340727],[4.696954,46.340797],[4.696991,46.340828],[4.697032,46.340859],[4.697131,46.340836],[4.697322,46.340791],[4.697512,46.340751],[4.697548,46.340745],[4.697561,46.340777],[4.697563,46.340785],[4.697592,46.340882],[4.697595,46.340891],[4.697621,46.340976],[4.697624,46.340984],[4.69766,46.341091],[4.697668,46.341118],[4.69767,46.341124],[4.697702,46.341238],[4.697695,46.34132],[4.697695,46.341327],[4.697694,46.341382],[4.697669,46.341649],[4.697614,46.341919],[4.697582,46.3421],[4.697569,46.342199],[4.697572,46.342241],[4.697578,46.34228],[4.697586,46.342337],[4.697601,46.342389],[4.697612,46.342421],[4.697664,46.342542],[4.697738,46.342706],[4.697758,46.342752],[4.69776,46.342761],[4.69776,46.342825],[4.697763,46.342882],[4.697767,46.342949],[4.697774,46.343032],[4.697783,46.343151],[4.697786,46.3432],[4.697815,46.343557],[4.698435,46.343824],[4.698535,46.343706],[4.698575,46.343528],[4.698608,46.343346],[4.698672,46.343203],[4.698799,46.342929],[4.698884,46.342804],[4.699089,46.342516],[4.699144,46.342439],[4.699163,46.342415],[4.699499,46.34201],[4.700097,46.341573],[4.700135,46.341543],[4.700768,46.340963],[4.700982,46.340768],[4.701011,46.340735]]],[[[4.70319,46.33958],[4.703281,46.33962],[4.703396,46.339676],[4.703486,46.339725],[4.703574,46.339769],[4.703644,46.339796],[4.703796,46.339844],[4.704083,46.339899],[4.704108,46.339897],[4.704151,46.339865],[4.704207,46.339801],[4.704258,46.339759],[4.704301,46.33972],[4.704386,46.339627],[4.704451,46.339551],[4.704646,46.33929],[4.704662,46.339263],[4.704676,46.339232],[4.70469,46.339127],[4.704761,46.338855],[4.704799,46.33868],[4.70481,46.338653],[4.70491,46.338488],[4.704758,46.338494],[4.704607,46.338501],[4.704313,46.338529],[4.703985,46.338561],[4.703844,46.338523],[4.703596,46.338453],[4.70351,46.33843],[4.703486,46.338463],[4.70339,46.338594],[4.703239,46.338798],[4.703171,46.338889],[4.70304,46.33887],[4.702903,46.338851],[4.702729,46.338826],[4.702613,46.339014],[4.702538,46.339],[4.702395,46.338973],[4.702302,46.33911],[4.702135,46.339077],[4.701969,46.339044],[4.701956,46.339076],[4.701955,46.339102],[4.701967,46.33912],[4.701995,46.339137],[4.702047,46.339159],[4.702355,46.339267],[4.702624,46.339358],[4.702689,46.339379],[4.70282,46.339422],[4.702845,46.339441],[4.703058,46.339524],[4.70319,46.33958]]],[[[4.695389,46.340671],[4.695325,46.340636],[4.695384,46.340776],[4.695392,46.340889],[4.695396,46.341007],[4.695401,46.341021],[4.695431,46.341048],[4.695463,46.341056],[4.695951,46.341069],[4.696004,46.341076],[4.696055,46.341087],[4.6963,46.341187],[4.69644,46.341071],[4.696491,46.341044],[4.696498,46.341045],[4.696638,46.340962],[4.696643,46.340964],[4.696824,46.340909],[4.696918,46.34087],[4.696798,46.340775],[4.69676,46.340757],[4.696713,46.340742],[4.696686,46.340739],[4.69662,46.340728],[4.696564,46.340725],[4.696409,46.340727],[4.695942,46.340727],[4.69565,46.340725],[4.695574,46.340719],[4.695488,46.340704],[4.695436,46.340691],[4.695389,46.340671]]],[[[4.703254,46.341935],[4.703181,46.342129],[4.703162,46.342197],[4.703149,46.34229],[4.703101,46.342575],[4.703076,46.342644],[4.703003,46.342764],[4.702968,46.342851],[4.702944,46.342937],[4.702888,46.343091],[4.702838,46.343222],[4.702817,46.343284],[4.702811,46.343309],[4.702809,46.343353],[4.702824,46.343589],[4.702802,46.3438],[4.702807,46.343846],[4.702815,46.343867],[4.702848,46.343901],[4.702876,46.343918],[4.702909,46.34393],[4.702941,46.343938],[4.702987,46.343944],[4.703089,46.343945],[4.703176,46.343942],[4.703271,46.34393],[4.703302,46.343924],[4.703455,46.343894],[4.703541,46.343875],[4.703681,46.343831],[4.703786,46.343789],[4.704116,46.343622],[4.704196,46.343576],[4.704246,46.343546],[4.704291,46.343513],[4.70433,46.343479],[4.704355,46.343454],[4.704377,46.343416],[4.704472,46.343266],[4.704505,46.343217],[4.704545,46.343165],[4.704604,46.343096],[4.704672,46.343037],[4.704706,46.343019],[4.704836,46.342966],[4.704909,46.34293],[4.705504,46.342654],[4.705652,46.34258],[4.705757,46.342524],[4.705773,46.342516],[4.705814,46.342492],[4.705847,46.342468],[4.705921,46.342416],[4.705952,46.342387],[4.706009,46.342325],[4.706154,46.342183],[4.706236,46.342108],[4.706296,46.342057],[4.706377,46.341993],[4.706399,46.342],[4.706716,46.341814],[4.706734,46.341802],[4.70675,46.341792],[4.706771,46.341771],[4.706801,46.341738],[4.706829,46.3417],[4.706898,46.341583],[4.706917,46.341563],[4.706943,46.341548],[4.707022,46.341512],[4.707106,46.341468],[4.707173,46.341426],[4.707197,46.341436],[4.707306,46.34132],[4.707581,46.340993],[4.707804,46.340721],[4.708091,46.340348],[4.708146,46.34028],[4.708456,46.339999],[4.708508,46.339944],[4.708606,46.339823],[4.708653,46.339753],[4.708679,46.339716],[4.708714,46.339665],[4.708767,46.339557],[4.708892,46.339395],[4.708936,46.339343],[4.708981,46.339306],[4.709098,46.339211],[4.709072,46.339188],[4.709123,46.339149],[4.709146,46.339163],[4.709191,46.339135],[4.709272,46.339076],[4.709474,46.338942],[4.709656,46.338813],[4.709765,46.338718],[4.70985,46.338665],[4.709934,46.338615],[4.71004,46.338539],[4.710093,46.338505],[4.710138,46.338478],[4.710226,46.338434],[4.710323,46.338381],[4.710212,46.338232],[4.710244,46.338086],[4.710164,46.33809],[4.710027,46.338095],[4.709877,46.338099],[4.709871,46.33803],[4.709623,46.338067],[4.709573,46.33807],[4.709461,46.338075],[4.709451,46.338075],[4.709434,46.337957],[4.709352,46.33796],[4.709351,46.337947],[4.70892,46.337971],[4.708602,46.337989],[4.708197,46.338009],[4.707921,46.338017],[4.707917,46.338164],[4.707743,46.338165],[4.707742,46.338165],[4.707609,46.338165],[4.707606,46.338223],[4.707495,46.338223],[4.707365,46.338219],[4.707317,46.338219],[4.707325,46.338009],[4.707075,46.338006],[4.707066,46.338148],[4.707008,46.338147],[4.706957,46.338146],[4.706732,46.338143],[4.706744,46.337999],[4.70651,46.337996],[4.70638,46.338002],[4.706329,46.338006],[4.706156,46.338024],[4.705874,46.338055],[4.705671,46.33808],[4.705169,46.33814],[4.704984,46.338467],[4.704909,46.338618],[4.704864,46.338751],[4.704821,46.338905],[4.704806,46.338981],[4.704802,46.339023],[4.704829,46.339114],[4.704835,46.339183],[4.704833,46.339236],[4.704822,46.339269],[4.704799,46.3393],[4.704763,46.339337],[4.704672,46.339426],[4.704546,46.33956],[4.704457,46.339663],[4.704274,46.339886],[4.704206,46.339975],[4.704244,46.339987],[4.704226,46.340015],[4.70419,46.340004],[4.704103,46.34016],[4.704065,46.340222],[4.703922,46.34042],[4.703668,46.340808],[4.703613,46.340907],[4.703564,46.34101],[4.703536,46.341096],[4.703531,46.341113],[4.703521,46.341141],[4.703448,46.341474],[4.703431,46.341546],[4.703366,46.341688],[4.703254,46.341935]]],[[[4.70358,46.340695],[4.703624,46.340593],[4.703656,46.34054],[4.703671,46.340517],[4.703741,46.340539],[4.703826,46.340425],[4.703865,46.340348],[4.703874,46.340351],[4.703971,46.340262],[4.704009,46.340213],[4.704091,46.340071],[4.704129,46.339982],[4.703822,46.339884],[4.703585,46.339807],[4.703523,46.339783],[4.703453,46.339749],[4.703154,46.339607],[4.702826,46.33946],[4.702602,46.339391],[4.701958,46.339169],[4.701849,46.33915],[4.701741,46.339202],[4.701604,46.339384],[4.701389,46.339677],[4.701236,46.33989],[4.70128,46.340117],[4.701295,46.340241],[4.701297,46.340291],[4.701296,46.340333],[4.701285,46.340407],[4.701272,46.340467],[4.701243,46.340555],[4.701228,46.340591],[4.701204,46.34064],[4.701145,46.340742],[4.701056,46.340866],[4.701006,46.340916],[4.700959,46.34095],[4.700931,46.340954],[4.700902,46.340982],[4.700828,46.341053],[4.700681,46.341187],[4.700633,46.341233],[4.700474,46.341381],[4.700271,46.341552],[4.700162,46.341642],[4.700129,46.341667],[4.700023,46.341741],[4.699854,46.341859],[4.699658,46.342004],[4.699605,46.342045],[4.699548,46.342105],[4.699431,46.342235],[4.699367,46.342311],[4.699312,46.342389],[4.699238,46.342491],[4.698941,46.34291],[4.698917,46.342949],[4.699307,46.342998],[4.699348,46.343002],[4.699382,46.343],[4.699384,46.343],[4.699415,46.342995],[4.699421,46.342994],[4.699539,46.34297],[4.699662,46.342942],[4.699918,46.342884],[4.700206,46.342792],[4.700197,46.342816],[4.700847,46.342843],[4.701197,46.342859],[4.70203,46.342896],[4.702493,46.342917],[4.702716,46.342928],[4.70288,46.342936],[4.702884,46.342918],[4.702922,46.342821],[4.702979,46.342718],[4.703004,46.34266],[4.703027,46.342597],[4.703076,46.342398],[4.703107,46.34222],[4.703137,46.342088],[4.703154,46.34203],[4.703179,46.34196],[4.703225,46.341885],[4.703254,46.34184],[4.703279,46.341783],[4.703293,46.34174],[4.703308,46.341673],[4.703361,46.341562],[4.703383,46.341488],[4.70342,46.341338],[4.703456,46.341175],[4.703494,46.341047],[4.703382,46.340997],[4.703416,46.340943],[4.703505,46.340831],[4.703544,46.340762],[4.70358,46.340695]]],[[[4.706991,46.342136],[4.707008,46.342117],[4.707026,46.34209],[4.707117,46.341862],[4.707155,46.341774],[4.707212,46.341668],[4.707209,46.341652],[4.707182,46.341629],[4.707149,46.341612],[4.707118,46.341604],[4.707074,46.341601],[4.706966,46.341599],[4.706945,46.341619],[4.706914,46.341668],[4.706841,46.341778],[4.706758,46.341842],[4.70669,46.341885],[4.706553,46.341964],[4.706504,46.342028],[4.706491,46.342022],[4.706325,46.342127],[4.706228,46.342209],[4.70614,46.342287],[4.705991,46.34243],[4.70595,46.342466],[4.705812,46.342544],[4.705668,46.342617],[4.705708,46.342634],[4.705518,46.342725],[4.70548,46.342713],[4.705314,46.34279],[4.705199,46.342842],[4.704753,46.343051],[4.704697,46.343081],[4.704652,46.34312],[4.704612,46.343161],[4.704575,46.343206],[4.704539,46.343252],[4.704498,46.343312],[4.70446,46.343377],[4.704423,46.343442],[4.704395,46.343474],[4.704332,46.343538],[4.704271,46.343583],[4.704188,46.343628],[4.704126,46.343665],[4.704039,46.343709],[4.703903,46.34378],[4.703795,46.343832],[4.703698,46.343868],[4.703605,46.343898],[4.703491,46.343928],[4.703321,46.343964],[4.703305,46.343977],[4.703304,46.34399],[4.70331,46.343998],[4.703333,46.344009],[4.703689,46.344187],[4.704305,46.344296],[4.704466,46.344319],[4.704537,46.344329],[4.704805,46.344348],[4.704935,46.344362],[4.705085,46.344383],[4.70516,46.344403],[4.705313,46.344445],[4.705398,46.344466],[4.705484,46.344484],[4.705773,46.344526],[4.706128,46.344603],[4.706284,46.344635],[4.706592,46.344689],[4.706578,46.344646],[4.706557,46.344609],[4.706443,46.344448],[4.706273,46.344325],[4.706257,46.344305],[4.706245,46.344229],[4.706238,46.344183],[4.706246,46.344134],[4.70624,46.344099],[4.706208,46.344029],[4.706176,46.343959],[4.706116,46.343825],[4.706129,46.343685],[4.706132,46.34363],[4.706129,46.343564],[4.706118,46.343451],[4.70615,46.343459],[4.706167,46.343415],[4.706177,46.34336],[4.706204,46.343145],[4.706217,46.343105],[4.706225,46.343088],[4.706299,46.342996],[4.70638,46.342881],[4.706443,46.342786],[4.70649,46.34267],[4.70672,46.342738],[4.706848,46.342586],[4.707006,46.342422],[4.706758,46.342308],[4.706807,46.342223],[4.706771,46.3422],[4.706858,46.342158],[4.70688,46.342161],[4.70692,46.342164],[4.706949,46.342161],[4.706969,46.342152],[4.706991,46.342136]]],[[[4.710887,46.325085],[4.710931,46.324941],[4.71094,46.3249],[4.71094,46.324867],[4.710948,46.324752],[4.710876,46.324648],[4.710778,46.324612],[4.710706,46.324569],[4.710636,46.324521],[4.710602,46.324513],[4.710597,46.324481],[4.710592,46.324421],[4.710583,46.324376],[4.710572,46.32426],[4.710572,46.324188],[4.710579,46.324046],[4.710577,46.323933],[4.71057,46.323858],[4.710552,46.323744],[4.710536,46.323658],[4.710481,46.323475],[4.710466,46.323473],[4.710414,46.323301],[4.710384,46.323161],[4.710378,46.323053],[4.710386,46.322973],[4.710421,46.322772],[4.710414,46.322752],[4.710395,46.322744],[4.710362,46.322744],[4.710287,46.322753],[4.710199,46.322757],[4.710085,46.322756],[4.709804,46.322745],[4.70966,46.322745],[4.709473,46.322744],[4.709255,46.322756],[4.709164,46.322768],[4.709123,46.323438],[4.709207,46.323439],[4.709159,46.323802],[4.709135,46.323964],[4.709113,46.324368],[4.709081,46.324369],[4.709071,46.324443],[4.70903,46.324733],[4.709194,46.324963],[4.709228,46.32501],[4.709273,46.325152],[4.709299,46.325212],[4.709306,46.325244],[4.709315,46.325335],[4.709327,46.325407],[4.708773,46.325488],[4.708825,46.32585],[4.708706,46.325869],[4.7087,46.325979],[4.708701,46.326046],[4.70869,46.326104],[4.708657,46.326171],[4.708602,46.326302],[4.70858,46.326341],[4.708559,46.326365],[4.708534,46.326381],[4.708474,46.3264],[4.708397,46.326411],[4.70839,46.326448],[4.708564,46.326411],[4.708659,46.326574],[4.708815,46.326836],[4.709157,46.327411],[4.709228,46.327528],[4.709135,46.327582],[4.709028,46.327644],[4.709114,46.327696],[4.709219,46.327756],[4.709338,46.327835],[4.709475,46.327917],[4.709567,46.327966],[4.709659,46.327998],[4.709889,46.32807],[4.71002,46.328106],[4.710018,46.328111],[4.710322,46.328209],[4.710593,46.328295],[4.710609,46.3283],[4.710626,46.328305],[4.710655,46.328293],[4.710675,46.32828],[4.710738,46.328236],[4.710749,46.328226],[4.710751,46.328198],[4.710746,46.328172],[4.710665,46.327998],[4.710608,46.327847],[4.710576,46.327741],[4.71056,46.327641],[4.710552,46.32749],[4.710554,46.327434],[4.710569,46.327357],[4.710601,46.327291],[4.710638,46.327237],[4.710698,46.327169],[4.710737,46.327133],[4.710783,46.327097],[4.710817,46.327069],[4.710933,46.326878],[4.710988,46.326771],[4.711039,46.326675],[4.711076,46.326595],[4.711132,46.32637],[4.711174,46.326171],[4.711175,46.326122],[4.711166,46.326053],[4.711158,46.326025],[4.711123,46.325963],[4.711047,46.325861],[4.711023,46.325835],[4.710866,46.325653],[4.710842,46.325598],[4.710811,46.325477],[4.710813,46.325394],[4.71082,46.325336],[4.71088,46.325336],[4.710884,46.325316],[4.710876,46.325284],[4.710874,46.325196],[4.710877,46.32514],[4.710887,46.325085]]],[[[4.71113,46.324033],[4.711044,46.324022],[4.710849,46.323998],[4.710636,46.323971],[4.710641,46.324261],[4.710649,46.324364],[4.710663,46.324415],[4.710685,46.324458],[4.710709,46.324494],[4.710752,46.324526],[4.710791,46.324551],[4.710875,46.324587],[4.710929,46.324606],[4.710978,46.32462],[4.710988,46.324664],[4.710995,46.324727],[4.710999,46.324789],[4.710995,46.324849],[4.710985,46.324927],[4.710984,46.324963],[4.710988,46.324979],[4.710947,46.32503],[4.710929,46.325059],[4.710919,46.325094],[4.710915,46.325141],[4.71092,46.325204],[4.710927,46.325332],[4.710922,46.325379],[4.710909,46.325431],[4.710901,46.32549],[4.710906,46.325527],[4.710915,46.325573],[4.710941,46.325633],[4.710968,46.325675],[4.711114,46.325858],[4.711183,46.325949],[4.711257,46.326111],[4.711269,46.326142],[4.71126,46.326161],[4.711201,46.326298],[4.711173,46.32641],[4.711457,46.326446],[4.711495,46.326391],[4.711538,46.326395],[4.711618,46.326402],[4.711569,46.326548],[4.711524,46.326649],[4.711383,46.326969],[4.711372,46.326992],[4.710922,46.326995],[4.710877,46.327075],[4.710857,46.327103],[4.71082,46.327136],[4.710781,46.327168],[4.710707,46.327216],[4.710682,46.327243],[4.710667,46.327266],[4.71065,46.327309],[4.710629,46.3274],[4.710616,46.327475],[4.710611,46.32755],[4.710614,46.327661],[4.710633,46.327732],[4.710665,46.327834],[4.710714,46.327982],[4.710765,46.328098],[4.710787,46.328136],[4.710808,46.328164],[4.710816,46.328197],[4.710811,46.328218],[4.710778,46.328263],[4.710724,46.328315],[4.710723,46.328326],[4.710735,46.328337],[4.710754,46.328348],[4.710905,46.328387],[4.71095,46.32839],[4.710995,46.328356],[4.711052,46.328274],[4.7113,46.327962],[4.711391,46.327845],[4.711451,46.327781],[4.711593,46.327635],[4.711736,46.327495],[4.711777,46.327463],[4.711834,46.327429],[4.711867,46.327404],[4.711903,46.327359],[4.711949,46.327221],[4.71199,46.327087],[4.712033,46.326961],[4.712053,46.326911],[4.71212,46.326733],[4.712131,46.326668],[4.712132,46.326594],[4.712129,46.32651],[4.712136,46.32619],[4.712152,46.326037],[4.712155,46.325983],[4.712152,46.325897],[4.71218,46.325762],[4.712219,46.325557],[4.71223,46.325483],[4.712299,46.32549],[4.712302,46.325478],[4.712307,46.325458],[4.712349,46.325293],[4.712355,46.325128],[4.712354,46.325089],[4.712339,46.325024],[4.712332,46.324972],[4.712331,46.324916],[4.712341,46.324846],[4.712345,46.324833],[4.712367,46.324691],[4.712367,46.324631],[4.712381,46.324482],[4.712407,46.324223],[4.71251,46.324072],[4.712451,46.324052],[4.712402,46.324048],[4.712346,46.324048],[4.7122,46.324046],[4.71204,46.324045],[4.711893,46.324047],[4.71168,46.324052],[4.711478,46.324057],[4.711289,46.324052],[4.71113,46.324033]]],[[[4.712053,46.322958],[4.712053,46.322962],[4.712054,46.322984],[4.711942,46.322936],[4.711917,46.322932],[4.711553,46.322908],[4.711131,46.322892],[4.710471,46.322865],[4.71045,46.322967],[4.710443,46.323043],[4.710444,46.323104],[4.710452,46.323145],[4.710504,46.323368],[4.710544,46.32349],[4.710566,46.323563],[4.7106,46.323726],[4.71063,46.323895],[4.710719,46.323932],[4.71084,46.32395],[4.711087,46.323985],[4.711313,46.324008],[4.711601,46.324001],[4.712031,46.323993],[4.712171,46.323997],[4.712364,46.324001],[4.712374,46.323962],[4.712491,46.323976],[4.712577,46.323987],[4.712572,46.324005],[4.712578,46.32401],[4.712596,46.324026],[4.712597,46.324027],[4.712586,46.324033],[4.712611,46.324054],[4.712582,46.324108],[4.712549,46.32417],[4.71251,46.324222],[4.712489,46.324238],[4.712487,46.324245],[4.712472,46.324291],[4.712466,46.324334],[4.712473,46.324343],[4.712484,46.324391],[4.712458,46.324895],[4.712454,46.324918],[4.712449,46.325237],[4.712436,46.325278],[4.712421,46.325274],[4.712424,46.325323],[4.712419,46.325359],[4.712389,46.325471],[4.71225,46.325873],[4.712235,46.325942],[4.712231,46.326009],[4.71223,46.326251],[4.712237,46.326409],[4.712238,46.326426],[4.712238,46.326633],[4.712221,46.326726],[4.712196,46.326815],[4.712176,46.32687],[4.712033,46.32719],[4.711936,46.327426],[4.711998,46.327438],[4.712003,46.327459],[4.712004,46.327466],[4.712002,46.327476],[4.711921,46.327461],[4.711888,46.327473],[4.711808,46.327525],[4.711765,46.32756],[4.711696,46.327616],[4.711635,46.327671],[4.71155,46.327751],[4.711486,46.327808],[4.711284,46.328046],[4.711081,46.328299],[4.711058,46.32833],[4.711036,46.328369],[4.711024,46.328405],[4.711014,46.328488],[4.710993,46.328615],[4.710897,46.329254],[4.710881,46.329349],[4.710862,46.329478],[4.710748,46.329769],[4.710609,46.330071],[4.710616,46.330081],[4.71064,46.330093],[4.710659,46.330099],[4.710699,46.330105],[4.710814,46.330106],[4.710954,46.330106],[4.711148,46.330109],[4.711361,46.330108],[4.711475,46.330105],[4.711877,46.330111],[4.712069,46.330122],[4.712188,46.330131],[4.712266,46.330144],[4.712444,46.330192],[4.712716,46.33027],[4.712874,46.330305],[4.712962,46.330312],[4.712984,46.330374],[4.713088,46.33063],[4.713123,46.330715],[4.713145,46.330784],[4.713153,46.330827],[4.713161,46.330888],[4.713183,46.331021],[4.713187,46.33104],[4.713219,46.331232],[4.713249,46.331388],[4.713288,46.331555],[4.713294,46.33157],[4.713299,46.331583],[4.713319,46.331592],[4.713344,46.331598],[4.71363,46.331587],[4.71365,46.331585],[4.713706,46.33158],[4.714069,46.331575],[4.714507,46.331581],[4.714812,46.331573],[4.715551,46.331547],[4.715739,46.331537],[4.715885,46.331533],[4.715945,46.331517],[4.715962,46.33152],[4.716224,46.331506],[4.716399,46.331497],[4.716632,46.331502],[4.716954,46.331507],[4.717048,46.331507],[4.717358,46.331499],[4.717932,46.331483],[4.718222,46.331473],[4.718369,46.331463],[4.718585,46.331443],[4.718699,46.33142],[4.718757,46.331405],[4.71882,46.331385],[4.71892,46.331355],[4.719143,46.331285],[4.719362,46.331213],[4.719521,46.33116],[4.719592,46.331134],[4.719701,46.331087],[4.719776,46.331056],[4.719824,46.331032],[4.71995,46.330968],[4.72012,46.330877],[4.720152,46.330857],[4.720161,46.330842],[4.720163,46.330827],[4.719809,46.330128],[4.719791,46.330114],[4.71973,46.330096],[4.719485,46.330117],[4.719361,46.330127],[4.719246,46.330134],[4.719176,46.330137],[4.719128,46.330135],[4.719066,46.330119],[4.71901,46.330109],[4.718953,46.330112],[4.718777,46.330116],[4.718564,46.330108],[4.71837,46.33007],[4.718363,46.330052],[4.718285,46.330058],[4.718249,46.329926],[4.718239,46.329916],[4.718168,46.329922],[4.718096,46.329926],[4.717884,46.329911],[4.717864,46.329893],[4.717722,46.3299],[4.717719,46.329899],[4.717703,46.329334],[4.717388,46.329253],[4.717148,46.329191],[4.716985,46.329144],[4.716414,46.328985],[4.716261,46.328935],[4.716208,46.328914],[4.716137,46.328883],[4.716099,46.328863],[4.716064,46.328845],[4.716033,46.328826],[4.716001,46.328801],[4.715843,46.328709],[4.71582,46.3287],[4.715801,46.328575],[4.715778,46.328477],[4.715755,46.328416],[4.715735,46.328379],[4.715614,46.328183],[4.715592,46.32815],[4.715516,46.328087],[4.71544,46.328015],[4.715412,46.32798],[4.715387,46.327934],[4.715355,46.327848],[4.715346,46.327786],[4.715343,46.327703],[4.715311,46.32765],[4.715278,46.327562],[4.715265,46.327516],[4.715255,46.32746],[4.715252,46.327418],[4.715256,46.327154],[4.715259,46.327061],[4.715162,46.327049],[4.715019,46.327026],[4.715022,46.326946],[4.715046,46.326845],[4.715048,46.326806],[4.715045,46.326789],[4.715021,46.326718],[4.715096,46.326725],[4.715123,46.32673],[4.715149,46.326722],[4.715168,46.326706],[4.715178,46.326685],[4.715181,46.32666],[4.715175,46.326614],[4.715175,46.326569],[4.715166,46.32642],[4.715061,46.326415],[4.714983,46.326401],[4.71496,46.326308],[4.714973,46.326159],[4.714977,46.326109],[4.714978,46.326074],[4.71491,46.32606],[4.714885,46.325994],[4.714916,46.326001],[4.714931,46.325922],[4.714937,46.325845],[4.714936,46.325801],[4.714923,46.325657],[4.714913,46.32542],[4.714914,46.325371],[4.714925,46.325209],[4.714939,46.325067],[4.714969,46.324888],[4.715029,46.324605],[4.715053,46.324512],[4.715087,46.324361],[4.715148,46.324119],[4.715168,46.324043],[4.715263,46.323783],[4.715018,46.323757],[4.714376,46.32369],[4.714112,46.32366],[4.713436,46.323589],[4.713351,46.323578],[4.7133,46.323571],[4.713308,46.323391],[4.713251,46.323367],[4.713236,46.323358],[4.713234,46.323293],[4.712795,46.323265],[4.712787,46.323265],[4.712828,46.323102],[4.712839,46.323063],[4.712838,46.323043],[4.712445,46.323001],[4.712056,46.322958],[4.712053,46.322958]]],[[[4.710283,46.328247],[4.710129,46.328194],[4.709942,46.328119],[4.709822,46.328081],[4.709701,46.328047],[4.70955,46.328009],[4.709481,46.327985],[4.709486,46.327978],[4.709332,46.327882],[4.7091,46.327727],[4.709021,46.327674],[4.708985,46.327661],[4.708947,46.327653],[4.709406,46.328078],[4.709412,46.32807],[4.709546,46.32824],[4.709638,46.328393],[4.709697,46.328517],[4.709812,46.32883],[4.709958,46.32921],[4.709977,46.329244],[4.710015,46.3293],[4.710032,46.329311],[4.71023,46.329326],[4.710379,46.329337],[4.710394,46.329333],[4.710432,46.329241],[4.710468,46.329247],[4.710761,46.329302],[4.710766,46.329285],[4.710822,46.329298],[4.710831,46.329248],[4.710859,46.329071],[4.71096,46.328482],[4.710962,46.328454],[4.710954,46.328445],[4.710508,46.328314],[4.710283,46.328247]]],[[[4.712925,46.330395],[4.71289,46.330369],[4.712861,46.330351],[4.712819,46.330335],[4.712617,46.330278],[4.712482,46.330237],[4.712438,46.330226],[4.712231,46.330172],[4.712095,46.330149],[4.712039,46.330147],[4.711937,46.330151],[4.711972,46.330382],[4.712475,46.330503],[4.713048,46.330639],[4.713009,46.330556],[4.712975,46.330466],[4.712961,46.330437],[4.712942,46.330414],[4.712925,46.330395]]],[[[4.725837,46.333847],[4.72573,46.333897],[4.725595,46.333952],[4.725529,46.333979],[4.725393,46.33403],[4.725291,46.334068],[4.72526,46.334084],[4.725225,46.334104],[4.725172,46.334139],[4.725034,46.334237],[4.724905,46.334325],[4.724665,46.334468],[4.7246,46.334507],[4.724489,46.334567],[4.72425,46.334697],[4.724179,46.334737],[4.723859,46.334944],[4.724489,46.335393],[4.724223,46.335528],[4.724038,46.335371],[4.723664,46.33506],[4.723487,46.335164],[4.723465,46.335177],[4.723904,46.335672],[4.724039,46.33566],[4.724189,46.335641],[4.724331,46.33562],[4.724506,46.335586],[4.724685,46.335538],[4.724854,46.335482],[4.724893,46.335469],[4.72504,46.335416],[4.725166,46.335365],[4.725232,46.335335],[4.725281,46.335313],[4.725305,46.335284],[4.725338,46.335244],[4.725369,46.335214],[4.72547,46.335132],[4.725555,46.335066],[4.725842,46.334846],[4.726097,46.334656],[4.726176,46.334597],[4.726313,46.334496],[4.726465,46.334411],[4.726652,46.334303],[4.726788,46.334224],[4.726883,46.334173],[4.726899,46.334165],[4.726951,46.33411],[4.726954,46.334107],[4.727015,46.334049],[4.727077,46.333995],[4.727158,46.333932],[4.727268,46.333856],[4.727397,46.33378],[4.727537,46.333698],[4.727723,46.333598],[4.727749,46.333573],[4.727882,46.333441],[4.727977,46.33334],[4.728042,46.333269],[4.728119,46.333192],[4.728322,46.332996],[4.728517,46.332807],[4.728713,46.332614],[4.728748,46.332579],[4.728847,46.332506],[4.728903,46.332465],[4.728905,46.332442],[4.728934,46.332442],[4.728938,46.332439],[4.729104,46.332302],[4.729289,46.332152],[4.729374,46.332082],[4.729426,46.332043],[4.729684,46.33188],[4.730025,46.331653],[4.730126,46.331585],[4.729937,46.331435],[4.729862,46.331372],[4.729798,46.331317],[4.729739,46.331267],[4.729686,46.331232],[4.729626,46.331198],[4.729624,46.331197],[4.729538,46.33116],[4.729518,46.33118],[4.729207,46.331034],[4.729155,46.331009],[4.729071,46.330976],[4.728915,46.330915],[4.728752,46.330855],[4.728736,46.330848],[4.728624,46.330798],[4.728498,46.330739],[4.728246,46.330609],[4.728264,46.330573],[4.728219,46.330546],[4.728216,46.330544],[4.727923,46.330356],[4.727657,46.33019],[4.727656,46.330189],[4.727579,46.330183],[4.727569,46.330183],[4.727505,46.330179],[4.727269,46.330164],[4.726968,46.330146],[4.726795,46.330141],[4.726443,46.330132],[4.726281,46.330127],[4.726126,46.330125],[4.726101,46.330154],[4.726082,46.330182],[4.726066,46.330216],[4.726052,46.330261],[4.72602,46.330265],[4.725984,46.330275],[4.72596,46.330287],[4.725932,46.330308],[4.725484,46.330636],[4.725152,46.330864],[4.725135,46.33089],[4.725126,46.330915],[4.725117,46.330955],[4.725114,46.330988],[4.724852,46.331173],[4.724668,46.331302],[4.724623,46.331332],[4.724265,46.331585],[4.72403,46.331427],[4.723976,46.331391],[4.723826,46.331507],[4.723797,46.331584],[4.723792,46.331608],[4.723775,46.331697],[4.723727,46.331894],[4.723704,46.331995],[4.723674,46.33205],[4.723583,46.332168],[4.72356,46.332209],[4.72355,46.33224],[4.72356,46.332258],[4.723527,46.332292],[4.723385,46.332573],[4.723236,46.332863],[4.723169,46.332994],[4.723132,46.333069],[4.723101,46.333129],[4.723088,46.333149],[4.723033,46.333219],[4.723091,46.333289],[4.723173,46.33325],[4.723249,46.333214],[4.723283,46.333194],[4.723316,46.333168],[4.723344,46.333134],[4.723368,46.333093],[4.723386,46.333043],[4.723414,46.332966],[4.723462,46.332914],[4.723631,46.332756],[4.723639,46.332754],[4.723866,46.33254],[4.723921,46.332508],[4.724233,46.332283],[4.724538,46.332064],[4.724765,46.331905],[4.72475,46.331892],[4.724985,46.331819],[4.725167,46.331759],[4.725313,46.331707],[4.72561,46.331704],[4.725699,46.331718],[4.725812,46.331736],[4.725982,46.331782],[4.726089,46.331819],[4.726148,46.331846],[4.726232,46.331885],[4.726319,46.331926],[4.72636,46.331942],[4.726417,46.331961],[4.726489,46.331978],[4.726572,46.331991],[4.726644,46.331998],[4.726759,46.331998],[4.726822,46.331996],[4.726934,46.331989],[4.727159,46.331972],[4.72724,46.331963],[4.727241,46.331991],[4.72724,46.332001],[4.727074,46.332019],[4.726911,46.332031],[4.72675,46.332034],[4.726639,46.33203],[4.726566,46.332022],[4.726453,46.332004],[4.726343,46.331975],[4.726261,46.331948],[4.726193,46.331916],[4.726083,46.331865],[4.726037,46.331847],[4.725943,46.331818],[4.725888,46.331803],[4.725811,46.331787],[4.725653,46.33176],[4.725573,46.331751],[4.725484,46.331744],[4.725409,46.331745],[4.725345,46.331752],[4.725297,46.331765],[4.725099,46.331838],[4.724967,46.331888],[4.724915,46.331911],[4.724868,46.331933],[4.72476,46.331992],[4.72466,46.332053],[4.724521,46.332155],[4.724468,46.332192],[4.724375,46.332244],[4.724272,46.332305],[4.724168,46.33238],[4.724011,46.332494],[4.723935,46.332552],[4.723847,46.332626],[4.723543,46.332914],[4.72346,46.332986],[4.723391,46.333149],[4.723386,46.333163],[4.72336,46.333186],[4.723052,46.333354],[4.72258,46.333662],[4.722468,46.333791],[4.722354,46.333922],[4.72234,46.333952],[4.722273,46.334023],[4.722318,46.33409],[4.722165,46.334127],[4.722151,46.334135],[4.722132,46.334162],[4.721906,46.334488],[4.721899,46.334504],[4.721912,46.334522],[4.72172,46.334722],[4.721672,46.334755],[4.721631,46.334777],[4.721539,46.334812],[4.721456,46.33484],[4.721345,46.334873],[4.721189,46.334915],[4.720979,46.334944],[4.720869,46.334966],[4.720814,46.334981],[4.720664,46.335021],[4.720523,46.335081],[4.720275,46.335195],[4.720482,46.335528],[4.720749,46.335447],[4.721046,46.335358],[4.721305,46.335765],[4.721405,46.335756],[4.721492,46.335748],[4.7215,46.335746],[4.721558,46.33573],[4.721837,46.335636],[4.721921,46.335608],[4.721961,46.335618],[4.721989,46.335623],[4.722019,46.335624],[4.722053,46.335618],[4.722177,46.335591],[4.721813,46.335056],[4.722226,46.334927],[4.722663,46.33548],[4.722821,46.335411],[4.722994,46.335335],[4.723113,46.335285],[4.723239,46.335236],[4.723296,46.335212],[4.723423,46.335148],[4.723653,46.335023],[4.723899,46.334873],[4.724148,46.33472],[4.72446,46.334543],[4.724539,46.334496],[4.724636,46.334435],[4.724723,46.334378],[4.724893,46.334264],[4.725001,46.334192],[4.725148,46.334099],[4.725193,46.33407],[4.725278,46.334029],[4.72535,46.333996],[4.725523,46.333922],[4.725608,46.333889],[4.725753,46.333843],[4.725867,46.333798],[4.726087,46.333712],[4.726183,46.333674],[4.726443,46.333556],[4.726584,46.333503],[4.726615,46.333539],[4.726462,46.333593],[4.726204,46.333701],[4.726181,46.33371],[4.726043,46.333762],[4.725921,46.333809],[4.725837,46.333847]]],[[[4.717122,46.333899],[4.71696,46.333928],[4.716835,46.333953],[4.716822,46.333956],[4.71648,46.334015],[4.716372,46.334034],[4.716342,46.334039],[4.715823,46.334128],[4.715657,46.334157],[4.715638,46.334161],[4.715637,46.334158],[4.715476,46.334196],[4.715547,46.334401],[4.715631,46.334631],[4.715688,46.334935],[4.715726,46.335126],[4.715736,46.335153],[4.715799,46.335356],[4.715859,46.335386],[4.715985,46.335374],[4.716038,46.33537],[4.716154,46.335368],[4.716213,46.335371],[4.716298,46.335381],[4.716482,46.335434],[4.716625,46.335476],[4.716646,46.33548],[4.716666,46.335484],[4.716734,46.33549],[4.716923,46.335489],[4.717034,46.335486],[4.717623,46.335462],[4.717665,46.335461],[4.718109,46.335447],[4.718255,46.335447],[4.718398,46.335456],[4.71861,46.335489],[4.718978,46.335546],[4.719052,46.335548],[4.719175,46.335521],[4.719354,46.335481],[4.719437,46.335371],[4.719488,46.335325],[4.719553,46.335271],[4.719674,46.335215],[4.719945,46.335092],[4.720186,46.334983],[4.720198,46.335008],[4.720521,46.334862],[4.720632,46.334829],[4.720687,46.334814],[4.721204,46.334747],[4.721288,46.334736],[4.721331,46.334724],[4.721456,46.334674],[4.721549,46.334636],[4.721619,46.334574],[4.721859,46.334244],[4.721936,46.334146],[4.722096,46.333951],[4.722261,46.33375],[4.722438,46.333532],[4.722468,46.333506],[4.722729,46.333268],[4.722818,46.333156],[4.7229,46.333051],[4.722912,46.333036],[4.722959,46.332929],[4.723081,46.332607],[4.723139,46.332451],[4.72317,46.332359],[4.723198,46.332266],[4.723232,46.332157],[4.723295,46.332114],[4.723386,46.331925],[4.723369,46.331881],[4.723232,46.331854],[4.722857,46.332018],[4.722491,46.332181],[4.7221,46.332357],[4.721962,46.332409],[4.721865,46.332445],[4.72187,46.332454],[4.721577,46.332574],[4.721685,46.332761],[4.721763,46.332896],[4.7215,46.332951],[4.720621,46.333136],[4.720179,46.33323],[4.719781,46.333317],[4.719451,46.33339],[4.719143,46.333463],[4.718822,46.333542],[4.718377,46.333648],[4.718334,46.333664],[4.717974,46.333733],[4.717615,46.333802],[4.717333,46.333854],[4.717122,46.333899]]],[[[4.712922,46.334526],[4.71274,46.334575],[4.712719,46.334582],[4.712325,46.334712],[4.712355,46.334765],[4.712545,46.335113],[4.712653,46.335303],[4.712679,46.33532],[4.712739,46.335343],[4.712775,46.33535],[4.712832,46.335356],[4.712864,46.335352],[4.712785,46.335135],[4.712962,46.335101],[4.713222,46.335052],[4.713366,46.335339],[4.714656,46.335399],[4.714677,46.335401],[4.714693,46.335402],[4.714985,46.335415],[4.715137,46.335376],[4.71517,46.335426],[4.715328,46.33543],[4.715457,46.335429],[4.715667,46.335412],[4.715688,46.335401],[4.715694,46.335389],[4.715648,46.335217],[4.715639,46.335172],[4.715556,46.334715],[4.715537,46.334619],[4.715448,46.334368],[4.715319,46.334012],[4.714855,46.334111],[4.715004,46.334469],[4.714339,46.334622],[4.714327,46.334625],[4.714311,46.334629],[4.714251,46.334506],[4.714089,46.334555],[4.713522,46.334728],[4.713371,46.334405],[4.712922,46.334526]]],[[[4.712289,46.335012],[4.712346,46.335004],[4.712307,46.3349],[4.712295,46.334902],[4.712276,46.33485],[4.712294,46.334847],[4.712264,46.334734],[4.711853,46.334774],[4.711625,46.334796],[4.711477,46.334811],[4.71144,46.334734],[4.711347,46.334544],[4.71134,46.33453],[4.71127,46.334582],[4.711221,46.334615],[4.71117,46.334646],[4.711143,46.334655],[4.7111,46.334675],[4.711028,46.334703],[4.711105,46.334897],[4.711213,46.334939],[4.711309,46.334975],[4.711613,46.335091],[4.712019,46.335246],[4.712154,46.335297],[4.712106,46.335186],[4.712046,46.335046],[4.712289,46.335012]]],[[[4.711146,46.335],[4.710631,46.334803],[4.710526,46.334756],[4.710485,46.334738],[4.71045,46.334719],[4.71038,46.334677],[4.710346,46.334651],[4.71031,46.334614],[4.710292,46.334592],[4.71027,46.334559],[4.710245,46.334509],[4.710198,46.334417],[4.71,46.334276],[4.709805,46.334291],[4.709859,46.334512],[4.709904,46.334704],[4.709861,46.334711],[4.709711,46.334681],[4.70965,46.334669],[4.709394,46.334616],[4.709197,46.334569],[4.709157,46.334572],[4.709228,46.33486],[4.709236,46.334887],[4.70925,46.334939],[4.70935,46.335302],[4.709067,46.33535],[4.708608,46.335425],[4.708558,46.335433],[4.708506,46.335442],[4.708137,46.335504],[4.70825,46.335916],[4.708305,46.336102],[4.708809,46.336129],[4.708931,46.336135],[4.708927,46.336124],[4.709543,46.336159],[4.709495,46.335939],[4.709549,46.33593],[4.709526,46.335895],[4.709563,46.335888],[4.709551,46.335844],[4.709613,46.335837],[4.70959,46.335744],[4.709718,46.335729],[4.709723,46.335736],[4.709793,46.335728],[4.710025,46.335713],[4.710006,46.335707],[4.70998,46.335691],[4.709983,46.335662],[4.710041,46.33566],[4.710103,46.335663],[4.710176,46.335669],[4.710194,46.335669],[4.710248,46.335669],[4.71023,46.335828],[4.710486,46.335785],[4.710829,46.335727],[4.710978,46.335701],[4.710844,46.335354],[4.710907,46.335334],[4.711183,46.335288],[4.71125,46.335275],[4.711146,46.335]]],[[[4.721795,46.335858],[4.722119,46.335837],[4.722419,46.335809],[4.722603,46.335792],[4.722515,46.335579],[4.722338,46.335617],[4.722033,46.335679],[4.721875,46.335719],[4.721738,46.335782],[4.721795,46.335858]]],[[[4.710527,46.335978],[4.7103,46.336],[4.710304,46.336034],[4.710314,46.336123],[4.710319,46.336149],[4.710477,46.336129],[4.71064,46.336108],[4.71073,46.336312],[4.71036,46.336368],[4.710359,46.336363],[4.710269,46.336371],[4.710028,46.336391],[4.710201,46.336852],[4.710211,46.336851],[4.710495,46.337589],[4.710482,46.337592],[4.710573,46.337774],[4.710707,46.337761],[4.711098,46.337721],[4.711249,46.337706],[4.711301,46.3377],[4.711365,46.337687],[4.71151,46.337636],[4.711634,46.337588],[4.7119,46.337478],[4.71182,46.33728],[4.711555,46.336632],[4.711568,46.33663],[4.711257,46.335984],[4.711134,46.335727],[4.710723,46.335797],[4.710478,46.335838],[4.710527,46.335978]]],[[[4.720956,46.336685],[4.720929,46.336738],[4.720895,46.336788],[4.720689,46.337076],[4.720487,46.337353],[4.720351,46.33754],[4.720346,46.337547],[4.720871,46.337144],[4.720898,46.337123],[4.72122,46.336948],[4.721244,46.336934],[4.72146,46.336811],[4.7215,46.336791],[4.721674,46.336706],[4.721829,46.336629],[4.721842,46.336623],[4.72195,46.336706],[4.721978,46.336727],[4.722108,46.336645],[4.722161,46.336611],[4.722213,46.336577],[4.722304,46.336511],[4.722405,46.336449],[4.722395,46.336438],[4.722401,46.336433],[4.722587,46.336617],[4.722586,46.336618],[4.722614,46.336644],[4.722691,46.336613],[4.722878,46.336538],[4.722967,46.336501],[4.723514,46.33628],[4.723618,46.336238],[4.723681,46.336212],[4.723652,46.336164],[4.723845,46.336069],[4.723937,46.336024],[4.724044,46.335969],[4.724368,46.335855],[4.724487,46.335779],[4.724537,46.335748],[4.724614,46.335699],[4.724588,46.335648],[4.724576,46.335651],[4.724406,46.335696],[4.724275,46.335723],[4.724141,46.335738],[4.723837,46.335763],[4.723587,46.335784],[4.723154,46.33583],[4.722225,46.335929],[4.721902,46.335963],[4.721834,46.33597],[4.721945,46.336182],[4.721726,46.336553],[4.721646,46.336688],[4.721332,46.336494],[4.72122,46.336422],[4.72069,46.33609],[4.72043,46.336139],[4.720831,46.336352],[4.720887,46.336396],[4.720918,46.336432],[4.720934,46.336459],[4.720952,46.336505],[4.720959,46.336532],[4.720969,46.336569],[4.720971,46.336604],[4.720969,46.336642],[4.720956,46.336685]]],[[[4.718783,46.338041],[4.719034,46.337879],[4.719087,46.337845],[4.719244,46.33774],[4.719368,46.337658],[4.719725,46.337868],[4.719637,46.33781],[4.719746,46.337872],[4.719872,46.337787],[4.719942,46.337735],[4.72004,46.337652],[4.720106,46.33769],[4.720161,46.337627],[4.720198,46.337585],[4.72025,46.337516],[4.720359,46.33736],[4.720521,46.33713],[4.720591,46.337032],[4.720741,46.336824],[4.720802,46.336739],[4.720841,46.33668],[4.720853,46.336642],[4.720852,46.336603],[4.720842,46.336555],[4.720821,46.336501],[4.720798,46.336461],[4.720764,46.336428],[4.720729,46.336399],[4.720691,46.336374],[4.72055,46.336295],[4.71983,46.336748],[4.719613,46.336597],[4.719342,46.336404],[4.719269,46.336352],[4.719254,46.336341],[4.719191,46.336342],[4.718823,46.336441],[4.718635,46.336491],[4.718513,46.336524],[4.718493,46.336529],[4.718463,46.336544],[4.71844,46.336565],[4.718449,46.336587],[4.718345,46.33663],[4.718427,46.336725],[4.718278,46.336782],[4.718139,46.336604],[4.718028,46.336642],[4.717953,46.336668],[4.717916,46.336619],[4.717804,46.336657],[4.717699,46.336693],[4.717601,46.336542],[4.717134,46.336622],[4.71726,46.33681],[4.717393,46.337011],[4.717573,46.337281],[4.717738,46.337526],[4.71781,46.337623],[4.718247,46.338142],[4.718365,46.338276],[4.718371,46.338283],[4.718477,46.338241],[4.718783,46.338041]]],[[[4.71496,46.339968],[4.714964,46.33996],[4.715066,46.339801],[4.715078,46.339783],[4.715175,46.339802],[4.715212,46.339809],[4.715259,46.339759],[4.715266,46.339752],[4.71545,46.339556],[4.715473,46.339531],[4.715937,46.339036],[4.71595,46.339023],[4.716434,46.339167],[4.716479,46.33918],[4.716502,46.339187],[4.716663,46.338957],[4.716817,46.338715],[4.716919,46.338574],[4.716854,46.338547],[4.716832,46.338538],[4.717025,46.338414],[4.717048,46.3384],[4.717259,46.338307],[4.718009,46.338006],[4.718027,46.337999],[4.718023,46.337994],[4.717908,46.337859],[4.717837,46.33777],[4.717726,46.337623],[4.717665,46.337539],[4.717453,46.337237],[4.717407,46.337169],[4.717234,46.336905],[4.717227,46.336892],[4.717183,46.336825],[4.71666,46.337073],[4.71607,46.337353],[4.716165,46.337428],[4.716318,46.337546],[4.716396,46.33762],[4.716462,46.337683],[4.716591,46.337768],[4.716751,46.338006],[4.716696,46.33803],[4.716601,46.338072],[4.716562,46.338089],[4.716367,46.338153],[4.716071,46.338253],[4.715947,46.338291],[4.715859,46.338318],[4.715577,46.338371],[4.715438,46.338399],[4.715337,46.338424],[4.71526,46.338447],[4.715175,46.338479],[4.715111,46.338505],[4.715039,46.338539],[4.714963,46.338582],[4.71488,46.33863],[4.714859,46.338643],[4.71482,46.338644],[4.714814,46.338646],[4.714711,46.338692],[4.714609,46.338757],[4.714565,46.338785],[4.714465,46.338848],[4.714387,46.338901],[4.714264,46.338988],[4.714202,46.339037],[4.714148,46.339084],[4.714024,46.339204],[4.7139,46.339327],[4.713853,46.339373],[4.713721,46.339506],[4.713681,46.339544],[4.713649,46.339572],[4.713582,46.339632],[4.713495,46.339726],[4.713433,46.339791],[4.713413,46.33981],[4.71318,46.33998],[4.713087,46.340034],[4.713053,46.340053],[4.712921,46.340113],[4.712855,46.340153],[4.712604,46.340294],[4.712426,46.340395],[4.712418,46.340401],[4.712304,46.340586],[4.712274,46.340652],[4.712255,46.340703],[4.712208,46.340895],[4.712177,46.34099],[4.712158,46.341022],[4.711992,46.341225],[4.711959,46.341268],[4.711886,46.341372],[4.711795,46.341512],[4.712195,46.341597],[4.712322,46.341616],[4.712423,46.341626],[4.712731,46.34164],[4.712734,46.341637],[4.712823,46.341639],[4.712979,46.341642],[4.713044,46.341649],[4.713433,46.341702],[4.713682,46.341751],[4.713893,46.341794],[4.713986,46.341614],[4.714037,46.341514],[4.714975,46.341754],[4.715,46.34176],[4.71501,46.341763],[4.714994,46.341569],[4.714993,46.341558],[4.714987,46.341488],[4.714985,46.341441],[4.71498,46.341414],[4.714939,46.341306],[4.714933,46.341286],[4.714924,46.341254],[4.714921,46.341245],[4.714888,46.341092],[4.714882,46.341068],[4.714886,46.341036],[4.714892,46.340972],[4.714893,46.340968],[4.714899,46.340926],[4.714904,46.340904],[4.714961,46.340775],[4.714977,46.340731],[4.715024,46.340579],[4.715029,46.340562],[4.715046,46.340481],[4.715055,46.340346],[4.715054,46.340324],[4.715119,46.34029],[4.715142,46.3403],[4.715158,46.340208],[4.715176,46.340103],[4.715161,46.340099],[4.714918,46.340032],[4.71496,46.339968]]]]}},{"type":"Feature","id":"commune-71069","properties":{"id":"commune-71069","name":"Bussières","kind":"commune","tier":"commune"},"geometry":{"type":"MultiPolygon","coordinates":[[[[4.71007,46.322722],[4.709477,46.322708],[4.709084,46.322737],[4.708835,46.322787],[4.707537,46.32317],[4.70681,46.323326],[4.706724,46.323525],[4.706704,46.323521],[4.70611,46.323474],[4.705997,46.323469],[4.705286,46.323451],[4.705248,46.323451],[4.705127,46.323679],[4.705024,46.323794],[4.704864,46.323855],[4.704516,46.323847],[4.703974,46.324134],[4.703789,46.324202],[4.703522,46.3243],[4.703254,46.324419],[4.702485,46.324837],[4.702381,46.324936],[4.702669,46.32534],[4.703003,46.325598],[4.703082,46.325687],[4.703053,46.325696],[4.702964,46.325744],[4.702933,46.325759],[4.70288,46.325778],[4.702825,46.325796],[4.702764,46.325814],[4.702661,46.325837],[4.702538,46.325872],[4.702481,46.325894],[4.70243,46.325918],[4.702368,46.325952],[4.702324,46.325977],[4.702315,46.325985],[4.702299,46.326],[4.702291,46.326017],[4.702284,46.326088],[4.70228,46.326103],[4.702266,46.326137],[4.702172,46.326241],[4.702159,46.326249],[4.702141,46.326259],[4.702109,46.326265],[4.702075,46.326265],[4.701943,46.326262],[4.701767,46.326288],[4.701729,46.326288],[4.701706,46.326285],[4.701685,46.326274],[4.701671,46.326264],[4.701661,46.32625],[4.701657,46.32623],[4.701654,46.326178],[4.701653,46.326096],[4.701653,46.326061],[4.701607,46.326063],[4.701572,46.325944],[4.701544,46.325787],[4.70154,46.325763],[4.701579,46.325705],[4.701502,46.325665],[4.70142,46.325608],[4.701375,46.325577],[4.701289,46.325528],[4.701156,46.325695],[4.701146,46.325713],[4.701119,46.325792],[4.701097,46.325851],[4.70104,46.326004],[4.701023,46.326058],[4.700999,46.326137],[4.700969,46.326195],[4.700933,46.326247],[4.70091,46.326277],[4.700886,46.326301],[4.700862,46.326322],[4.70075,46.326392],[4.700699,46.326427],[4.700642,46.326475],[4.700352,46.326731],[4.700211,46.326848],[4.700119,46.326918],[4.70005,46.326966],[4.700021,46.326984],[4.699982,46.327005],[4.699871,46.327053],[4.699858,46.327099],[4.699829,46.327153],[4.699817,46.327169],[4.699766,46.32722],[4.69967,46.327306],[4.69959,46.327387],[4.699566,46.327409],[4.699541,46.327428],[4.699497,46.327452],[4.699466,46.327467],[4.699426,46.327484],[4.69939,46.327497],[4.699282,46.32753],[4.69918,46.327563],[4.699156,46.327574],[4.698991,46.327673],[4.698787,46.327801],[4.698787,46.327807],[4.698983,46.328329],[4.69915,46.328768],[4.699238,46.329],[4.699524,46.329756],[4.699794,46.330473],[4.699842,46.330511],[4.700089,46.331126],[4.70022,46.331489],[4.70067,46.331565],[4.701235,46.331639],[4.701228,46.331653],[4.701114,46.331778],[4.700926,46.33198],[4.700382,46.332459],[4.700328,46.33251],[4.70018,46.332452],[4.700095,46.332446],[4.700021,46.332445],[4.69998,46.332449],[4.699748,46.332532],[4.699566,46.332574],[4.699316,46.332602],[4.698881,46.33265],[4.69874,46.332681],[4.698659,46.332714],[4.698415,46.332905],[4.698306,46.332964],[4.698093,46.333005],[4.697552,46.333029],[4.697511,46.333029],[4.697157,46.333942],[4.696358,46.33374],[4.696325,46.333797],[4.696298,46.333865],[4.696288,46.33388],[4.696229,46.333907],[4.695657,46.334106],[4.695184,46.334273],[4.694944,46.334379],[4.694833,46.334428],[4.694403,46.33455],[4.694217,46.334826],[4.694205,46.334844],[4.694192,46.334863],[4.694068,46.335048],[4.693899,46.335309],[4.693757,46.335524],[4.69371,46.335599],[4.693614,46.335743],[4.693535,46.335859],[4.693386,46.336041],[4.693303,46.336145],[4.69327,46.336329],[4.693271,46.336425],[4.693253,46.33643],[4.693255,46.336489],[4.693192,46.336606],[4.693176,46.336694],[4.693146,46.336871],[4.693127,46.337058],[4.693105,46.337244],[4.69327,46.337464],[4.693611,46.337885],[4.693552,46.337919],[4.693369,46.338088],[4.693511,46.338208],[4.693533,46.338202],[4.693692,46.338385],[4.693619,46.33842],[4.693893,46.338647],[4.694288,46.339124],[4.694614,46.339459],[4.694928,46.339796],[4.695102,46.340189],[4.695244,46.340554],[4.695365,46.34077],[4.695374,46.341016],[4.695381,46.341055],[4.695433,46.341069],[4.695486,46.341071],[4.695948,46.341084],[4.696003,46.341088],[4.696054,46.341102],[4.696305,46.341212],[4.696455,46.341086],[4.696627,46.34099],[4.696992,46.34088],[4.697351,46.340796],[4.697555,46.340757],[4.69756,46.34077],[4.697671,46.341117],[4.697707,46.341231],[4.697694,46.34138],[4.697669,46.341648],[4.697614,46.341917],[4.697582,46.342098],[4.69757,46.342197],[4.697573,46.342239],[4.697578,46.342279],[4.697587,46.342335],[4.697601,46.342388],[4.697613,46.342419],[4.697665,46.34254],[4.697739,46.342705],[4.697759,46.34275],[4.697761,46.342759],[4.697761,46.342823],[4.697764,46.34288],[4.697769,46.342947],[4.697775,46.34303],[4.697784,46.343149],[4.697788,46.343199],[4.697817,46.343556],[4.698435,46.343822],[4.698544,46.343869],[4.698597,46.343813],[4.698632,46.343746],[4.698661,46.343667],[4.698677,46.343572],[4.698714,46.343345],[4.698768,46.343169],[4.698811,46.343058],[4.698881,46.342946],[4.698919,46.342948],[4.699308,46.342996],[4.699348,46.343],[4.699384,46.342999],[4.699421,46.342993],[4.699539,46.342969],[4.699662,46.342941],[4.699918,46.342884],[4.700196,46.342817],[4.700845,46.342845],[4.701194,46.342862],[4.702024,46.3429],[4.702487,46.34292],[4.702709,46.342932],[4.702872,46.34294],[4.702904,46.342944],[4.702855,46.343091],[4.702771,46.343305],[4.702786,46.343542],[4.702757,46.343842],[4.702779,46.343944],[4.702898,46.343961],[4.70317,46.343969],[4.703281,46.34401],[4.703645,46.344198],[4.704434,46.344335],[4.70494,46.344377],[4.705064,46.344397],[4.705324,46.344465],[4.705504,46.344503],[4.705775,46.344542],[4.706247,46.344647],[4.706584,46.344708],[4.706587,46.344718],[4.706668,46.344736],[4.706697,46.344744],[4.706761,46.344766],[4.707674,46.344809],[4.707889,46.344787],[4.707928,46.344702],[4.708322,46.344632],[4.708354,46.344629],[4.708378,46.344628],[4.709692,46.344844],[4.710402,46.344329],[4.710895,46.343969],[4.711583,46.343125],[4.711636,46.343057],[4.711666,46.343016],[4.711715,46.342943],[4.712104,46.342736],[4.712303,46.342633],[4.71246,46.342378],[4.712497,46.342301],[4.712549,46.342155],[4.712642,46.341827],[4.712651,46.341804],[4.712724,46.341668],[4.712727,46.341664],[4.712816,46.341667],[4.712973,46.341669],[4.713038,46.341676],[4.713427,46.341728],[4.713673,46.341778],[4.713885,46.34182],[4.713976,46.341639],[4.714028,46.341539],[4.715,46.341786],[4.71503,46.34179],[4.714997,46.341456],[4.714946,46.341328],[4.714934,46.341268],[4.7149,46.341093],[4.714906,46.340972],[4.714924,46.340912],[4.714988,46.340755],[4.715044,46.340596],[4.715072,46.340494],[4.715094,46.340322],[4.715097,46.340307],[4.715133,46.340318],[4.71515,46.340225],[4.715168,46.34012],[4.71491,46.34005],[4.714956,46.339978],[4.715069,46.339799],[4.715203,46.339826],[4.715257,46.339768],[4.71544,46.339571],[4.715463,46.339546],[4.715755,46.339234],[4.71594,46.339035],[4.716492,46.339198],[4.716653,46.338966],[4.716683,46.338923],[4.716817,46.338729],[4.716915,46.338587],[4.716821,46.338546],[4.717037,46.338407],[4.718015,46.338003],[4.718055,46.33799],[4.71831,46.3383],[4.718354,46.338289],[4.71846,46.338247],[4.718765,46.338045],[4.719068,46.337848],[4.719225,46.337743],[4.719349,46.33766],[4.719723,46.337876],[4.719849,46.33779],[4.719918,46.337739],[4.720016,46.337655],[4.720082,46.337693],[4.720143,46.337708],[4.720266,46.337541],[4.72032,46.33755],[4.720872,46.337123],[4.721193,46.336946],[4.721432,46.336809],[4.721646,46.336704],[4.721813,46.33662],[4.721948,46.336724],[4.722077,46.336642],[4.722183,46.336574],[4.722329,46.336465],[4.72237,46.336429],[4.722583,46.33664],[4.723481,46.336273],[4.723648,46.336205],[4.723618,46.336157],[4.723812,46.336061],[4.723903,46.336016],[4.72401,46.33596],[4.724333,46.335845],[4.724452,46.335769],[4.724578,46.335689],[4.724552,46.335637],[4.724535,46.335603],[4.724859,46.335497],[4.725232,46.335386],[4.72561,46.335198],[4.726288,46.334848],[4.726495,46.334725],[4.7266,46.334619],[4.72685,46.334289],[4.727008,46.334116],[4.727191,46.333972],[4.727437,46.33381],[4.727635,46.333693],[4.727937,46.333547],[4.728889,46.333176],[4.728984,46.333139],[4.729416,46.332999],[4.729421,46.332966],[4.729485,46.332889],[4.729531,46.332834],[4.72973,46.33261],[4.729938,46.332368],[4.730076,46.332199],[4.730458,46.331867],[4.730439,46.331833],[4.730312,46.331736],[4.730272,46.331705],[4.730109,46.331581],[4.730076,46.331555],[4.729887,46.331406],[4.729749,46.331288],[4.72969,46.331237],[4.729637,46.331203],[4.729577,46.331169],[4.729489,46.331131],[4.729224,46.331029],[4.729107,46.330981],[4.729023,46.330948],[4.728868,46.330887],[4.728704,46.330827],[4.728577,46.33077],[4.728451,46.330712],[4.7282,46.330582],[4.728217,46.330547],[4.728173,46.330519],[4.727877,46.330329],[4.727669,46.3302],[4.727611,46.330163],[4.72761,46.330118],[4.726944,46.330067],[4.726122,46.330046],[4.725799,46.330073],[4.72546,46.330177],[4.725427,46.329925],[4.725285,46.329075],[4.725257,46.329074],[4.725222,46.329016],[4.724951,46.328897],[4.724465,46.32868],[4.723847,46.328409],[4.723748,46.328364],[4.72339,46.328204],[4.723019,46.328041],[4.722784,46.327932],[4.722237,46.32769],[4.721641,46.327422],[4.720769,46.327035],[4.720284,46.326817],[4.719575,46.326496],[4.718992,46.326062],[4.717779,46.325156],[4.717212,46.324731],[4.717064,46.324621],[4.716062,46.323864],[4.715243,46.323778],[4.714998,46.323752],[4.714356,46.323686],[4.714093,46.323656],[4.713417,46.323586],[4.713333,46.323575],[4.713282,46.323568],[4.71329,46.323388],[4.713234,46.323364],[4.713218,46.323355],[4.713216,46.32329],[4.712769,46.323262],[4.71281,46.323099],[4.712822,46.32306],[4.71282,46.323041],[4.712428,46.322999],[4.712036,46.322955],[4.712037,46.322982],[4.711925,46.322934],[4.711901,46.32293],[4.711537,46.322905],[4.711114,46.32289],[4.710455,46.322863],[4.71042,46.32286],[4.710451,46.322687],[4.71007,46.322722]]]]}}]}
