{"type":"FeatureCollection","features":[{"type":"Feature","id":"inao-denom-1715","properties":{"id":"inao-denom-1715","name":"Mâcon Burgy","tier":"regional","kind":"appellation","appellationId":583,"denominationId":1715,"sourceName":"Mâcon Burgy","communes":["71066"],"areaHa":89.67},"geometry":{"type":"MultiPolygon","coordinates":[[[[4.831052,46.459649],[4.830894,46.459727],[4.830749,46.459601],[4.830792,46.459579],[4.830897,46.459527],[4.831075,46.459442],[4.831074,46.459427],[4.830916,46.459286],[4.830717,46.459105],[4.830373,46.458789],[4.83032,46.458735],[4.830275,46.458685],[4.830193,46.458599],[4.830128,46.458624],[4.830073,46.458583],[4.830052,46.458567],[4.83001,46.458539],[4.829819,46.458628],[4.82958,46.458727],[4.829478,46.45877],[4.829395,46.458804],[4.82932,46.458834],[4.829057,46.458944],[4.82893,46.458999],[4.828543,46.459165],[4.828594,46.459186],[4.828656,46.459213],[4.828804,46.459283],[4.828889,46.459328],[4.828941,46.45936],[4.828963,46.459376],[4.829067,46.459459],[4.829164,46.459541],[4.829296,46.45966],[4.829552,46.4599],[4.829874,46.460196],[4.829966,46.460279],[4.829973,46.460284],[4.830082,46.460378],[4.830218,46.460503],[4.830436,46.460702],[4.830483,46.460756],[4.83053,46.460806],[4.830568,46.460852],[4.830604,46.4609],[4.830642,46.460951],[4.830687,46.461012],[4.830756,46.461114],[4.830881,46.461292],[4.830958,46.461438],[4.831034,46.461598],[4.831059,46.46159],[4.831152,46.461683],[4.831214,46.461705],[4.831337,46.461672],[4.831388,46.461672],[4.831442,46.461674],[4.831473,46.461677],[4.831494,46.461682],[4.831527,46.461692],[4.831606,46.461732],[4.831853,46.461887],[4.831914,46.461925],[4.831989,46.461973],[4.832049,46.462009],[4.832153,46.462069],[4.832383,46.462202],[4.832685,46.462376],[4.832698,46.462373],[4.832667,46.462314],[4.832638,46.462278],[4.832606,46.462243],[4.832589,46.462217],[4.832563,46.462176],[4.833218,46.462032],[4.83318,46.461981],[4.833127,46.461978],[4.833106,46.461974],[4.833091,46.46197],[4.833071,46.461961],[4.833057,46.461954],[4.83304,46.46194],[4.832995,46.461901],[4.832974,46.46188],[4.832944,46.461848],[4.832909,46.461855],[4.832879,46.461807],[4.832856,46.461765],[4.832839,46.461703],[4.832842,46.461668],[4.832853,46.461654],[4.832935,46.461532],[4.832962,46.461526],[4.8329,46.461403],[4.83286,46.461363],[4.832742,46.461296],[4.83273,46.46129],[4.832546,46.461187],[4.832469,46.461022],[4.832475,46.460824],[4.831931,46.460977],[4.831882,46.460857],[4.831893,46.460824],[4.831896,46.46081],[4.831895,46.460789],[4.831889,46.460762],[4.831877,46.460738],[4.831801,46.46062],[4.831796,46.460613],[4.831753,46.460545],[4.831719,46.460491],[4.831703,46.460467],[4.831641,46.460484],[4.831624,46.46046],[4.831582,46.460385],[4.831545,46.460319],[4.831539,46.460313],[4.831472,46.460249],[4.831461,46.460227],[4.831403,46.460161],[4.831579,46.460085],[4.831396,46.459909],[4.831235,46.459737],[4.831341,46.459685],[4.831243,46.459587],[4.831082,46.459672],[4.831052,46.459649]]],[[[4.829961,46.461095],[4.830017,46.461159],[4.830047,46.461222],[4.830058,46.46125],[4.830079,46.461276],[4.830465,46.461189],[4.830529,46.461175],[4.830679,46.461141],[4.830643,46.461093],[4.830596,46.461033],[4.830545,46.460967],[4.830474,46.460871],[4.829888,46.460997],[4.829919,46.461044],[4.829961,46.461095]]],[[[4.829613,46.461567],[4.829628,46.461585],[4.829705,46.461683],[4.829731,46.461729],[4.829758,46.461769],[4.829827,46.46187],[4.829848,46.461908],[4.829871,46.461945],[4.82991,46.462004],[4.829961,46.462081],[4.829982,46.462109],[4.830032,46.462179],[4.830083,46.462244],[4.830186,46.462365],[4.830346,46.462576],[4.830388,46.462629],[4.830397,46.462639],[4.830409,46.462649],[4.830429,46.462658],[4.830437,46.462665],[4.830449,46.462681],[4.830462,46.462696],[4.830649,46.462638],[4.830656,46.462629],[4.830659,46.46262],[4.83066,46.462596],[4.830653,46.462535],[4.830629,46.462438],[4.830552,46.462255],[4.830566,46.462251],[4.830512,46.46214],[4.83049,46.462115],[4.830566,46.462094],[4.830574,46.462079],[4.830569,46.462064],[4.83055,46.462019],[4.830537,46.462005],[4.830497,46.461963],[4.830485,46.461947],[4.830483,46.461944],[4.830443,46.461878],[4.830402,46.461804],[4.830374,46.461755],[4.830344,46.461707],[4.830323,46.461672],[4.83022,46.461504],[4.830157,46.461398],[4.830125,46.461361],[4.829588,46.461547],[4.829613,46.461567]]],[[[4.837524,46.462104],[4.837469,46.462096],[4.837395,46.462098],[4.837341,46.462089],[4.837292,46.462068],[4.837228,46.462025],[4.837209,46.462014],[4.837086,46.461956],[4.837014,46.461914],[4.836894,46.461984],[4.836686,46.462141],[4.836562,46.462218],[4.836183,46.462426],[4.836167,46.462393],[4.836144,46.462301],[4.836086,46.462191],[4.835947,46.462213],[4.835697,46.462288],[4.835614,46.462313],[4.835459,46.46236],[4.835333,46.462403],[4.835207,46.46246],[4.835039,46.462501],[4.834917,46.46254],[4.834934,46.46259],[4.834944,46.462635],[4.834949,46.462691],[4.834946,46.46274],[4.834937,46.462819],[4.834935,46.462857],[4.834943,46.462898],[4.834972,46.462999],[4.834989,46.463059],[4.835007,46.463104],[4.83504,46.46317],[4.83507,46.463224],[4.835121,46.463296],[4.835171,46.463356],[4.835267,46.463456],[4.83523,46.463475],[4.835068,46.463549],[4.834921,46.463585],[4.834572,46.463666],[4.834571,46.4637],[4.834579,46.463853],[4.834615,46.4639],[4.834673,46.463968],[4.834722,46.464095],[4.834739,46.464125],[4.834752,46.464147],[4.834791,46.464199],[4.834839,46.464255],[4.835031,46.464167],[4.835129,46.464145],[4.835264,46.464106],[4.835523,46.46404],[4.835594,46.464028],[4.835599,46.464172],[4.835595,46.464234],[4.835744,46.464398],[4.835742,46.464402],[4.835786,46.464544],[4.83585,46.464545],[4.835895,46.464545],[4.836146,46.464515],[4.836261,46.464499],[4.836315,46.464487],[4.836507,46.464449],[4.836643,46.464412],[4.83677,46.464372],[4.836835,46.464349],[4.836925,46.464301],[4.83715,46.464125],[4.837445,46.463854],[4.837746,46.463561],[4.838296,46.463045],[4.83833,46.463011],[4.838441,46.462928],[4.83859,46.46281],[4.838804,46.46263],[4.83878,46.462615],[4.838697,46.462558],[4.838559,46.462456],[4.838503,46.462413],[4.83833,46.46228],[4.837914,46.46199],[4.8378,46.462086],[4.837719,46.462148],[4.83767,46.462124],[4.837524,46.462104]]],[[[4.833657,46.46351],[4.833717,46.463493],[4.833557,46.463305],[4.833436,46.463164],[4.833254,46.46295],[4.833051,46.462709],[4.833021,46.462674],[4.832987,46.462632],[4.832951,46.462604],[4.832719,46.462466],[4.832582,46.46239],[4.832537,46.462362],[4.832446,46.462309],[4.83222,46.462177],[4.831905,46.461987],[4.831832,46.461939],[4.831525,46.461751],[4.831481,46.461732],[4.831452,46.461724],[4.831415,46.461721],[4.831376,46.461721],[4.831347,46.461724],[4.831309,46.461731],[4.831274,46.461741],[4.831243,46.46175],[4.831196,46.46177],[4.831166,46.461788],[4.831149,46.461806],[4.831137,46.461831],[4.831141,46.461846],[4.831152,46.46187],[4.831155,46.461867],[4.831363,46.46182],[4.831372,46.461851],[4.831405,46.461947],[4.831442,46.462023],[4.831459,46.462058],[4.831495,46.462057],[4.831495,46.462076],[4.831499,46.462076],[4.831587,46.462258],[4.831353,46.462309],[4.831374,46.462345],[4.831432,46.46245],[4.831472,46.462549],[4.831506,46.46263],[4.831571,46.462791],[4.831894,46.462701],[4.831948,46.462792],[4.831982,46.46285],[4.831993,46.462864],[4.832045,46.462942],[4.832058,46.462938],[4.832086,46.462986],[4.832098,46.462995],[4.832078,46.463002],[4.832091,46.46302],[4.832167,46.46313],[4.832208,46.463186],[4.832223,46.463193],[4.832244,46.463198],[4.832261,46.463198],[4.832294,46.463187],[4.832335,46.463219],[4.832385,46.463303],[4.832396,46.46332],[4.832446,46.463404],[4.832455,46.463417],[4.832462,46.46343],[4.832473,46.463449],[4.8325,46.4635],[4.832515,46.463534],[4.832551,46.463612],[4.832566,46.463643],[4.832612,46.463631],[4.832655,46.463739],[4.832682,46.463819],[4.832707,46.463834],[4.832729,46.463852],[4.83277,46.463887],[4.832801,46.463932],[4.832813,46.463952],[4.832836,46.463979],[4.832905,46.464045],[4.832912,46.464051],[4.832957,46.464102],[4.832968,46.464115],[4.832973,46.464121],[4.833003,46.464181],[4.833025,46.464226],[4.833029,46.464235],[4.832672,46.464311],[4.832565,46.464335],[4.832697,46.464611],[4.832716,46.464607],[4.832752,46.46469],[4.832623,46.464717],[4.832549,46.464733],[4.832525,46.464738],[4.832566,46.464814],[4.832882,46.464739],[4.832913,46.4648],[4.832933,46.464838],[4.832814,46.464863],[4.832903,46.465009],[4.833004,46.464976],[4.833036,46.465019],[4.833128,46.465143],[4.833013,46.465171],[4.833035,46.465214],[4.833065,46.465275],[4.83283,46.465328],[4.832601,46.465381],[4.832592,46.465383],[4.832526,46.465398],[4.832541,46.465432],[4.832424,46.46546],[4.832424,46.46555],[4.832459,46.465547],[4.832462,46.465571],[4.832424,46.465582],[4.832431,46.465644],[4.83245,46.46571],[4.832518,46.465847],[4.83254,46.465841],[4.832551,46.465861],[4.832528,46.465867],[4.832643,46.466087],[4.832894,46.466549],[4.833151,46.466459],[4.833653,46.466283],[4.834163,46.466102],[4.834175,46.46611],[4.834564,46.465968],[4.83465,46.465939],[4.834669,46.465936],[4.834533,46.465717],[4.834558,46.46571],[4.834501,46.465636],[4.83445,46.465565],[4.834422,46.465526],[4.834324,46.465427],[4.83431,46.465424],[4.8343,46.465419],[4.834273,46.465347],[4.834239,46.465285],[4.834181,46.465199],[4.834142,46.465197],[4.834106,46.46515],[4.834154,46.465137],[4.834131,46.46504],[4.834229,46.465016],[4.83421,46.464968],[4.834184,46.464905],[4.834167,46.464871],[4.834136,46.46483],[4.834128,46.464797],[4.833909,46.464851],[4.833895,46.464828],[4.83377,46.464837],[4.833691,46.464772],[4.833666,46.464748],[4.833876,46.464711],[4.833825,46.464583],[4.833783,46.464588],[4.833756,46.46452],[4.833704,46.464407],[4.833726,46.464402],[4.833729,46.464406],[4.834015,46.464345],[4.834035,46.464375],[4.834075,46.464361],[4.834102,46.464338],[4.834125,46.464322],[4.834189,46.464301],[4.834341,46.464275],[4.834394,46.464261],[4.834235,46.464074],[4.834179,46.464008],[4.834073,46.463886],[4.834059,46.463872],[4.834049,46.463861],[4.833947,46.463751],[4.833903,46.4637],[4.833876,46.463681],[4.833802,46.463626],[4.833705,46.463557],[4.833657,46.46351]]],[[[4.83239,46.46888],[4.8323,46.468888],[4.832264,46.468891],[4.832264,46.468868],[4.832264,46.468825],[4.832295,46.468821],[4.832289,46.468746],[4.833152,46.468616],[4.833144,46.468578],[4.833155,46.468543],[4.833193,46.468489],[4.833207,46.468477],[4.833234,46.468457],[4.833233,46.468394],[4.833236,46.46819],[4.833234,46.467683],[4.833051,46.467651],[4.833024,46.467513],[4.832962,46.467525],[4.83291,46.467407],[4.832889,46.467361],[4.83288,46.467363],[4.832781,46.467215],[4.832747,46.467164],[4.83272,46.467125],[4.832709,46.467103],[4.832856,46.467053],[4.832924,46.467034],[4.833,46.467019],[4.832945,46.466887],[4.832923,46.466842],[4.832892,46.466763],[4.832888,46.466752],[4.832887,46.466753],[4.832715,46.466806],[4.832693,46.466767],[4.832681,46.466771],[4.832609,46.466795],[4.832502,46.466622],[4.832517,46.466617],[4.832551,46.466599],[4.832525,46.46657],[4.832519,46.466528],[4.832483,46.466522],[4.8324,46.466394],[4.832395,46.466393],[4.832352,46.466381],[4.832325,46.466341],[4.8323,46.466265],[4.832302,46.466262],[4.832306,46.46626],[4.832278,46.466214],[4.83226,46.466187],[4.832146,46.466219],[4.832013,46.466017],[4.832102,46.46599],[4.8321,46.465984],[4.831987,46.465772],[4.832076,46.465749],[4.83209,46.465745],[4.832028,46.465617],[4.83146,46.465745],[4.831456,46.465736],[4.831465,46.465727],[4.831439,46.465673],[4.83141,46.465597],[4.831407,46.465584],[4.831436,46.465576],[4.831372,46.465445],[4.831351,46.465401],[4.831326,46.46534],[4.831284,46.465234],[4.831229,46.465103],[4.831167,46.46497],[4.831144,46.464934],[4.831095,46.464898],[4.831079,46.464891],[4.831062,46.464889],[4.830972,46.464911],[4.830931,46.464717],[4.830917,46.464575],[4.830915,46.464504],[4.830911,46.464417],[4.830897,46.464387],[4.830856,46.464309],[4.830849,46.464293],[4.830831,46.464198],[4.830829,46.464189],[4.830809,46.464192],[4.830794,46.464121],[4.830777,46.464039],[4.830774,46.464012],[4.830776,46.463985],[4.830789,46.463965],[4.830809,46.463946],[4.830821,46.463939],[4.830807,46.463888],[4.830813,46.463872],[4.830831,46.463863],[4.830945,46.463835],[4.830917,46.463813],[4.830878,46.463793],[4.830765,46.463735],[4.830678,46.46367],[4.830609,46.463577],[4.830565,46.463533],[4.830519,46.4635],[4.830496,46.463466],[4.830471,46.463436],[4.830437,46.4634],[4.830362,46.463319],[4.830171,46.463223],[4.829947,46.463148],[4.829981,46.463127],[4.830593,46.462957],[4.830541,46.462894],[4.830356,46.462664],[4.829491,46.462907],[4.829487,46.462931],[4.829538,46.463019],[4.829603,46.463007],[4.829624,46.463049],[4.829624,46.463074],[4.829659,46.463151],[4.829622,46.463161],[4.828616,46.463473],[4.828602,46.46359],[4.828611,46.463724],[4.828622,46.463789],[4.828632,46.463838],[4.8288,46.463797],[4.828828,46.46384],[4.828849,46.463872],[4.828872,46.463911],[4.828872,46.463916],[4.828958,46.464247],[4.82905,46.464226],[4.82973,46.464085],[4.829835,46.464093],[4.829802,46.464228],[4.829785,46.46432],[4.829767,46.464389],[4.829767,46.4644],[4.82978,46.464446],[4.8298,46.464502],[4.82982,46.464535],[4.829835,46.464567],[4.82992,46.464712],[4.829943,46.464761],[4.829989,46.464839],[4.830013,46.464883],[4.830081,46.465054],[4.830095,46.465097],[4.830095,46.46517],[4.830082,46.465349],[4.830112,46.465465],[4.830126,46.465513],[4.830153,46.465575],[4.830229,46.465736],[4.830267,46.465815],[4.830421,46.466105],[4.830476,46.466208],[4.830526,46.466301],[4.830558,46.466363],[4.830624,46.466516],[4.830673,46.466623],[4.830731,46.466779],[4.830767,46.466874],[4.830811,46.466991],[4.830858,46.467107],[4.830905,46.467212],[4.830932,46.467288],[4.830951,46.467345],[4.830956,46.467355],[4.830988,46.467391],[4.831008,46.467418],[4.830909,46.467467],[4.830843,46.467512],[4.830664,46.467615],[4.830647,46.467646],[4.830638,46.467677],[4.830644,46.467743],[4.830658,46.46778],[4.830677,46.467818],[4.830708,46.467866],[4.830713,46.4679],[4.830721,46.467948],[4.830747,46.467973],[4.830771,46.467986],[4.830864,46.468023],[4.830906,46.468052],[4.83096,46.468094],[4.831006,46.468136],[4.831046,46.468175],[4.831215,46.468367],[4.831274,46.468433],[4.831358,46.46872],[4.831385,46.468788],[4.831421,46.468864],[4.831456,46.468938],[4.831508,46.469055],[4.831584,46.469242],[4.831663,46.469447],[4.831681,46.469505],[4.831682,46.469536],[4.831667,46.469574],[4.831653,46.469595],[4.831621,46.46963],[4.831606,46.469643],[4.831585,46.46966],[4.831367,46.469786],[4.831359,46.469795],[4.831394,46.469825],[4.831425,46.469873],[4.83146,46.469931],[4.831504,46.470016],[4.831578,46.470178],[4.831635,46.470344],[4.832372,46.470522],[4.832444,46.470471],[4.832465,46.470454],[4.832515,46.470394],[4.832552,46.470338],[4.832612,46.470232],[4.832628,46.470176],[4.832388,46.470148],[4.832441,46.469926],[4.832688,46.469954],[4.832747,46.469785],[4.832821,46.469599],[4.832833,46.469569],[4.832985,46.469345],[4.833061,46.469205],[4.833076,46.469174],[4.833105,46.469036],[4.833125,46.468923],[4.833131,46.468906],[4.833151,46.468859],[4.833155,46.468829],[4.833151,46.468816],[4.83239,46.46888]]],[[[4.840485,46.47197],[4.840534,46.472007],[4.841059,46.472111],[4.841141,46.472116],[4.841276,46.472119],[4.841473,46.472119],[4.84159,46.472116],[4.841673,46.472112],[4.841728,46.472105],[4.841771,46.472098],[4.84182,46.472088],[4.841871,46.472072],[4.84193,46.472047],[4.841989,46.472016],[4.842039,46.471985],[4.842051,46.471843],[4.842063,46.471698],[4.842048,46.471654],[4.841826,46.470564],[4.841665,46.470553],[4.841577,46.470559],[4.841405,46.470572],[4.841292,46.470579],[4.841132,46.470571],[4.841074,46.470574],[4.841028,46.470576],[4.840966,46.47058],[4.840925,46.470584],[4.840939,46.470686],[4.840893,46.470689],[4.84081,46.470706],[4.840707,46.470718],[4.840591,46.470729],[4.840377,46.470752],[4.840365,46.470691],[4.840261,46.470699],[4.840152,46.470706],[4.8401,46.47071],[4.839997,46.470718],[4.839708,46.470737],[4.839699,46.470737],[4.839705,46.470394],[4.839509,46.470389],[4.839293,46.470383],[4.839076,46.47038],[4.838967,46.47037],[4.838605,46.470329],[4.837942,46.470368],[4.837952,46.470175],[4.83796,46.470028],[4.837968,46.469883],[4.838006,46.46981],[4.838016,46.469779],[4.838082,46.469555],[4.838132,46.469354],[4.83811,46.469313],[4.838117,46.469226],[4.838158,46.469044],[4.838146,46.469023],[4.838125,46.469002],[4.8381,46.468985],[4.838075,46.468969],[4.838064,46.468963],[4.838038,46.468956],[4.838025,46.468901],[4.838381,46.46882],[4.838419,46.468814],[4.838457,46.46881],[4.838524,46.468806],[4.838567,46.468805],[4.838565,46.468822],[4.838563,46.468838],[4.83872,46.468845],[4.838881,46.468845],[4.83898,46.468842],[4.838975,46.469185],[4.838955,46.469328],[4.838937,46.469441],[4.838941,46.469442],[4.839075,46.469467],[4.839242,46.469497],[4.839324,46.46951],[4.8394,46.46952],[4.839499,46.469532],[4.839586,46.469536],[4.839714,46.469548],[4.839684,46.469504],[4.839663,46.469359],[4.839783,46.469346],[4.839956,46.46932],[4.840028,46.469309],[4.840099,46.469297],[4.840165,46.469297],[4.840163,46.469249],[4.840159,46.469032],[4.840155,46.468851],[4.840152,46.468799],[4.840412,46.468783],[4.840393,46.468722],[4.840385,46.468642],[4.840376,46.468553],[4.840377,46.468362],[4.840386,46.46818],[4.840471,46.468176],[4.840463,46.468115],[4.840565,46.468111],[4.840555,46.468044],[4.840247,46.468052],[4.840237,46.467975],[4.840408,46.467968],[4.840397,46.467899],[4.84048,46.467896],[4.840452,46.46777],[4.840425,46.467646],[4.840698,46.46764],[4.840695,46.467571],[4.840693,46.467512],[4.840692,46.467499],[4.840687,46.467381],[4.840687,46.467312],[4.840687,46.467292],[4.840686,46.467248],[4.840686,46.467145],[4.840651,46.466909],[4.84019,46.466914],[4.840209,46.466791],[4.840453,46.466793],[4.840633,46.466793],[4.840683,46.466621],[4.84067,46.466569],[4.840655,46.466429],[4.840643,46.466321],[4.840574,46.465999],[4.840538,46.465655],[4.840472,46.46515],[4.840615,46.465159],[4.840639,46.465157],[4.840655,46.465152],[4.840669,46.465143],[4.840674,46.465139],[4.840686,46.465124],[4.840693,46.465107],[4.840686,46.465052],[4.840671,46.465003],[4.840658,46.464976],[4.840614,46.464912],[4.840524,46.464772],[4.840414,46.464619],[4.840331,46.46447],[4.840325,46.464459],[4.840231,46.464337],[4.840189,46.464271],[4.840159,46.464224],[4.84006,46.464114],[4.840012,46.464029],[4.839993,46.46394],[4.839985,46.463897],[4.839977,46.463859],[4.839939,46.463777],[4.839936,46.463695],[4.839906,46.463625],[4.839889,46.463582],[4.839874,46.463511],[4.839876,46.463442],[4.839894,46.463317],[4.839916,46.463203],[4.839966,46.46298],[4.839921,46.462974],[4.839763,46.462953],[4.839363,46.462886],[4.839085,46.462833],[4.838982,46.46281],[4.838855,46.462767],[4.838819,46.462755],[4.838788,46.462744],[4.838764,46.462735],[4.838644,46.462828],[4.838622,46.462864],[4.838601,46.462876],[4.838576,46.462897],[4.838559,46.462917],[4.838542,46.462933],[4.838469,46.462991],[4.838434,46.46302],[4.838401,46.46305],[4.838353,46.463094],[4.838123,46.463312],[4.837931,46.463488],[4.837866,46.463548],[4.837803,46.463615],[4.837773,46.463644],[4.837701,46.463703],[4.83764,46.463761],[4.837576,46.463824],[4.837238,46.46415],[4.8372,46.464185],[4.836963,46.464351],[4.836944,46.464359],[4.836898,46.464374],[4.836825,46.4644],[4.836719,46.464438],[4.836652,46.464459],[4.836604,46.464472],[4.836137,46.464557],[4.836131,46.464542],[4.836104,46.464554],[4.836004,46.464561],[4.835901,46.464567],[4.835707,46.464567],[4.835509,46.464568],[4.835471,46.464573],[4.835455,46.464578],[4.83538,46.464652],[4.835363,46.464697],[4.835351,46.464758],[4.835351,46.464797],[4.835362,46.464841],[4.835394,46.464927],[4.83544,46.465024],[4.835488,46.465111],[4.835624,46.465328],[4.835681,46.465419],[4.835711,46.465473],[4.835809,46.465646],[4.835849,46.465809],[4.835893,46.465899],[4.835963,46.465989],[4.836014,46.466055],[4.836126,46.466141],[4.83624,46.466246],[4.836302,46.466325],[4.836364,46.46643],[4.836422,46.466492],[4.836518,46.466685],[4.836551,46.466737],[4.836644,46.466864],[4.836772,46.466979],[4.836829,46.467032],[4.836882,46.467082],[4.836919,46.467117],[4.836959,46.467147],[4.837039,46.467208],[4.837079,46.467242],[4.837135,46.467292],[4.83719,46.467339],[4.837214,46.467361],[4.837241,46.467385],[4.837098,46.467453],[4.83693,46.467509],[4.836858,46.467537],[4.836788,46.467567],[4.836741,46.467598],[4.836558,46.467549],[4.836493,46.467555],[4.83647,46.467589],[4.836466,46.467586],[4.836447,46.467574],[4.836375,46.467527],[4.836344,46.467493],[4.836284,46.467447],[4.836153,46.467347],[4.836111,46.467316],[4.836089,46.467323],[4.836086,46.467303],[4.836082,46.467293],[4.835968,46.467192],[4.835738,46.466994],[4.835712,46.467],[4.835686,46.466955],[4.835666,46.466932],[4.835646,46.466916],[4.835592,46.466897],[4.835515,46.466867],[4.835445,46.466821],[4.835422,46.466812],[4.835361,46.466783],[4.83534,46.466774],[4.835232,46.466735],[4.835199,46.466726],[4.835141,46.466724],[4.83497,46.466697],[4.834909,46.466687],[4.83482,46.466665],[4.834688,46.466661],[4.834602,46.466655],[4.834575,46.466653],[4.834469,46.466628],[4.834357,46.466624],[4.834317,46.466632],[4.83428,46.466648],[4.834252,46.466662],[4.834203,46.466696],[4.834099,46.466773],[4.83428,46.467007],[4.834257,46.467013],[4.834053,46.467083],[4.83396,46.467115],[4.83392,46.467129],[4.833781,46.467176],[4.833729,46.467197],[4.833697,46.467164],[4.833543,46.467197],[4.833578,46.467277],[4.833584,46.467291],[4.833604,46.46734],[4.833644,46.467433],[4.833534,46.467455],[4.83355,46.467499],[4.833595,46.467629],[4.833485,46.467647],[4.833487,46.467653],[4.833462,46.467657],[4.83346,46.467652],[4.833359,46.467669],[4.833369,46.467771],[4.833365,46.468055],[4.833365,46.468218],[4.833368,46.468497],[4.83337,46.468712],[4.833372,46.468961],[4.833356,46.469057],[4.83336,46.469188],[4.833352,46.469379],[4.833332,46.469856],[4.833339,46.469898],[4.833346,46.47009],[4.833344,46.470257],[4.833347,46.470493],[4.833352,46.470599],[4.833365,46.470721],[4.833374,46.470773],[4.833381,46.470799],[4.833387,46.470816],[4.833404,46.470851],[4.833435,46.470902],[4.833465,46.470944],[4.833493,46.47098],[4.833514,46.471002],[4.833545,46.471032],[4.833584,46.471066],[4.833625,46.471098],[4.833661,46.471124],[4.8337,46.47115],[4.833741,46.471175],[4.833775,46.471194],[4.833855,46.471233],[4.833893,46.47125],[4.83395,46.471271],[4.833992,46.471285],[4.834041,46.4713],[4.834144,46.471329],[4.834238,46.471351],[4.834874,46.471507],[4.835678,46.471702],[4.835736,46.471721],[4.835774,46.471731],[4.836014,46.47179],[4.836167,46.471826],[4.836694,46.471954],[4.836873,46.471997],[4.837206,46.47206],[4.837351,46.472083],[4.837561,46.472096],[4.837702,46.472103],[4.83803,46.472114],[4.838367,46.472114],[4.838571,46.472117],[4.838706,46.472108],[4.838871,46.472098],[4.839203,46.472079],[4.839237,46.472078],[4.83955,46.472051],[4.839738,46.472035],[4.840387,46.471982],[4.840485,46.47197]]],[[[4.833088,46.470287],[4.833086,46.470308],[4.832992,46.4703],[4.832979,46.470438],[4.833012,46.470445],[4.833002,46.470609],[4.832701,46.470582],[4.832701,46.470559],[4.832677,46.470554],[4.832635,46.470547],[4.832601,46.470532],[4.832554,46.470519],[4.832511,46.47051],[4.832476,46.470518],[4.832475,46.470518],[4.832471,46.470533],[4.832469,46.470563],[4.832473,46.470588],[4.832528,46.470704],[4.8326,46.470849],[4.832641,46.470926],[4.832684,46.470978],[4.832711,46.470996],[4.832728,46.471004],[4.832772,46.471018],[4.833081,46.471097],[4.8334,46.471173],[4.833532,46.471204],[4.833566,46.471204],[4.833575,46.471192],[4.833283,46.471073],[4.833348,46.470966],[4.833298,46.470891],[4.833271,46.470835],[4.833255,46.470773],[4.833253,46.470761],[4.833244,46.470645],[4.83323,46.47032],[4.833225,46.470205],[4.833222,46.470157],[4.833218,46.469961],[4.83322,46.469908],[4.833231,46.46939],[4.833232,46.469142],[4.833234,46.46896],[4.833233,46.468911],[4.833194,46.468914],[4.833172,46.469021],[4.833142,46.469157],[4.833128,46.469206],[4.833116,46.469241],[4.833063,46.469342],[4.833022,46.469411],[4.832987,46.469472],[4.83292,46.469549],[4.832882,46.469634],[4.83285,46.46972],[4.832674,46.470239],[4.83278,46.470245],[4.83294,46.470257],[4.832994,46.470278],[4.833088,46.470287]]],[[[4.842395,46.472265],[4.84249,46.472275],[4.843013,46.472229],[4.843059,46.472217],[4.842995,46.471973],[4.842977,46.471901],[4.842959,46.471862],[4.842913,46.471729],[4.842886,46.471619],[4.842588,46.471751],[4.842201,46.471994],[4.842071,46.472075],[4.842046,46.472181],[4.8421,46.472204],[4.842307,46.472244],[4.842395,46.472265]]],[[[4.842244,46.473206],[4.842329,46.473144],[4.842562,46.473038],[4.842678,46.472993],[4.842752,46.472967],[4.842867,46.47293],[4.84292,46.472912],[4.843034,46.472862],[4.843273,46.472756],[4.843364,46.472717],[4.84339,46.472715],[4.843638,46.472691],[4.843654,46.472691],[4.843798,46.472697],[4.843909,46.472702],[4.843925,46.472703],[4.843932,46.472703],[4.843923,46.472195],[4.843919,46.472195],[4.84378,46.472201],[4.843629,46.472209],[4.843521,46.472218],[4.843361,46.472234],[4.842788,46.472292],[4.842666,46.472315],[4.84264,46.472317],[4.842544,46.472323],[4.842474,46.472331],[4.842452,46.472335],[4.842438,46.472341],[4.842355,46.472322],[4.842354,46.472309],[4.842349,46.472299],[4.842339,46.472289],[4.842326,46.472282],[4.842294,46.47227],[4.842224,46.472255],[4.842126,46.472236],[4.842028,46.47222],[4.841917,46.472204],[4.841833,46.472194],[4.841776,46.472191],[4.841712,46.47219],[4.841618,46.472192],[4.841542,46.472195],[4.841414,46.472206],[4.841345,46.47221],[4.841263,46.472212],[4.841181,46.47221],[4.841105,46.472205],[4.841054,46.4722],[4.841015,46.472196],[4.840976,46.472189],[4.840818,46.472155],[4.840542,46.472095],[4.840499,46.472085],[4.840434,46.472075],[4.840399,46.472071],[4.840301,46.472072],[4.840057,46.472088],[4.839836,46.472101],[4.839635,46.472112],[4.839393,46.472126],[4.839268,46.472133],[4.839156,46.47214],[4.839069,46.472145],[4.838918,46.472153],[4.838656,46.472169],[4.838447,46.472176],[4.838225,46.47218],[4.838052,46.47218],[4.837882,46.472176],[4.837678,46.472167],[4.837503,46.472155],[4.837424,46.472156],[4.837409,46.472153],[4.837353,46.472147],[4.837234,46.47213],[4.837108,46.47211],[4.836755,46.472043],[4.836442,46.471966],[4.836219,46.47191],[4.836004,46.471855],[4.835655,46.471769],[4.835274,46.471679],[4.835169,46.471654],[4.835066,46.47163],[4.834234,46.471434],[4.834002,46.471363],[4.83381,46.471311],[4.833764,46.471313],[4.833737,46.471308],[4.83339,46.471234],[4.83289,46.471115],[4.832809,46.471232],[4.832767,46.471234],[4.831395,46.471284],[4.831082,46.471838],[4.830832,46.472296],[4.831904,46.472531],[4.832355,46.472627],[4.832699,46.472703],[4.832722,46.472709],[4.83282,46.472731],[4.832922,46.47275],[4.832996,46.472757],[4.833107,46.472762],[4.833254,46.472774],[4.833478,46.47279],[4.833713,46.472814],[4.833809,46.472823],[4.833855,46.472812],[4.833858,46.472813],[4.834002,46.472838],[4.834069,46.472847],[4.834558,46.472878],[4.83494,46.472873],[4.83508,46.472876],[4.83521,46.472881],[4.835348,46.472874],[4.835392,46.472872],[4.835423,46.472872],[4.835604,46.472879],[4.835727,46.472885],[4.835796,46.472924],[4.835847,46.472956],[4.835968,46.473003],[4.836014,46.473013],[4.836059,46.473075],[4.83607,46.473094],[4.836089,46.47314],[4.836088,46.473144],[4.836063,46.473195],[4.836036,46.473236],[4.836022,46.473255],[4.835998,46.473282],[4.835959,46.473324],[4.835945,46.473339],[4.835934,46.473347],[4.835918,46.473357],[4.835802,46.473416],[4.835761,46.473442],[4.835732,46.473464],[4.835697,46.473492],[4.835635,46.473538],[4.835612,46.473558],[4.835509,46.473675],[4.835552,46.47371],[4.835731,46.473845],[4.835816,46.473911],[4.835881,46.473958],[4.835915,46.473981],[4.835952,46.474],[4.835997,46.474022],[4.836064,46.474053],[4.836099,46.474067],[4.836137,46.474082],[4.836194,46.474101],[4.836514,46.474204],[4.836749,46.474282],[4.836821,46.474306],[4.836982,46.474367],[4.837084,46.474361],[4.8372,46.474398],[4.837245,46.474412],[4.837224,46.474451],[4.83733,46.474472],[4.83735,46.474475],[4.83801,46.474527],[4.838011,46.474535],[4.838013,46.474594],[4.838011,46.47462],[4.838013,46.47462],[4.837959,46.47485],[4.837935,46.474898],[4.837925,46.474929],[4.83792,46.474956],[4.837916,46.47499],[4.83806,46.475047],[4.83815,46.475087],[4.838245,46.475131],[4.838286,46.475147],[4.838296,46.475149],[4.838362,46.475156],[4.838378,46.47516],[4.83845,46.475177],[4.838645,46.475227],[4.838806,46.475268],[4.838948,46.475327],[4.839039,46.47536],[4.839129,46.475385],[4.839513,46.47551],[4.839556,46.475524],[4.839566,46.475526],[4.839579,46.475527],[4.839645,46.475527],[4.839655,46.475528],[4.839707,46.475544],[4.840017,46.475632],[4.840157,46.475665],[4.840181,46.475678],[4.840285,46.475691],[4.840353,46.475711],[4.840366,46.475714],[4.840468,46.475719],[4.840507,46.475724],[4.840662,46.475747],[4.841002,46.475805],[4.841089,46.475819],[4.841114,46.475822],[4.841139,46.475822],[4.841173,46.47582],[4.841199,46.475817],[4.841317,46.475795],[4.841186,46.475412],[4.841293,46.475395],[4.841398,46.475377],[4.841482,46.475363],[4.84195,46.475262],[4.84183,46.475141],[4.841813,46.475123],[4.841791,46.475089],[4.841712,46.474965],[4.841697,46.474944],[4.841675,46.474914],[4.841662,46.474898],[4.84165,46.474886],[4.841638,46.474872],[4.841624,46.474833],[4.841613,46.474792],[4.841603,46.474757],[4.841595,46.47471],[4.841588,46.474582],[4.841586,46.474515],[4.84159,46.47446],[4.841592,46.474423],[4.841521,46.474408],[4.841442,46.474395],[4.841423,46.474392],[4.841381,46.474374],[4.841271,46.474328],[4.841112,46.474243],[4.84105,46.474195],[4.841037,46.474188],[4.841026,46.474187],[4.841002,46.474148],[4.841055,46.474128],[4.841162,46.474043],[4.841347,46.473895],[4.841375,46.473913],[4.841737,46.473643],[4.841789,46.473597],[4.841912,46.473487],[4.842151,46.473276],[4.842244,46.473206]]]]}},{"type":"Feature","id":"commune-71066","properties":{"id":"commune-71066","name":"Burgy","kind":"commune","tier":"commune"},"geometry":{"type":"MultiPolygon","coordinates":[[[[4.825277,46.45349],[4.824121,46.453788],[4.824223,46.454039],[4.822669,46.454564],[4.82265,46.454573],[4.822764,46.454652],[4.822993,46.454893],[4.822967,46.4549],[4.822084,46.455086],[4.821597,46.455193],[4.82147,46.455222],[4.821134,46.455304],[4.821081,46.455286],[4.82077,46.45543],[4.820426,46.45559],[4.820408,46.45562],[4.820428,46.45563],[4.820412,46.455635],[4.820364,46.455653],[4.816724,46.457119],[4.818536,46.459729],[4.818683,46.460043],[4.818697,46.460075],[4.819924,46.462671],[4.820007,46.462759],[4.823979,46.466307],[4.82399,46.466324],[4.823974,46.466538],[4.823964,46.466537],[4.82398,46.466652],[4.823984,46.466852],[4.824011,46.467024],[4.82403,46.46727],[4.824091,46.467454],[4.824128,46.467663],[4.824205,46.467847],[4.824232,46.467934],[4.824253,46.46817],[4.824263,46.468333],[4.824313,46.468486],[4.824326,46.468656],[4.824352,46.468765],[4.824373,46.46888],[4.824411,46.469067],[4.82443,46.469242],[4.824465,46.469348],[4.824491,46.469395],[4.82457,46.469514],[4.824673,46.469651],[4.82476,46.4698],[4.824842,46.469954],[4.824913,46.470133],[4.824976,46.470333],[4.824998,46.470407],[4.825049,46.470469],[4.825245,46.47071],[4.82533,46.470823],[4.825534,46.471145],[4.825709,46.471399],[4.8259,46.471662],[4.826048,46.471868],[4.826205,46.472081],[4.826303,46.47221],[4.826364,46.472274],[4.826402,46.47231],[4.826558,46.472382],[4.82666,46.472411],[4.826757,46.472429],[4.826967,46.472455],[4.827444,46.47251],[4.827772,46.472493],[4.827829,46.472492],[4.82799,46.472503],[4.828096,46.472522],[4.828185,46.472548],[4.828242,46.472574],[4.828348,46.472642],[4.828419,46.47268],[4.828524,46.472725],[4.828654,46.47277],[4.828885,46.472841],[4.829007,46.472863],[4.829221,46.472862],[4.829543,46.472867],[4.829889,46.472889],[4.830137,46.472909],[4.83022,46.472932],[4.830322,46.473148],[4.830381,46.473212],[4.830342,46.473473],[4.830284,46.473631],[4.830171,46.473786],[4.830046,46.473994],[4.829921,46.474139],[4.829895,46.474165],[4.829878,46.474183],[4.829948,46.474206],[4.83001,46.474232],[4.830086,46.474247],[4.830128,46.474265],[4.830165,46.474306],[4.830197,46.474384],[4.830221,46.474406],[4.830287,46.474443],[4.830375,46.474481],[4.83043,46.474495],[4.830534,46.474485],[4.830594,46.474484],[4.830641,46.474494],[4.830691,46.474543],[4.830741,46.47458],[4.830778,46.474589],[4.830817,46.474583],[4.830928,46.474465],[4.83096,46.474459],[4.831005,46.474469],[4.831106,46.474505],[4.831206,46.474545],[4.831264,46.474557],[4.831396,46.474555],[4.831445,46.474566],[4.831488,46.474598],[4.831518,46.474658],[4.831608,46.47474],[4.831709,46.474819],[4.831792,46.474857],[4.831885,46.474896],[4.832435,46.475109],[4.832456,46.475118],[4.832522,46.475146],[4.832807,46.475246],[4.833263,46.47545],[4.833456,46.475513],[4.833824,46.475658],[4.834077,46.475703],[4.834326,46.475703],[4.834451,46.475714],[4.834453,46.475701],[4.835135,46.474236],[4.835159,46.47419],[4.835169,46.474166],[4.835355,46.47419],[4.835494,46.47422],[4.835693,46.474281],[4.83627,46.47448],[4.836801,46.474666],[4.83704,46.474754],[4.837258,46.474851],[4.837631,46.475032],[4.838525,46.475463],[4.838766,46.475572],[4.838933,46.475636],[4.839105,46.475687],[4.840125,46.475927],[4.840419,46.476001],[4.840582,46.476032],[4.840645,46.47604],[4.840738,46.476045],[4.840892,46.476047],[4.841039,46.476037],[4.841382,46.475976],[4.841542,46.475946],[4.841678,46.475909],[4.842789,46.475555],[4.842856,46.475529],[4.842922,46.475499],[4.842986,46.475461],[4.843047,46.475411],[4.843163,46.475285],[4.843133,46.475182],[4.843112,46.475017],[4.843109,46.474684],[4.843123,46.474452],[4.843165,46.474348],[4.843172,46.474314],[4.843267,46.47406],[4.843325,46.473965],[4.843509,46.473621],[4.843618,46.473528],[4.843655,46.473495],[4.843693,46.473457],[4.843731,46.473416],[4.843757,46.47338],[4.843779,46.473345],[4.843813,46.473276],[4.843853,46.473183],[4.843871,46.47316],[4.843892,46.473142],[4.843921,46.473127],[4.843956,46.472853],[4.843956,46.472798],[4.843936,46.472779],[4.843928,46.472765],[4.843927,46.472708],[4.843919,46.472198],[4.843916,46.47218],[4.843974,46.472173],[4.843973,46.472155],[4.843987,46.472022],[4.843988,46.471783],[4.844006,46.471743],[4.843974,46.47158],[4.843899,46.471485],[4.843816,46.471365],[4.843776,46.471304],[4.844128,46.471329],[4.844131,46.471302],[4.844162,46.470905],[4.844002,46.470893],[4.84371,46.470872],[4.843516,46.470858],[4.843418,46.47086],[4.843321,46.47086],[4.843281,46.47086],[4.843208,46.470848],[4.843088,46.470812],[4.843012,46.470788],[4.842915,46.470758],[4.842727,46.470699],[4.842621,46.470659],[4.842244,46.470538],[4.84222,46.470488],[4.842109,46.47026],[4.842072,46.470213],[4.842028,46.470048],[4.841928,46.469846],[4.841891,46.46976],[4.84188,46.469735],[4.841873,46.469715],[4.841862,46.46969],[4.841835,46.46963],[4.841796,46.469565],[4.84177,46.469511],[4.841737,46.469425],[4.841703,46.469336],[4.841642,46.469184],[4.841629,46.469129],[4.841625,46.469081],[4.841664,46.46894],[4.841634,46.468852],[4.841658,46.468777],[4.84163,46.468707],[4.841634,46.468666],[4.841622,46.468547],[4.841593,46.468499],[4.841505,46.468402],[4.841475,46.468316],[4.841414,46.468133],[4.841389,46.468073],[4.841367,46.468019],[4.841341,46.467923],[4.841331,46.46788],[4.841314,46.467855],[4.841275,46.467728],[4.841244,46.467623],[4.84124,46.467554],[4.841227,46.467472],[4.841205,46.467328],[4.841194,46.46724],[4.841174,46.467105],[4.841143,46.466895],[4.841123,46.466775],[4.841075,46.466566],[4.841026,46.466331],[4.841009,46.466267],[4.840839,46.465814],[4.840673,46.465146],[4.840658,46.465097],[4.840651,46.465043],[4.840637,46.464994],[4.840624,46.464966],[4.840579,46.464902],[4.840488,46.464762],[4.840378,46.464608],[4.840293,46.464459],[4.840287,46.464448],[4.840192,46.464326],[4.840151,46.46426],[4.84012,46.464212],[4.840021,46.464102],[4.839972,46.464018],[4.839953,46.463928],[4.839945,46.463885],[4.839937,46.463847],[4.839898,46.463765],[4.839894,46.463682],[4.839864,46.463612],[4.839847,46.463569],[4.839831,46.463498],[4.839834,46.463429],[4.839851,46.463304],[4.839873,46.46319],[4.839921,46.462967],[4.839953,46.462856],[4.840064,46.462607],[4.840044,46.462597],[4.840032,46.462548],[4.840016,46.462499],[4.839987,46.462455],[4.839942,46.462406],[4.839854,46.462331],[4.83985,46.462206],[4.839868,46.462135],[4.839728,46.461975],[4.839616,46.461862],[4.839596,46.461848],[4.839571,46.461869],[4.839553,46.461854],[4.839322,46.461713],[4.839162,46.461587],[4.838712,46.461248],[4.838525,46.461023],[4.838401,46.460891],[4.838314,46.460809],[4.838072,46.460611],[4.838044,46.460588],[4.83781,46.460388],[4.837685,46.460258],[4.837644,46.460214],[4.837497,46.460112],[4.837329,46.459973],[4.837095,46.459738],[4.836776,46.459382],[4.836586,46.459228],[4.83646,46.459119],[4.836419,46.459088],[4.836134,46.45897],[4.835827,46.458837],[4.835482,46.458685],[4.835415,46.458663],[4.835056,46.458567],[4.834936,46.458531],[4.83474,46.458463],[4.834685,46.458446],[4.834391,46.458381],[4.834259,46.45835],[4.833987,46.458275],[4.83363,46.458165],[4.832911,46.458633],[4.832699,46.458513],[4.832417,46.458341],[4.832215,46.458197],[4.832073,46.458135],[4.831863,46.458017],[4.831783,46.457959],[4.831036,46.45736],[4.830548,46.45699],[4.829865,46.456471],[4.829491,46.456111],[4.828253,46.454894],[4.82818,46.454825],[4.828111,46.454763],[4.828005,46.45466],[4.82794,46.454592],[4.82792,46.454571],[4.827883,46.454531],[4.827708,46.454344],[4.827625,46.454254],[4.827572,46.454196],[4.827517,46.454138],[4.827458,46.454075],[4.8274,46.454012],[4.827342,46.453949],[4.827271,46.453872],[4.827257,46.453858],[4.827209,46.453809],[4.82718,46.453777],[4.827111,46.453702],[4.827068,46.453655],[4.827029,46.453612],[4.826926,46.453475],[4.826837,46.45338],[4.826799,46.453342],[4.826749,46.453292],[4.826723,46.453265],[4.826695,46.453237],[4.826658,46.453198],[4.826612,46.453153],[4.825277,46.45349]]]]}}]}
