{"type":"FeatureCollection","features":[{"type":"Feature","id":"inao-denom-2073","properties":{"id":"inao-denom-2073","name":"Mâcon Uchizy","tier":"regional","kind":"appellation","appellationId":583,"denominationId":2073,"sourceName":"Mâcon Uchizy","communes":["71550"],"areaHa":179.57},"geometry":{"type":"MultiPolygon","coordinates":[[[[4.860218,46.497468],[4.859781,46.497534],[4.859771,46.49737],[4.859256,46.497442],[4.858949,46.497518],[4.858685,46.497589],[4.857785,46.49783],[4.857314,46.497956],[4.857709,46.498306],[4.858059,46.498574],[4.858603,46.498865],[4.858956,46.498977],[4.859442,46.499043],[4.86048,46.499278],[4.860253,46.498771],[4.860246,46.498659],[4.860235,46.498079],[4.86023,46.497849],[4.860218,46.497468]]],[[[4.861957,46.498322],[4.860314,46.498763],[4.860413,46.498973],[4.860458,46.499077],[4.860559,46.499295],[4.86151,46.499539],[4.86186,46.4996],[4.862307,46.499602],[4.862639,46.499574],[4.862236,46.498606],[4.86205,46.498571],[4.862003,46.498459],[4.86206,46.498444],[4.862099,46.49854],[4.862282,46.498575],[4.862701,46.499564],[4.862891,46.499537],[4.863086,46.499478],[4.863381,46.499386],[4.863445,46.499374],[4.863705,46.49932],[4.863761,46.499311],[4.863504,46.49838],[4.863268,46.498415],[4.863254,46.498343],[4.863184,46.498068],[4.86196,46.498339],[4.861957,46.498322]]],[[[4.868532,46.499022],[4.868486,46.499018],[4.868108,46.499001],[4.867925,46.49902],[4.867705,46.499063],[4.867438,46.499128],[4.867282,46.499172],[4.866898,46.499261],[4.866678,46.499287],[4.866285,46.499299],[4.865997,46.49933],[4.865863,46.499342],[4.865701,46.499365],[4.865433,46.499402],[4.865223,46.499401],[4.865073,46.499383],[4.864742,46.499351],[4.864633,46.499347],[4.864376,46.499336],[4.864318,46.499337],[4.864044,46.499344],[4.863925,46.499356],[4.863729,46.499379],[4.863535,46.499422],[4.863422,46.499448],[4.863293,46.499486],[4.863135,46.499531],[4.862918,46.499594],[4.862899,46.499596],[4.86312,46.500267],[4.863188,46.500497],[4.863113,46.500849],[4.863177,46.500844],[4.864449,46.500752],[4.864431,46.500625],[4.864815,46.500596],[4.86488,46.500591],[4.865116,46.500568],[4.865617,46.500512],[4.865943,46.500476],[4.866101,46.500463],[4.866243,46.500455],[4.866578,46.500458],[4.867498,46.500464],[4.867569,46.500446],[4.867834,46.500245],[4.867849,46.500236],[4.867976,46.500152],[4.868206,46.5],[4.868968,46.499505],[4.869106,46.49937],[4.869075,46.499285],[4.868968,46.499165],[4.868846,46.499097],[4.868774,46.499071],[4.868671,46.499047],[4.868532,46.499022]]],[[[4.861832,46.499662],[4.86148,46.499606],[4.860444,46.499339],[4.860212,46.499287],[4.859415,46.499107],[4.85893,46.499045],[4.85884,46.499017],[4.858724,46.500554],[4.858999,46.500645],[4.859288,46.500643],[4.859443,46.500727],[4.859625,46.500799],[4.859893,46.500904],[4.859929,46.500912],[4.860189,46.50093],[4.86021,46.500917],[4.860482,46.500988],[4.86102,46.501266],[4.861091,46.501303],[4.861435,46.501748],[4.861582,46.501983],[4.861671,46.50218],[4.862321,46.502107],[4.862416,46.502094],[4.862572,46.502064],[4.862925,46.501916],[4.862935,46.501819],[4.862956,46.501621],[4.862945,46.501255],[4.862967,46.501063],[4.862974,46.501023],[4.863006,46.500877],[4.863099,46.500487],[4.862816,46.499611],[4.862647,46.499636],[4.862312,46.499666],[4.862158,46.499666],[4.861832,46.499662]]],[[[4.867539,46.500576],[4.867486,46.500915],[4.867451,46.501113],[4.867279,46.501545],[4.86723,46.501674],[4.86708,46.502116],[4.867014,46.502311],[4.866953,46.502747],[4.867708,46.502944],[4.867764,46.502956],[4.867987,46.502993],[4.868231,46.502333],[4.868014,46.502292],[4.867702,46.502234],[4.867964,46.501674],[4.867989,46.501623],[4.868133,46.50146],[4.868303,46.501325],[4.868445,46.501394],[4.868681,46.501168],[4.868969,46.500981],[4.869249,46.500598],[4.869211,46.500573],[4.869586,46.500269],[4.869623,46.500241],[4.869956,46.500113],[4.87023,46.499941],[4.86932,46.499345],[4.868675,46.499768],[4.868245,46.500045],[4.86788,46.500279],[4.867588,46.500492],[4.867539,46.500576]]],[[[4.864202,46.500806],[4.863104,46.500886],[4.863085,46.500967],[4.863071,46.501035],[4.863063,46.501075],[4.863047,46.501262],[4.863047,46.501569],[4.863052,46.501626],[4.863049,46.501663],[4.863033,46.501833],[4.863023,46.501921],[4.863053,46.501952],[4.86316,46.502003],[4.863271,46.502018],[4.863876,46.502032],[4.864083,46.502076],[4.864269,46.502118],[4.864531,46.502201],[4.864813,46.502253],[4.865061,46.502339],[4.865261,46.502408],[4.866045,46.502552],[4.866851,46.502707],[4.866938,46.502338],[4.866944,46.502309],[4.866976,46.502225],[4.867068,46.501953],[4.867148,46.501736],[4.867166,46.50166],[4.867218,46.50153],[4.867237,46.501483],[4.867386,46.501109],[4.867405,46.500979],[4.867441,46.500776],[4.867452,46.500715],[4.867469,46.500594],[4.867485,46.500508],[4.866242,46.500499],[4.864841,46.500642],[4.864827,46.500644],[4.864492,46.500668],[4.864509,46.500784],[4.864202,46.500806]]],[[[4.878259,46.502962],[4.877812,46.502861],[4.876949,46.50266],[4.876809,46.502625],[4.876764,46.502617],[4.876417,46.502536],[4.876261,46.502499],[4.87567,46.50236],[4.875206,46.502252],[4.875115,46.502229],[4.874713,46.502133],[4.87387,46.501937],[4.873674,46.501887],[4.872973,46.501724],[4.872739,46.501679],[4.872523,46.501693],[4.872431,46.50171],[4.872428,46.501721],[4.872325,46.502265],[4.872446,46.502411],[4.872514,46.502492],[4.873077,46.50289],[4.873587,46.503239],[4.87455,46.5039],[4.875315,46.50442],[4.875506,46.504519],[4.875783,46.50464],[4.87591,46.50467],[4.876172,46.504721],[4.876235,46.50473],[4.876277,46.50473],[4.876311,46.504726],[4.876386,46.504711],[4.876546,46.504662],[4.876871,46.504554],[4.877227,46.50445],[4.877348,46.504413],[4.878027,46.504042],[4.877926,46.503922],[4.877897,46.503888],[4.878386,46.503634],[4.878357,46.50361],[4.878243,46.503517],[4.878751,46.503274],[4.878638,46.50317],[4.878582,46.503116],[4.878569,46.503103],[4.878528,46.50303],[4.878259,46.502962]]],[[[4.87623,46.505082],[4.876216,46.505062],[4.876149,46.504912],[4.876093,46.504884],[4.876047,46.504859],[4.875938,46.504809],[4.87581,46.504745],[4.87433,46.505635],[4.874093,46.505691],[4.873894,46.505623],[4.873416,46.505534],[4.873026,46.505505],[4.872492,46.505566],[4.871897,46.505702],[4.871582,46.505829],[4.871018,46.506087],[4.870913,46.506142],[4.870069,46.506851],[4.870506,46.507033],[4.870798,46.507191],[4.870877,46.507144],[4.870948,46.507113],[4.871058,46.507078],[4.871129,46.507065],[4.871205,46.507053],[4.871669,46.507076],[4.872385,46.507099],[4.873087,46.507154],[4.873725,46.507202],[4.873896,46.507213],[4.873983,46.507214],[4.874055,46.50721],[4.874105,46.507204],[4.874197,46.507189],[4.874376,46.507113],[4.874513,46.507046],[4.874727,46.506944],[4.875099,46.506879],[4.875573,46.50681],[4.875604,46.506845],[4.876162,46.506797],[4.876542,46.506774],[4.876568,46.506771],[4.876601,46.506773],[4.876876,46.506768],[4.877031,46.506768],[4.877126,46.506766],[4.877677,46.506789],[4.877863,46.506793],[4.878173,46.506787],[4.878308,46.506785],[4.878328,46.506782],[4.878676,46.506744],[4.877573,46.506026],[4.877471,46.505959],[4.877391,46.505906],[4.876992,46.505623],[4.876532,46.505295],[4.87623,46.505082]]],[[[4.873914,46.507279],[4.873861,46.507279],[4.873714,46.507271],[4.872798,46.507202],[4.872375,46.507169],[4.871661,46.507149],[4.871248,46.507136],[4.871223,46.507145],[4.871178,46.507167],[4.871312,46.507447],[4.871213,46.507762],[4.871304,46.508204],[4.871281,46.508701],[4.871406,46.509204],[4.871741,46.509177],[4.871968,46.509223],[4.873026,46.509548],[4.87322,46.508996],[4.873061,46.508979],[4.873202,46.508534],[4.873345,46.508587],[4.873508,46.507815],[4.873789,46.50772],[4.873967,46.508337],[4.8739,46.508335],[4.873727,46.508348],[4.873691,46.508545],[4.873728,46.508677],[4.87388,46.508701],[4.873946,46.508859],[4.873974,46.508971],[4.873941,46.509062],[4.873795,46.509074],[4.873645,46.509195],[4.873627,46.5094],[4.873622,46.509544],[4.873618,46.509679],[4.874343,46.509841],[4.874489,46.509846],[4.8747,46.509829],[4.87484,46.509793],[4.874911,46.509706],[4.87498,46.509657],[4.875079,46.509614],[4.875097,46.509604],[4.875127,46.509481],[4.875161,46.50933],[4.875268,46.508856],[4.875372,46.508089],[4.875373,46.508068],[4.875414,46.507587],[4.875432,46.50738],[4.875434,46.507112],[4.875464,46.506895],[4.875106,46.506934],[4.874784,46.507004],[4.874244,46.507242],[4.874143,46.507261],[4.874022,46.507273],[4.873914,46.507279]]],[[[4.871453,46.509284],[4.871397,46.509419],[4.871634,46.509713],[4.871817,46.509915],[4.871857,46.510015],[4.871906,46.510228],[4.873208,46.510153],[4.873052,46.509613],[4.872996,46.509598],[4.87193,46.509274],[4.871737,46.509233],[4.871441,46.509263],[4.871453,46.509284]]],[[[4.874956,46.509815],[4.874673,46.509884],[4.874453,46.509902],[4.874318,46.509892],[4.873585,46.509728],[4.873548,46.509721],[4.873119,46.509625],[4.873285,46.510194],[4.872438,46.510239],[4.872345,46.510244],[4.871918,46.510267],[4.872018,46.510629],[4.872053,46.510786],[4.872074,46.510936],[4.872173,46.511175],[4.872193,46.511388],[4.872204,46.511647],[4.872762,46.511648],[4.872616,46.511942],[4.872566,46.512057],[4.872552,46.512127],[4.872569,46.512204],[4.872609,46.512292],[4.872844,46.512695],[4.872968,46.512686],[4.873037,46.512795],[4.873167,46.512768],[4.873241,46.513056],[4.873274,46.513173],[4.873405,46.513535],[4.873589,46.514095],[4.873754,46.514104],[4.874051,46.514065],[4.874084,46.514114],[4.874107,46.514135],[4.874149,46.514154],[4.874287,46.51391],[4.874453,46.513618],[4.874548,46.513477],[4.874597,46.51342],[4.874792,46.513174],[4.875079,46.512835],[4.875248,46.512653],[4.8755,46.512457],[4.875599,46.512253],[4.875471,46.511837],[4.875253,46.511481],[4.875014,46.510951],[4.874921,46.510611],[4.874911,46.510067],[4.874956,46.509815]]],[[[4.873717,46.515371],[4.87342,46.515431],[4.87329,46.515468],[4.873145,46.515518],[4.87299,46.515657],[4.872933,46.515719],[4.872856,46.515814],[4.872854,46.515872],[4.874219,46.515987],[4.874702,46.515723],[4.874834,46.515228],[4.874855,46.515151],[4.874692,46.515044],[4.874387,46.515136],[4.874311,46.515166],[4.873965,46.515296],[4.873817,46.515344],[4.873717,46.515371]]],[[[4.875308,46.516645],[4.874904,46.516742],[4.874553,46.516827],[4.874182,46.516915],[4.873903,46.51698],[4.873933,46.517167],[4.873939,46.517208],[4.873953,46.517455],[4.873966,46.517697],[4.874021,46.517788],[4.874149,46.517989],[4.874354,46.518319],[4.874421,46.518417],[4.874351,46.518443],[4.873891,46.517716],[4.873845,46.51724],[4.873797,46.516792],[4.873784,46.516548],[4.873802,46.516512],[4.873811,46.516498],[4.873811,46.516477],[4.873804,46.516439],[4.873708,46.516225],[4.873701,46.516144],[4.873806,46.516008],[4.872825,46.51593],[4.872701,46.515949],[4.872284,46.516023],[4.872005,46.516115],[4.871776,46.516259],[4.872083,46.516507],[4.872201,46.516608],[4.872299,46.516711],[4.872382,46.516871],[4.872528,46.517175],[4.87205,46.517244],[4.871957,46.517267],[4.871726,46.517358],[4.871758,46.517471],[4.871763,46.517516],[4.871761,46.517558],[4.871744,46.517614],[4.871844,46.517856],[4.871908,46.517996],[4.871998,46.518125],[4.872409,46.517982],[4.872701,46.518398],[4.872717,46.518394],[4.872935,46.518728],[4.873255,46.518641],[4.873409,46.518587],[4.873546,46.518786],[4.873372,46.518857],[4.873562,46.519078],[4.873652,46.519199],[4.873785,46.519397],[4.873504,46.519501],[4.873875,46.520088],[4.873981,46.520246],[4.874197,46.520502],[4.874366,46.520463],[4.874397,46.520513],[4.874427,46.520558],[4.874478,46.520544],[4.875415,46.520266],[4.875376,46.520223],[4.875247,46.520074],[4.875596,46.519984],[4.875405,46.519627],[4.875215,46.519277],[4.875074,46.519096],[4.875318,46.519056],[4.875657,46.518969],[4.87623,46.519771],[4.87638,46.519788],[4.876412,46.519858],[4.876843,46.519697],[4.876882,46.519881],[4.877047,46.519861],[4.877171,46.519838],[4.877365,46.519818],[4.877657,46.51981],[4.877652,46.519795],[4.877645,46.519776],[4.877194,46.519151],[4.877954,46.51904],[4.877806,46.518566],[4.877116,46.517214],[4.87691,46.516862],[4.876654,46.516317],[4.875471,46.516605],[4.875308,46.516645]]],[[[4.880897,46.504192],[4.88093,46.504227],[4.880896,46.504255],[4.881109,46.504456],[4.881915,46.50395],[4.881548,46.503781],[4.881449,46.503843],[4.881242,46.503974],[4.880981,46.504139],[4.880897,46.504192]]],[[[4.881933,46.503959],[4.881118,46.504468],[4.881192,46.504528],[4.881216,46.504547],[4.881033,46.504647],[4.881099,46.504714],[4.881271,46.50487],[4.881328,46.50492],[4.881389,46.504973],[4.88156,46.504878],[4.881623,46.504936],[4.881823,46.504817],[4.881831,46.504824],[4.881923,46.504915],[4.881969,46.504958],[4.882145,46.504848],[4.882227,46.504797],[4.882505,46.504629],[4.882834,46.504433],[4.882805,46.5044],[4.882757,46.504373],[4.882698,46.504341],[4.882686,46.504335],[4.882348,46.504149],[4.881933,46.503959]]],[[[4.879033,46.504777],[4.878547,46.50435],[4.878274,46.504123],[4.878175,46.50404],[4.878084,46.504062],[4.877385,46.504457],[4.877114,46.504533],[4.877067,46.504548],[4.8769,46.504598],[4.876807,46.504633],[4.876287,46.504866],[4.87625,46.504928],[4.876255,46.504972],[4.876269,46.505011],[4.876287,46.505046],[4.87631,46.505069],[4.876348,46.505098],[4.876603,46.50528],[4.877076,46.50562],[4.877304,46.505777],[4.877433,46.505871],[4.87791,46.506181],[4.878468,46.506544],[4.87876,46.506735],[4.8789,46.506718],[4.879288,46.506668],[4.879319,46.506665],[4.879471,46.506646],[4.879695,46.506612],[4.880169,46.506496],[4.880142,46.506457],[4.880158,46.506453],[4.880161,46.506457],[4.880264,46.506422],[4.880247,46.506399],[4.880228,46.506405],[4.88017,46.506324],[4.880191,46.506316],[4.88018,46.5063],[4.880338,46.506242],[4.88043,46.506208],[4.880628,46.506133],[4.880588,46.50609],[4.880475,46.50599],[4.880225,46.505782],[4.879561,46.505222],[4.879096,46.504831],[4.879033,46.504777]]],[[[4.887873,46.506891],[4.887812,46.506919],[4.88775,46.506859],[4.887635,46.506907],[4.887566,46.506831],[4.887512,46.506857],[4.887475,46.50682],[4.887452,46.50683],[4.887398,46.506775],[4.887618,46.506665],[4.887566,46.506611],[4.887697,46.506552],[4.887634,46.506504],[4.887466,46.506375],[4.887246,46.506175],[4.887145,46.506082],[4.887137,46.506085],[4.887005,46.506139],[4.88692,46.506172],[4.886701,46.506266],[4.886691,46.506257],[4.886658,46.506211],[4.88655,46.506102],[4.886509,46.50606],[4.886484,46.50607],[4.886408,46.505977],[4.886683,46.505867],[4.886626,46.505802],[4.886538,46.505837],[4.88636,46.505633],[4.886448,46.505592],[4.886409,46.505554],[4.886378,46.505523],[4.886303,46.50544],[4.886273,46.505412],[4.886221,46.505363],[4.886178,46.505383],[4.886157,46.505368],[4.885978,46.505255],[4.885828,46.505144],[4.885771,46.505093],[4.885671,46.505138],[4.885553,46.505037],[4.885374,46.505128],[4.885287,46.505037],[4.885386,46.504989],[4.885415,46.504974],[4.885407,46.504968],[4.885344,46.504906],[4.885321,46.504918],[4.885289,46.504885],[4.885241,46.504907],[4.885003,46.50466],[4.884987,46.50464],[4.884929,46.50457],[4.88491,46.504547],[4.884801,46.504592],[4.884671,46.504469],[4.884172,46.504739],[4.884211,46.504778],[4.88428,46.504847],[4.884312,46.504879],[4.88441,46.504979],[4.884601,46.505165],[4.884542,46.505193],[4.884439,46.50509],[4.884421,46.505098],[4.884312,46.505156],[4.884348,46.505201],[4.884188,46.505284],[4.884184,46.50528],[4.884157,46.505292],[4.884042,46.505346],[4.883919,46.505408],[4.883963,46.505453],[4.884073,46.505565],[4.883925,46.50564],[4.883892,46.505656],[4.883798,46.505602],[4.883778,46.505591],[4.883628,46.505661],[4.883456,46.505739],[4.883378,46.505656],[4.883362,46.505661],[4.883347,46.505647],[4.883363,46.50564],[4.883327,46.505602],[4.883307,46.505581],[4.88328,46.505593],[4.883266,46.505582],[4.883135,46.50565],[4.883263,46.505765],[4.883201,46.505796],[4.883244,46.505842],[4.883155,46.505882],[4.883094,46.505912],[4.883053,46.505932],[4.88304,46.505937],[4.883013,46.505983],[4.882926,46.506115],[4.882589,46.506288],[4.882499,46.506333],[4.882451,46.50629],[4.882404,46.506246],[4.882392,46.506251],[4.882296,46.506299],[4.882277,46.506301],[4.882261,46.506297],[4.882217,46.506265],[4.882081,46.506331],[4.882035,46.50629],[4.881901,46.506172],[4.881555,46.506355],[4.881373,46.506451],[4.881283,46.506499],[4.881155,46.506567],[4.881097,46.506598],[4.880817,46.506746],[4.880667,46.506827],[4.880816,46.506935],[4.880927,46.507038],[4.881055,46.507164],[4.881133,46.507247],[4.881193,46.507321],[4.88136,46.507523],[4.881522,46.507713],[4.881551,46.507748],[4.881669,46.507885],[4.881792,46.508027],[4.882087,46.508374],[4.882384,46.508235],[4.882505,46.50818],[4.882562,46.507945],[4.882677,46.507732],[4.882672,46.507595],[4.882667,46.507571],[4.882598,46.507445],[4.88254,46.507353],[4.882586,46.50733],[4.882723,46.50756],[4.882725,46.507738],[4.882613,46.507969],[4.882557,46.508196],[4.882548,46.508232],[4.882498,46.508257],[4.882149,46.508431],[4.882475,46.508722],[4.882826,46.509031],[4.883128,46.509297],[4.883231,46.509315],[4.883455,46.509205],[4.883718,46.50907],[4.883989,46.508932],[4.884173,46.508837],[4.884666,46.508622],[4.884961,46.508507],[4.885149,46.508453],[4.884983,46.508283],[4.884791,46.508084],[4.8851,46.507949],[4.885245,46.507889],[4.885269,46.507921],[4.885164,46.507967],[4.884861,46.508092],[4.885206,46.50844],[4.885368,46.508384],[4.885586,46.5083],[4.885877,46.508187],[4.886515,46.507869],[4.886845,46.507694],[4.887025,46.507592],[4.887179,46.507537],[4.887275,46.507503],[4.887463,46.507456],[4.887535,46.50744],[4.887788,46.507395],[4.888059,46.507313],[4.888123,46.507266],[4.888154,46.507235],[4.888197,46.507188],[4.888231,46.507136],[4.887831,46.507261],[4.887809,46.507269],[4.887676,46.507105],[4.887956,46.506975],[4.887873,46.506891]]],[[[4.889098,46.507359],[4.889378,46.507391],[4.889673,46.507422],[4.890158,46.507148],[4.889981,46.507064],[4.889766,46.506934],[4.889314,46.507179],[4.889188,46.507247],[4.888999,46.507348],[4.889098,46.507359]]],[[[4.882551,46.508892],[4.882362,46.50872],[4.88233,46.508692],[4.882197,46.508571],[4.881804,46.508202],[4.881654,46.508055],[4.881594,46.508],[4.881554,46.507962],[4.881438,46.507818],[4.881381,46.507734],[4.881155,46.507443],[4.880951,46.507215],[4.880824,46.50709],[4.880497,46.506749],[4.880379,46.506632],[4.880362,46.506623],[4.880301,46.506656],[4.880195,46.506566],[4.880141,46.506595],[4.880044,46.506615],[4.879729,46.506679],[4.879335,46.506753],[4.879214,46.506767],[4.878958,46.506797],[4.878323,46.506868],[4.877855,46.506876],[4.877495,46.506871],[4.876969,46.506834],[4.876278,46.506857],[4.877101,46.507639],[4.877231,46.507763],[4.877372,46.50789],[4.877229,46.507996],[4.877364,46.5081],[4.877437,46.508067],[4.877553,46.508173],[4.877902,46.508491],[4.878023,46.508622],[4.878279,46.508905],[4.878619,46.50928],[4.878714,46.509384],[4.878916,46.509657],[4.879035,46.509817],[4.879229,46.510071],[4.879414,46.510184],[4.879651,46.510422],[4.880408,46.510165],[4.880461,46.510219],[4.880516,46.510251],[4.880606,46.510295],[4.880746,46.510372],[4.880915,46.510449],[4.881205,46.510583],[4.881384,46.510452],[4.881562,46.510322],[4.88238,46.509792],[4.883015,46.509409],[4.883005,46.509333],[4.882922,46.509221],[4.882803,46.509117],[4.882672,46.509004],[4.882629,46.508964],[4.882551,46.508892]]],[[[4.893124,46.508596],[4.893045,46.50853],[4.892925,46.508429],[4.892845,46.508369],[4.892814,46.508344],[4.892742,46.508288],[4.89267,46.508228],[4.892507,46.508114],[4.89232,46.508026],[4.892251,46.507995],[4.892213,46.50798],[4.891983,46.507899],[4.891933,46.507882],[4.89173,46.507824],[4.891657,46.507803],[4.891532,46.507766],[4.891378,46.507723],[4.891297,46.507707],[4.891152,46.507679],[4.891073,46.507669],[4.890887,46.507642],[4.890753,46.507626],[4.89073,46.507623],[4.890589,46.507609],[4.890097,46.507555],[4.889919,46.507537],[4.8898,46.507524],[4.889268,46.507459],[4.88907,46.507436],[4.888902,46.507408],[4.888882,46.507405],[4.888664,46.507346],[4.888592,46.507317],[4.888375,46.507213],[4.888258,46.507326],[4.888234,46.507396],[4.888248,46.507466],[4.88832,46.507652],[4.888355,46.507693],[4.888446,46.507809],[4.888517,46.50788],[4.888518,46.507881],[4.888751,46.508103],[4.888806,46.508154],[4.888893,46.508233],[4.889118,46.508427],[4.889156,46.508458],[4.889261,46.508549],[4.889382,46.508654],[4.889537,46.508792],[4.88958,46.508818],[4.889683,46.508898],[4.889761,46.508963],[4.889809,46.508997],[4.889971,46.509086],[4.890199,46.509211],[4.890294,46.509265],[4.890427,46.509339],[4.890482,46.509371],[4.890668,46.509476],[4.890769,46.509534],[4.89085,46.509585],[4.890889,46.50961],[4.89109,46.509765],[4.891184,46.509827],[4.891368,46.509979],[4.891516,46.510099],[4.89181,46.510348],[4.892018,46.510534],[4.893282,46.50922],[4.893503,46.508942],[4.893398,46.508861],[4.893378,46.508835],[4.893294,46.508758],[4.893202,46.508672],[4.893124,46.508596]]],[[[4.876822,46.510065],[4.876554,46.509801],[4.876518,46.509735],[4.876505,46.509709],[4.876461,46.509628],[4.876417,46.509544],[4.87636,46.509441],[4.875115,46.509689],[4.87506,46.509738],[4.875046,46.50982],[4.875031,46.509916],[4.875016,46.510006],[4.87501,46.510039],[4.875009,46.510063],[4.875008,46.510108],[4.875014,46.510419],[4.875017,46.510609],[4.875029,46.51065],[4.875113,46.510934],[4.875187,46.511105],[4.875338,46.511455],[4.875559,46.511815],[4.875619,46.512035],[4.875683,46.51224],[4.875695,46.512323],[4.877428,46.511976],[4.877563,46.511676],[4.878074,46.511468],[4.878294,46.511378],[4.87793,46.510934],[4.877583,46.51063],[4.877358,46.510493],[4.877134,46.510434],[4.877005,46.51026],[4.876822,46.510065]]],[[[4.888353,46.507855],[4.888299,46.507796],[4.888246,46.507715],[4.8882,46.507627],[4.888162,46.507533],[4.888136,46.507429],[4.887853,46.507503],[4.88751,46.507559],[4.887349,46.507608],[4.887247,46.507635],[4.887106,46.50767],[4.887032,46.507708],[4.886965,46.507741],[4.886893,46.507777],[4.886781,46.507832],[4.886573,46.507936],[4.886418,46.508015],[4.886242,46.508107],[4.886111,46.508171],[4.885933,46.508267],[4.885883,46.508293],[4.885593,46.508409],[4.885439,46.508448],[4.885273,46.508497],[4.885106,46.508548],[4.884871,46.508628],[4.884715,46.508698],[4.884293,46.508888],[4.884126,46.508967],[4.884198,46.509038],[4.885423,46.510188],[4.885524,46.510347],[4.885455,46.510374],[4.885368,46.510208],[4.884059,46.508995],[4.883682,46.509172],[4.883606,46.509218],[4.88325,46.509436],[4.883244,46.509474],[4.883421,46.509646],[4.88394,46.510145],[4.884327,46.510506],[4.884982,46.511071],[4.885017,46.511104],[4.885352,46.511423],[4.885469,46.511537],[4.885611,46.511669],[4.885916,46.511937],[4.885949,46.512001],[4.886067,46.512224],[4.886271,46.512604],[4.886326,46.512737],[4.886484,46.513077],[4.886666,46.513464],[4.886737,46.513983],[4.886741,46.51409],[4.886745,46.51415],[4.886749,46.514234],[4.886661,46.51477],[4.886772,46.515033],[4.887089,46.515414],[4.887137,46.515465],[4.887632,46.515847],[4.888032,46.515665],[4.888354,46.515515],[4.8884,46.515493],[4.888728,46.515342],[4.889276,46.515089],[4.889173,46.515019],[4.888854,46.514742],[4.889082,46.514629],[4.889004,46.514534],[4.88883,46.51456],[4.88837,46.514367],[4.888088,46.514011],[4.888352,46.513939],[4.888377,46.513873],[4.888171,46.513706],[4.887233,46.512551],[4.887197,46.512508],[4.887113,46.512384],[4.886851,46.512017],[4.886762,46.511785],[4.886522,46.511391],[4.886433,46.511313],[4.886235,46.511157],[4.887405,46.510574],[4.887335,46.510455],[4.887322,46.510437],[4.887296,46.510396],[4.887233,46.510304],[4.88723,46.510131],[4.887275,46.509963],[4.887345,46.509816],[4.887384,46.509753],[4.887463,46.509671],[4.887638,46.509525],[4.887726,46.509454],[4.887776,46.509429],[4.88809,46.509239],[4.888505,46.508993],[4.888573,46.508953],[4.88874,46.508853],[4.888759,46.508841],[4.888798,46.508821],[4.888874,46.508777],[4.889176,46.508612],[4.889144,46.508549],[4.888813,46.508275],[4.888655,46.508138],[4.888494,46.507986],[4.888437,46.507933],[4.888353,46.507855]],[[4.887253,46.514042],[4.887206,46.514036],[4.887276,46.513987],[4.887297,46.514033],[4.887305,46.514048],[4.887253,46.514042]]],[[[4.891116,46.509891],[4.890942,46.509762],[4.890699,46.509587],[4.890579,46.50952],[4.890318,46.50937],[4.889689,46.509015],[4.889508,46.508888],[4.88936,46.508768],[4.889248,46.50865],[4.888008,46.50937],[4.887787,46.509498],[4.887652,46.509605],[4.887563,46.509686],[4.887455,46.509794],[4.88736,46.50998],[4.887322,46.510131],[4.887319,46.510187],[4.887324,46.51027],[4.887561,46.510663],[4.887659,46.510808],[4.887814,46.510933],[4.888205,46.511237],[4.888516,46.511481],[4.888699,46.511777],[4.889003,46.512038],[4.889091,46.512116],[4.889556,46.512526],[4.889756,46.513181],[4.890711,46.514034],[4.890629,46.51407],[4.890448,46.51415],[4.890878,46.514592],[4.891612,46.514508],[4.891639,46.514285],[4.891643,46.514157],[4.891625,46.513924],[4.89158,46.513523],[4.891563,46.513436],[4.891508,46.513197],[4.891387,46.512803],[4.891368,46.512722],[4.891356,46.512583],[4.891355,46.512498],[4.891364,46.512454],[4.891399,46.512329],[4.891482,46.512076],[4.891576,46.511838],[4.891722,46.51139],[4.891731,46.511366],[4.891732,46.511336],[4.891698,46.511269],[4.891795,46.511206],[4.892093,46.510745],[4.89209,46.510707],[4.891733,46.510385],[4.89152,46.510215],[4.891494,46.510195],[4.89138,46.510104],[4.891116,46.509891]]],[[[4.886015,46.512306],[4.885844,46.511986],[4.885654,46.511817],[4.885399,46.511572],[4.885148,46.511334],[4.884941,46.511139],[4.884738,46.510957],[4.884263,46.510531],[4.884122,46.510403],[4.884089,46.510372],[4.883876,46.510176],[4.883795,46.510099],[4.883546,46.509859],[4.883154,46.509483],[4.883075,46.509469],[4.882441,46.509852],[4.881782,46.510278],[4.881572,46.510417],[4.881474,46.510488],[4.88145,46.510516],[4.881396,46.510612],[4.881446,46.510656],[4.881827,46.51101],[4.881967,46.511125],[4.882103,46.511237],[4.882093,46.511297],[4.882234,46.511412],[4.882273,46.511444],[4.882818,46.51186],[4.883109,46.512185],[4.882937,46.512259],[4.883006,46.512335],[4.883108,46.512456],[4.883259,46.512563],[4.883562,46.512356],[4.883813,46.512675],[4.883635,46.512754],[4.883963,46.513076],[4.883796,46.51313],[4.883741,46.513156],[4.883728,46.513169],[4.883729,46.513194],[4.883749,46.513223],[4.884085,46.513509],[4.88403,46.513527],[4.88414,46.513668],[4.883985,46.513716],[4.884198,46.514008],[4.883192,46.514365],[4.883212,46.514421],[4.883408,46.515006],[4.883407,46.515097],[4.883401,46.515658],[4.883445,46.515646],[4.88396,46.515468],[4.884045,46.515573],[4.88405,46.515578],[4.884168,46.51572],[4.886625,46.514886],[4.88658,46.514772],[4.886582,46.51472],[4.886595,46.514563],[4.886665,46.514248],[4.886646,46.514001],[4.88664,46.51391],[4.886574,46.513467],[4.886402,46.513111],[4.886137,46.512539],[4.886015,46.512306]]],[[[4.875455,46.512583],[4.875319,46.512695],[4.875096,46.512951],[4.875038,46.513022],[4.874671,46.513451],[4.874534,46.513644],[4.877073,46.514161],[4.877679,46.515088],[4.878262,46.512635],[4.877488,46.512023],[4.876317,46.512256],[4.87584,46.512352],[4.875656,46.51239],[4.875572,46.512497],[4.875455,46.512583]]],[[[4.883526,46.517017],[4.883292,46.516663],[4.883074,46.516294],[4.882561,46.515432],[4.882549,46.515301],[4.882538,46.515179],[4.882534,46.515126],[4.883309,46.515009],[4.883234,46.514779],[4.883193,46.514647],[4.883131,46.514452],[4.883126,46.51444],[4.883096,46.514364],[4.883032,46.514223],[4.882909,46.513449],[4.882867,46.51336],[4.88282,46.513244],[4.882785,46.513174],[4.882761,46.513169],[4.882235,46.513064],[4.882107,46.51304],[4.882057,46.513008],[4.881637,46.512765],[4.881476,46.512675],[4.881252,46.512542],[4.880895,46.512614],[4.880896,46.512762],[4.880903,46.512884],[4.880895,46.513186],[4.880894,46.513265],[4.880876,46.513312],[4.880819,46.513544],[4.880773,46.513682],[4.880678,46.513937],[4.880635,46.514252],[4.880659,46.514482],[4.880691,46.514733],[4.880702,46.514821],[4.880726,46.515019],[4.880739,46.515161],[4.88076,46.515352],[4.880766,46.515438],[4.880776,46.515562],[4.880825,46.516173],[4.881041,46.516605],[4.88124,46.516872],[4.881456,46.517161],[4.88169,46.517603],[4.881804,46.517818],[4.88182,46.517836],[4.882387,46.518925],[4.882559,46.519149],[4.882663,46.519313],[4.882735,46.519562],[4.883224,46.519408],[4.884696,46.518945],[4.884573,46.518778],[4.884469,46.518546],[4.884366,46.51831],[4.884168,46.517884],[4.883667,46.51723],[4.883526,46.517017]]]]}},{"type":"Feature","id":"commune-71550","properties":{"id":"commune-71550","name":"Uchizy","kind":"commune","tier":"commune"},"geometry":{"type":"MultiPolygon","coordinates":[[[[4.912646,46.480638],[4.912548,46.480647],[4.912301,46.480688],[4.911939,46.48081],[4.91187,46.480851],[4.911888,46.480983],[4.910538,46.481255],[4.910518,46.481258],[4.91041,46.481152],[4.910388,46.481094],[4.910362,46.481069],[4.910324,46.481041],[4.910282,46.481026],[4.910191,46.481015],[4.909659,46.481196],[4.909385,46.481266],[4.909043,46.481332],[4.908769,46.481385],[4.908548,46.481435],[4.908515,46.481427],[4.908453,46.481371],[4.908379,46.481264],[4.90823,46.481156],[4.908111,46.481058],[4.908058,46.481034],[4.90801,46.481023],[4.907956,46.481024],[4.907866,46.481044],[4.907612,46.481145],[4.907461,46.481191],[4.90709,46.481265],[4.906921,46.481313],[4.906786,46.481369],[4.90637,46.481555],[4.90617,46.481622],[4.906002,46.481658],[4.905688,46.481705],[4.905554,46.481734],[4.905374,46.481805],[4.905177,46.481811],[4.905087,46.481825],[4.905,46.481861],[4.904883,46.481899],[4.904537,46.481988],[4.904368,46.48206],[4.904288,46.482082],[4.904164,46.482057],[4.904031,46.482041],[4.903928,46.482042],[4.903709,46.482069],[4.90349,46.482129],[4.903436,46.482175],[4.903382,46.48221],[4.903342,46.482216],[4.903285,46.482202],[4.903214,46.4822],[4.902937,46.482358],[4.902902,46.482365],[4.902806,46.482359],[4.902662,46.482397],[4.902498,46.482424],[4.902404,46.482483],[4.902294,46.4825],[4.902118,46.482524],[4.902021,46.482545],[4.901902,46.482605],[4.901852,46.482621],[4.901827,46.482619],[4.901774,46.482586],[4.901752,46.482581],[4.901673,46.482608],[4.901623,46.482615],[4.901599,46.482608],[4.901545,46.482512],[4.9015,46.482483],[4.901467,46.482476],[4.901416,46.482477],[4.901163,46.482518],[4.901111,46.482533],[4.900982,46.482698],[4.900799,46.482736],[4.900717,46.482764],[4.900636,46.482807],[4.900668,46.483098],[4.900647,46.483102],[4.900435,46.48312],[4.900338,46.483134],[4.900279,46.483139],[4.900249,46.483142],[4.900114,46.483164],[4.900072,46.483181],[4.899965,46.483515],[4.899963,46.483549],[4.899953,46.483575],[4.899841,46.483659],[4.899574,46.483836],[4.899465,46.483876],[4.89936,46.483931],[4.899071,46.4841],[4.899037,46.484104],[4.898955,46.484093],[4.898895,46.484111],[4.898818,46.484249],[4.898709,46.484254],[4.898459,46.484345],[4.89842,46.484325],[4.898368,46.484312],[4.898107,46.484306],[4.898065,46.484323],[4.897944,46.484387],[4.897707,46.48445],[4.897597,46.484461],[4.897437,46.484458],[4.897265,46.484399],[4.897188,46.484386],[4.897103,46.484341],[4.897014,46.484299],[4.896865,46.484261],[4.89672,46.484115],[4.896683,46.484094],[4.896575,46.484074],[4.896471,46.484032],[4.896195,46.483953],[4.896151,46.483955],[4.89608,46.483987],[4.896054,46.483989],[4.895978,46.483978],[4.895754,46.483955],[4.895621,46.483981],[4.895473,46.483908],[4.895368,46.483897],[4.8953,46.483894],[4.895268,46.483911],[4.89524,46.483951],[4.895105,46.484085],[4.895094,46.484198],[4.89508,46.484221],[4.895019,46.484245],[4.894804,46.484247],[4.894758,46.484262],[4.894721,46.484303],[4.894607,46.484354],[4.894523,46.484418],[4.894399,46.484587],[4.89405,46.484971],[4.893677,46.485091],[4.893612,46.485119],[4.893523,46.485203],[4.893365,46.485483],[4.89328,46.485695],[4.89321,46.485823],[4.893162,46.485898],[4.893119,46.485946],[4.893073,46.486039],[4.893027,46.486111],[4.892962,46.486209],[4.892774,46.486419],[4.892759,46.486415],[4.89253,46.48636],[4.892007,46.486236],[4.891668,46.486566],[4.891211,46.487024],[4.891026,46.487242],[4.890962,46.487283],[4.890858,46.487343],[4.890766,46.487387],[4.890631,46.487442],[4.89058,46.487463],[4.890403,46.487205],[4.890346,46.487224],[4.889699,46.487379],[4.888128,46.487742],[4.887811,46.486903],[4.886254,46.487287],[4.886199,46.4872],[4.886178,46.487147],[4.886149,46.487162],[4.885083,46.485796],[4.885514,46.485715],[4.88508,46.484997],[4.88395,46.485356],[4.883853,46.48539],[4.882924,46.485682],[4.882535,46.485853],[4.882265,46.485973],[4.882183,46.486095],[4.882084,46.486271],[4.88195,46.48648],[4.881817,46.48667],[4.881739,46.486759],[4.881619,46.48689],[4.881512,46.486975],[4.881461,46.487015],[4.881313,46.487094],[4.880871,46.487313],[4.880802,46.487344],[4.880013,46.486894],[4.879729,46.486464],[4.879681,46.486103],[4.879646,46.486104],[4.879628,46.486112],[4.878932,46.486423],[4.878351,46.486684],[4.878323,46.486694],[4.878091,46.486769],[4.877945,46.48682],[4.877898,46.486837],[4.87741,46.48701],[4.877057,46.487138],[4.877019,46.487152],[4.876953,46.487184],[4.876594,46.487435],[4.876083,46.487767],[4.875571,46.488112],[4.873836,46.48876],[4.873748,46.488653],[4.872544,46.489064],[4.872498,46.48907],[4.872479,46.489043],[4.872425,46.48906],[4.870781,46.489524],[4.870932,46.489687],[4.870673,46.48977],[4.869226,46.490281],[4.869174,46.4903],[4.869,46.489814],[4.868945,46.48966],[4.86876,46.489757],[4.868415,46.489892],[4.868237,46.489648],[4.867383,46.489949],[4.866914,46.490135],[4.866101,46.490544],[4.865172,46.491122],[4.863764,46.491829],[4.863933,46.492136],[4.863964,46.492311],[4.863257,46.492419],[4.862716,46.492539],[4.862413,46.492608],[4.861975,46.492735],[4.861804,46.492786],[4.861573,46.492854],[4.861512,46.492869],[4.861214,46.492945],[4.861425,46.493274],[4.861467,46.493341],[4.861496,46.493386],[4.861524,46.493431],[4.861551,46.493473],[4.861581,46.493519],[4.861607,46.493561],[4.861663,46.493649],[4.861706,46.493716],[4.861681,46.493747],[4.86165,46.493768],[4.861602,46.493789],[4.861486,46.493835],[4.861083,46.493998],[4.861045,46.494013],[4.860924,46.494064],[4.86063,46.494209],[4.860471,46.494291],[4.860355,46.494326],[4.860244,46.494357],[4.86019,46.494371],[4.860124,46.494392],[4.860073,46.494404],[4.859959,46.494352],[4.859874,46.494313],[4.859639,46.494201],[4.859135,46.494245],[4.859064,46.494251],[4.858943,46.494196],[4.858778,46.494121],[4.858662,46.494061],[4.858621,46.494034],[4.858558,46.493882],[4.858425,46.493751],[4.858185,46.493513],[4.858123,46.493468],[4.857962,46.493397],[4.857821,46.493334],[4.857657,46.493258],[4.857509,46.493181],[4.85737,46.493125],[4.857259,46.493068],[4.85719,46.493029],[4.857148,46.493],[4.85695,46.492773],[4.856855,46.492711],[4.856755,46.492645],[4.856656,46.49258],[4.856624,46.492553],[4.856465,46.492387],[4.856166,46.49275],[4.856146,46.492775],[4.85598,46.492971],[4.855959,46.493002],[4.855927,46.493092],[4.855798,46.49351],[4.85578,46.493598],[4.855777,46.4937],[4.855778,46.493741],[4.855781,46.493781],[4.855786,46.493826],[4.855789,46.493861],[4.855799,46.493945],[4.855838,46.494076],[4.855898,46.494254],[4.85593,46.494397],[4.855953,46.494618],[4.855961,46.494734],[4.85596,46.494787],[4.855952,46.494836],[4.85595,46.494851],[4.855859,46.494743],[4.855711,46.494635],[4.855407,46.494456],[4.855058,46.494259],[4.854697,46.494051],[4.854536,46.493958],[4.853971,46.493635],[4.853695,46.493827],[4.853544,46.493938],[4.853449,46.49404],[4.853341,46.494163],[4.85332,46.494191],[4.853272,46.494295],[4.853237,46.494383],[4.853188,46.494503],[4.853166,46.494555],[4.85314,46.494585],[4.853091,46.494627],[4.852965,46.494702],[4.852934,46.494737],[4.852898,46.494779],[4.852832,46.494853],[4.852789,46.49489],[4.852666,46.494985],[4.852372,46.495215],[4.852385,46.495217],[4.852266,46.495317],[4.852155,46.495431],[4.852051,46.495496],[4.85198,46.495557],[4.851901,46.495636],[4.851843,46.495709],[4.851737,46.495851],[4.851701,46.495846],[4.851562,46.496091],[4.851473,46.496286],[4.851394,46.496393],[4.851363,46.496452],[4.851328,46.496539],[4.851301,46.496831],[4.851308,46.496921],[4.851331,46.497095],[4.851347,46.497144],[4.851385,46.497245],[4.851405,46.497276],[4.851454,46.497341],[4.851463,46.497379],[4.851452,46.497444],[4.85144,46.497466],[4.851413,46.49749],[4.851393,46.497505],[4.851217,46.497455],[4.85108,46.497422],[4.850738,46.497383],[4.850234,46.497334],[4.849978,46.497289],[4.849895,46.497254],[4.849907,46.49724],[4.849998,46.497123],[4.850056,46.496984],[4.850166,46.496791],[4.850229,46.496681],[4.850272,46.496576],[4.85031,46.496516],[4.850386,46.496414],[4.850445,46.496343],[4.849631,46.496139],[4.849581,46.496129],[4.849238,46.496002],[4.848874,46.49581],[4.848477,46.495598],[4.848545,46.495497],[4.848671,46.495304],[4.849034,46.494869],[4.849133,46.49475],[4.849233,46.49463],[4.849428,46.494395],[4.849608,46.494177],[4.849943,46.493767],[4.849442,46.493707],[4.849353,46.493694],[4.848937,46.493583],[4.848511,46.493381],[4.848384,46.493362],[4.84824,46.49333],[4.847711,46.493187],[4.847492,46.493112],[4.846866,46.492931],[4.846384,46.492727],[4.846369,46.492731],[4.846573,46.493221],[4.846598,46.493235],[4.846633,46.493256],[4.846651,46.493301],[4.846737,46.493519],[4.846732,46.493579],[4.846665,46.494008],[4.846637,46.494202],[4.846618,46.494332],[4.846598,46.494609],[4.846565,46.494776],[4.846535,46.494914],[4.84651,46.495031],[4.846476,46.495185],[4.846364,46.49535],[4.846253,46.495506],[4.846243,46.495519],[4.846099,46.495478],[4.846094,46.495491],[4.845973,46.495716],[4.845909,46.495811],[4.845825,46.495921],[4.845787,46.495971],[4.84568,46.496111],[4.845438,46.49642],[4.845374,46.496501],[4.845208,46.496669],[4.844956,46.496924],[4.844839,46.496805],[4.844755,46.496824],[4.844672,46.496841],[4.844389,46.496903],[4.844119,46.496963],[4.843913,46.497011],[4.843603,46.497085],[4.843443,46.497124],[4.843278,46.497164],[4.843095,46.49723],[4.842358,46.497517],[4.842102,46.497622],[4.841594,46.497773],[4.841444,46.497817],[4.841292,46.497861],[4.840798,46.498012],[4.84061,46.498073],[4.840549,46.498093],[4.840267,46.498185],[4.840452,46.498504],[4.840285,46.498651],[4.840184,46.498702],[4.839869,46.498863],[4.839979,46.49905],[4.840758,46.498968],[4.841033,46.49894],[4.841094,46.499039],[4.841326,46.498982],[4.84139,46.498967],[4.841588,46.498918],[4.841861,46.498847],[4.841994,46.498812],[4.842122,46.498778],[4.843178,46.498501],[4.843351,46.498461],[4.843512,46.498439],[4.843695,46.498379],[4.843893,46.498315],[4.84409,46.498251],[4.844292,46.498182],[4.844676,46.498048],[4.844889,46.497972],[4.8452,46.497865],[4.846081,46.498896],[4.845813,46.499228],[4.845638,46.49937],[4.845466,46.499531],[4.844852,46.50019],[4.844176,46.500626],[4.843841,46.500822],[4.84374,46.500896],[4.843706,46.500936],[4.84363,46.501053],[4.843637,46.501109],[4.843839,46.501541],[4.843966,46.501722],[4.844396,46.502226],[4.844755,46.502665],[4.844826,46.50257],[4.844892,46.502511],[4.844989,46.50245],[4.845074,46.502415],[4.845331,46.50234],[4.845339,46.50235],[4.84563,46.50223],[4.845735,46.502187],[4.84589,46.502125],[4.84588,46.502098],[4.846273,46.501957],[4.847452,46.501468],[4.847483,46.501456],[4.847492,46.501467],[4.847733,46.501887],[4.847861,46.502164],[4.847992,46.502162],[4.84806,46.502421],[4.848185,46.502407],[4.848299,46.5024],[4.84851,46.502398],[4.848666,46.502396],[4.848772,46.502379],[4.848847,46.502362],[4.848941,46.50234],[4.849179,46.502253],[4.849187,46.501832],[4.849108,46.501397],[4.848739,46.501413],[4.84871,46.501217],[4.848655,46.500847],[4.848026,46.500837],[4.848012,46.500755],[4.848011,46.500741],[4.84818,46.500676],[4.848265,46.500629],[4.848535,46.500407],[4.848556,46.500407],[4.84979,46.5004],[4.849835,46.500036],[4.8505,46.499989],[4.850512,46.499916],[4.850523,46.499798],[4.850526,46.499703],[4.850519,46.499599],[4.85043,46.499319],[4.850401,46.499156],[4.850398,46.499138],[4.851002,46.499084],[4.851199,46.499068],[4.851289,46.499049],[4.851348,46.499054],[4.851756,46.499086],[4.851909,46.499086],[4.852193,46.499073],[4.852323,46.499077],[4.852429,46.499082],[4.852494,46.499078],[4.852611,46.499059],[4.852707,46.499042],[4.852858,46.499021],[4.852933,46.499011],[4.853173,46.498987],[4.853329,46.498981],[4.853464,46.498986],[4.853505,46.498991],[4.855502,46.499268],[4.855639,46.499299],[4.855817,46.499349],[4.856021,46.499409],[4.856115,46.499469],[4.856588,46.499606],[4.856984,46.499773],[4.857532,46.500004],[4.857574,46.50002],[4.85782,46.500144],[4.85811,46.500308],[4.858193,46.50034],[4.858724,46.500554],[4.859,46.500644],[4.859288,46.500643],[4.859443,46.500728],[4.859625,46.500799],[4.859893,46.500904],[4.859929,46.500912],[4.860189,46.50093],[4.86021,46.500917],[4.860483,46.500989],[4.861021,46.501266],[4.861091,46.501303],[4.861434,46.501747],[4.861582,46.501983],[4.861671,46.50218],[4.862322,46.502107],[4.862416,46.502094],[4.862572,46.502064],[4.862925,46.501916],[4.862983,46.501935],[4.863115,46.502007],[4.863266,46.502033],[4.863711,46.502044],[4.863896,46.50206],[4.864261,46.502134],[4.864526,46.502221],[4.864865,46.502297],[4.865256,46.502421],[4.866842,46.502735],[4.867763,46.502981],[4.86798,46.50302],[4.868345,46.503087],[4.868688,46.503113],[4.868945,46.503111],[4.86963,46.503048],[4.870026,46.503076],[4.870305,46.503017],[4.870502,46.503145],[4.870447,46.503201],[4.870544,46.503258],[4.870822,46.503388],[4.870694,46.503546],[4.87042,46.503696],[4.87027,46.503795],[4.870512,46.50444],[4.870709,46.504827],[4.870833,46.50504],[4.870902,46.505125],[4.870961,46.505199],[4.871131,46.505253],[4.871158,46.505263],[4.87156,46.505337],[4.871903,46.505646],[4.871898,46.505702],[4.871582,46.505829],[4.871018,46.506087],[4.870914,46.506143],[4.87007,46.506852],[4.870505,46.507033],[4.870798,46.507191],[4.870842,46.507214],[4.870491,46.507435],[4.870492,46.507473],[4.870495,46.507533],[4.870717,46.507521],[4.870645,46.50797],[4.870549,46.508182],[4.870596,46.508251],[4.870615,46.508592],[4.870685,46.508704],[4.870691,46.509067],[4.870741,46.509078],[4.870788,46.509282],[4.870823,46.509409],[4.870845,46.509445],[4.870993,46.509598],[4.871114,46.509809],[4.871326,46.510466],[4.871432,46.510722],[4.87144,46.510774],[4.871438,46.510814],[4.871387,46.51102],[4.871353,46.511187],[4.871357,46.511352],[4.871368,46.511491],[4.871406,46.511609],[4.871526,46.511977],[4.871604,46.512182],[4.871694,46.512369],[4.871862,46.512612],[4.871999,46.512881],[4.872094,46.513117],[4.872172,46.513312],[4.872199,46.513448],[4.872515,46.513893],[4.872596,46.513993],[4.872704,46.514084],[4.872799,46.514131],[4.872983,46.514234],[4.873255,46.514403],[4.873368,46.514409],[4.873424,46.514417],[4.873482,46.514454],[4.873532,46.514497],[4.873487,46.51452],[4.873555,46.514566],[4.873685,46.514616],[4.873764,46.514659],[4.873938,46.514531],[4.874092,46.514427],[4.874142,46.514461],[4.874171,46.51453],[4.874491,46.514676],[4.874558,46.514717],[4.874629,46.514772],[4.874754,46.514971],[4.874673,46.515012],[4.874683,46.515031],[4.874469,46.515083],[4.873847,46.515317],[4.873699,46.515359],[4.873434,46.515411],[4.873148,46.515488],[4.872929,46.515681],[4.872771,46.515891],[4.872681,46.515929],[4.872292,46.515995],[4.872014,46.516083],[4.871753,46.516239],[4.871776,46.516259],[4.872083,46.516507],[4.872201,46.516608],[4.872299,46.516711],[4.872382,46.516872],[4.872528,46.517175],[4.87205,46.517243],[4.871957,46.517267],[4.871726,46.517358],[4.871758,46.517471],[4.871764,46.517517],[4.871762,46.517559],[4.871745,46.517613],[4.871845,46.517856],[4.871909,46.517996],[4.871999,46.518126],[4.87241,46.517982],[4.872701,46.518398],[4.872717,46.518394],[4.872936,46.518729],[4.873255,46.518642],[4.873409,46.518587],[4.873546,46.518786],[4.873372,46.518857],[4.873562,46.519078],[4.873652,46.519199],[4.873784,46.519397],[4.873504,46.519501],[4.873875,46.520088],[4.873981,46.520246],[4.874197,46.520503],[4.874366,46.520463],[4.874398,46.520513],[4.874427,46.520558],[4.874479,46.520544],[4.875415,46.520265],[4.875377,46.520223],[4.875247,46.520075],[4.875596,46.519984],[4.875404,46.519627],[4.875215,46.519277],[4.875074,46.519096],[4.875319,46.519057],[4.875657,46.518969],[4.876229,46.519771],[4.876381,46.519788],[4.876412,46.519858],[4.876843,46.519697],[4.876882,46.51988],[4.877048,46.519861],[4.87717,46.519838],[4.877365,46.519818],[4.877656,46.51981],[4.877652,46.519794],[4.878056,46.519793],[4.878678,46.519705],[4.87936,46.51962],[4.879352,46.519604],[4.878863,46.518625],[4.87938,46.518409],[4.879062,46.51805],[4.879538,46.517833],[4.879304,46.517612],[4.879955,46.517354],[4.879871,46.517252],[4.880174,46.517144],[4.88037,46.517104],[4.881144,46.518059],[4.881176,46.518102],[4.88187,46.518693],[4.882133,46.518825],[4.882292,46.518944],[4.882384,46.519004],[4.882569,46.519279],[4.88276,46.519929],[4.883179,46.521198],[4.883296,46.521412],[4.883689,46.522063],[4.884426,46.523155],[4.884776,46.522845],[4.88492,46.52268],[4.885009,46.522544],[4.885054,46.522409],[4.885068,46.522134],[4.885117,46.521988],[4.885442,46.521296],[4.885563,46.520563],[4.885604,46.520397],[4.885675,46.520245],[4.886083,46.519811],[4.886252,46.519671],[4.886435,46.519472],[4.886535,46.519399],[4.886696,46.519311],[4.886676,46.519277],[4.886573,46.519119],[4.886617,46.51911],[4.886508,46.518898],[4.886492,46.518883],[4.886446,46.518861],[4.886431,46.518848],[4.886414,46.518816],[4.8864,46.51875],[4.886325,46.518566],[4.886384,46.518562],[4.886471,46.518746],[4.886498,46.518758],[4.886522,46.518765],[4.88655,46.518769],[4.886573,46.518768],[4.886592,46.518764],[4.886658,46.518741],[4.886744,46.518703],[4.88713,46.518499],[4.887194,46.518476],[4.887093,46.518305],[4.887083,46.518258],[4.88698,46.518032],[4.887125,46.51803],[4.887165,46.518023],[4.887233,46.517997],[4.887291,46.517961],[4.887334,46.517924],[4.887238,46.517783],[4.887165,46.517673],[4.888371,46.517287],[4.888403,46.51728],[4.888543,46.517476],[4.888557,46.517493],[4.889244,46.517056],[4.889594,46.516874],[4.889824,46.516731],[4.890381,46.516321],[4.890955,46.516019],[4.891007,46.515984],[4.891033,46.515939],[4.891035,46.5159],[4.89097,46.5158],[4.890777,46.515628],[4.890738,46.515567],[4.890679,46.515442],[4.890695,46.515352],[4.890778,46.515265],[4.890905,46.515198],[4.891255,46.515076],[4.891375,46.514987],[4.891578,46.514759],[4.891661,46.514509],[4.89167,46.51424],[4.891649,46.513912],[4.891589,46.513351],[4.891422,46.512817],[4.891393,46.512679],[4.891387,46.512502],[4.891456,46.512249],[4.891826,46.511245],[4.892027,46.510945],[4.892154,46.510725],[4.891988,46.51057],[4.892017,46.510534],[4.893283,46.509221],[4.893503,46.508941],[4.89354,46.508901],[4.892833,46.508291],[4.893384,46.508091],[4.8944,46.507682],[4.894593,46.507793],[4.895296,46.507521],[4.895999,46.5073],[4.896447,46.507164],[4.897094,46.507143],[4.897382,46.50707],[4.897499,46.507046],[4.898602,46.506622],[4.900409,46.506082],[4.900423,46.5061],[4.900785,46.506072],[4.901259,46.5061],[4.901409,46.506103],[4.901649,46.506084],[4.901711,46.506075],[4.90249,46.505904],[4.902558,46.505872],[4.903486,46.505978],[4.903997,46.505911],[4.906065,46.505461],[4.906351,46.505442],[4.90644,46.505436],[4.906544,46.505429],[4.906615,46.505402],[4.906705,46.505368],[4.906871,46.505306],[4.906922,46.505287],[4.907424,46.505099],[4.908034,46.504902],[4.909572,46.504271],[4.910041,46.504106],[4.911569,46.503577],[4.913412,46.50269],[4.913658,46.502931],[4.913825,46.502854],[4.913924,46.502812],[4.914004,46.502834],[4.914072,46.50281],[4.914086,46.502805],[4.914116,46.502721],[4.914163,46.502678],[4.91424,46.502576],[4.914371,46.502511],[4.914489,46.502493],[4.914521,46.502477],[4.914571,46.502417],[4.914653,46.502396],[4.914754,46.502338],[4.914893,46.502309],[4.914999,46.502234],[4.915078,46.502201],[4.915145,46.502134],[4.915347,46.501976],[4.915388,46.501866],[4.915501,46.501812],[4.915684,46.501744],[4.915721,46.501729],[4.915811,46.501688],[4.915832,46.501681],[4.915848,46.501675],[4.915919,46.501642],[4.915942,46.501633],[4.915951,46.501607],[4.916227,46.501511],[4.916873,46.501279],[4.916901,46.501315],[4.917037,46.501253],[4.918505,46.500615],[4.921411,46.499366],[4.921259,46.499158],[4.921113,46.498952],[4.921088,46.498916],[4.921082,46.498909],[4.921165,46.498852],[4.921325,46.498809],[4.9214,46.498762],[4.921477,46.498743],[4.921662,46.498646],[4.921742,46.498638],[4.921842,46.498597],[4.921978,46.498599],[4.922018,46.49859],[4.922051,46.498567],[4.922092,46.498518],[4.922132,46.498481],[4.922164,46.498428],[4.923671,46.498702],[4.923837,46.49874],[4.923925,46.498775],[4.924017,46.498835],[4.924656,46.499257],[4.924932,46.499384],[4.925443,46.499698],[4.925637,46.499633],[4.925746,46.499596],[4.926982,46.499198],[4.92606,46.497454],[4.925441,46.496504],[4.925219,46.496309],[4.924455,46.495675],[4.924159,46.495516],[4.923197,46.49501],[4.921711,46.49423],[4.920937,46.493786],[4.920027,46.493245],[4.919706,46.493016],[4.919647,46.49297],[4.918769,46.492212],[4.917959,46.491365],[4.917431,46.491618],[4.916562,46.490721],[4.916078,46.490114],[4.915611,46.489477],[4.91472,46.488257],[4.914608,46.487827],[4.914432,46.487384],[4.914385,46.48725],[4.914509,46.480376],[4.912646,46.480638]]]]}}]}
