{"type":"FeatureCollection","features":[{"type":"Feature","id":"mazis-chambertin-plot-les-mazis-bas","properties":{"id":"mazis-chambertin-plot-les-mazis-bas","name":"Les Mazis-Bas","kind":"named_plot","tier":"grand_cru","appellationId":201,"denominationId":null,"parentFeatureId":"inao-denom-808","parentAppellation":"Mazis-Chambertin","sourceName":"LES MAZIS-BAS","communes":["21295"],"areaHa":4.566142,"matchId":"","atlasUrl":null,"bounds":[4.966098236665469,47.21806774148466,4.96953803491742,47.2220318046556],"labelPoint":[4.968559800435347,47.220052481141735]},"geometry":{"type":"MultiPolygon","coordinates":[[[[4.9661862,47.2220309],[4.9679896,47.2218468],[4.9681185,47.2218335],[4.9686117,47.2217845],[4.968636,47.2218492],[4.9691006,47.2217997],[4.9691772,47.2217907],[4.96953803491742,47.22173410423418],[4.9694541392907725,47.22157856234569],[4.96940367786687,47.221470093398686],[4.969329757644159,47.221294581040766],[4.969303497715614,47.221191833480994],[4.9692872058071105,47.221115473685195],[4.969270577503242,47.221029925003045],[4.969247278960065,47.220926100472056],[4.969236413495895,47.220875197006286],[4.969228597199811,47.220825259341204],[4.969218589220554,47.220756978725205],[4.969208471474135,47.22072649599367],[4.969134376452713,47.22050500444945],[4.969112798015132,47.22044815027919],[4.969094255863185,47.220392271134436],[4.969018805415574,47.22017489102699],[4.968985205829758,47.220076347573325],[4.968968469026483,47.22002861471015],[4.968918007356858,47.21987926962533],[4.968880613859993,47.21980020643191],[4.968737425332758,47.21949406627116],[4.968703268206582,47.21942107176317],[4.9684576610481885,47.21889800901317],[4.96844001499728,47.21882576956417],[4.968408743340595,47.218708797167075],[4.968381963083212,47.218591748461506],[4.968360397162699,47.21849401800152],[4.968338978935825,47.21835950660151],[4.968320522158368,47.218223927265775],[4.968316477271612,47.21819538552988],[4.968301641246275,47.21807711627246],[4.968286437425246,47.218071241796665],[4.968269839702304,47.21806845286377],[4.968251811189506,47.21806774148466],[4.96824881263985,47.218067792419255],[4.967853574462867,47.218168504728226],[4.967825631196093,47.21818328900798],[4.967805238905622,47.21819998028697],[4.967789388580094,47.21821762105455],[4.967777930741459,47.21823212535878],[4.967762180605035,47.21829369319902],[4.967653645492985,47.218565286715375],[4.967636204250745,47.21866265304137],[4.967683251734588,47.21880081780405],[4.967738585387777,47.218919426000745],[4.967757684220408,47.21894974734129],[4.967810092820544,47.21902958252052],[4.9679125483184166,47.21924752239469],[4.967958588072625,47.219358111339176],[4.968001666928311,47.21946977717664],[4.968021564373456,47.2195215539882],[4.968048118032579,47.21959159794237],[4.968125882272114,47.219913159830156],[4.968134481864236,47.21998453532817],[4.968151633108564,47.22012525189231],[4.968152195723407,47.2201814455628],[4.968151577201694,47.22028772077762],[4.968118942985574,47.220338336542824],[4.968087278482906,47.220374635119725],[4.968019555018702,47.22040950186118],[4.968028579067925,47.22049211799114],[4.967915116829932,47.220506301407745],[4.967726788851977,47.22052380928922],[4.967655892803413,47.22055362357501],[4.967556926603001,47.220595153279774],[4.967500786419792,47.22061858418463],[4.967443750968479,47.22065837520856],[4.967402305560145,47.2206733885949],[4.967337331801926,47.2207010578835],[4.9672754314009895,47.22073071920133],[4.967215098400056,47.2207623981193],[4.967156295270129,47.220795068652144],[4.967135765552038,47.220807673621565],[4.96690046820614,47.220976179840655],[4.966816257640441,47.22105219254845],[4.9667742523390945,47.22109275473553],[4.966559258219634,47.221242517414694],[4.966396995016472,47.221357668371056],[4.966363972161421,47.22139807796865],[4.966243365959005,47.22154522067761],[4.966218890998716,47.221573219731305],[4.966195959499622,47.22160221921435],[4.966177556673881,47.22163215947101],[4.966164890429935,47.221654861049885],[4.966164504642346,47.221726389062844],[4.966161692433045,47.22173154288137],[4.966142468923044,47.221779895235365],[4.966098371139531,47.22192777484177],[4.966099043279397,47.22194616161721],[4.966176636497941,47.2220318046556],[4.9661862,47.2220309]]],[[[4.9680854,47.2202837],[4.9680798,47.2202874],[4.9680368,47.2203135],[4.9679914,47.2203379],[4.9675145,47.2205584],[4.9674384,47.220594],[4.9671093,47.2207673],[4.9665745,47.2211546],[4.9665787,47.221162],[4.9663448,47.2213181],[4.9661029,47.2215917],[4.966098236665469,47.22159924612315],[4.966103024710629,47.22160379605187],[4.966344984392954,47.22132994055265],[4.966579240465684,47.22117371867021],[4.966574474491294,47.221166649205394],[4.9671092377698205,47.22077952255075],[4.967438847447883,47.22060635275375],[4.967515516864232,47.22057030784473],[4.967991868479898,47.2203496893745],[4.968037482196373,47.22032541938173],[4.968080008902872,47.220299148550374],[4.968085894282806,47.220295986727244],[4.968096476652812,47.22013436568562],[4.968096123702134,47.220131592751315],[4.9680854,47.2202837]]]]}},{"type":"Feature","id":"mazis-chambertin-plot-les-mazis-hauts","properties":{"id":"mazis-chambertin-plot-les-mazis-hauts","name":"Les Mazis-Hauts","kind":"named_plot","tier":"grand_cru","appellationId":201,"denominationId":null,"parentFeatureId":"inao-denom-808","parentAppellation":"Mazis-Chambertin","sourceName":"LES MAZIS-HAUTS","communes":["21295"],"areaHa":4.50796,"matchId":"","atlasUrl":null,"bounds":[4.964407064911543,47.21891936728001,4.968096123702134,47.22159924612315],"labelPoint":[4.966862538011663,47.22026938375799]},"geometry":{"type":"Polygon","coordinates":[[[4.9646856,47.2201776],[4.9650542,47.2201475],[4.9651028,47.2201505],[4.9651325,47.2201419],[4.9652024,47.2200841],[4.965237,47.2200633],[4.9653876,47.2201731],[4.9654475,47.2201747],[4.9655617,47.2201445],[4.965567306352567,47.22015545516951],[4.965576066387348,47.22015262404381],[4.965591195662315,47.22019732275021],[4.965619700559382,47.22023873270225],[4.96562029752393,47.22025506751597],[4.965719102468678,47.220332072295186],[4.965707630082561,47.22034656760699],[4.965714075433066,47.22035872372862],[4.965773823103681,47.22047521362344],[4.965775539845454,47.2204813172295],[4.965794950034075,47.22047894370502],[4.9658045302036085,47.220576868828545],[4.965811111710739,47.22067484481904],[4.965811447888166,47.22068404271202],[4.965675637245814,47.22078443422852],[4.965667238120092,47.22080092164201],[4.965660382443447,47.22081840949704],[4.965657980720438,47.220834795174376],[4.965658167544765,47.22083990711486],[4.965698667573244,47.22092198041158],[4.96574649569309,47.22099984990132],[4.96587349628355,47.2212327022688],[4.966023491618074,47.22152034090125],[4.9660502060614915,47.22155360415085],[4.966098236665469,47.22159924612315],[4.9661029,47.2215917],[4.9663448,47.2213181],[4.9665787,47.221162],[4.9665745,47.2211546],[4.9671093,47.2207673],[4.9674384,47.220594],[4.9675145,47.2205584],[4.9679914,47.2203379],[4.9680368,47.2203135],[4.9680798,47.2202874],[4.9680854,47.2202837],[4.968096123702134,47.220131592751315],[4.9680670173764065,47.21990292077559],[4.96804866152842,47.21981127752828],[4.967998398908464,47.219585292014564],[4.967890180726635,47.21933270692952],[4.967783370124127,47.21911892949123],[4.9677367719988235,47.21903388951942],[4.967694628110222,47.21894775626971],[4.967681587708146,47.21891936728001],[4.967302877541985,47.21897995661772],[4.9667099879685,47.21904825960924],[4.96662189809703,47.219058949306394],[4.966538262313437,47.219068545724696],[4.966178399218844,47.21911143090368],[4.965763627979436,47.21917058279618],[4.965635934677478,47.21920544788962],[4.965607715579199,47.2192130769315],[4.965548539878728,47.21923553178082],[4.965278831328038,47.21928302656883],[4.965075438699176,47.21929873246041],[4.964955869495696,47.21930996372453],[4.964723174957806,47.219344555064346],[4.964542750209628,47.2193731626623],[4.964478685861117,47.21938447000635],[4.964474814370492,47.21944277405638],[4.9644679442383515,47.21950112894175],[4.96445803831097,47.21955851767283],[4.964445184076518,47.21961697400304],[4.964438426703216,47.21963752198475],[4.964420732581451,47.219686874775526],[4.964409795497742,47.219715670583874],[4.964407064911543,47.2198873702284],[4.964416993405028,47.21991275044461],[4.964447138158227,47.21999908819904],[4.964481676540705,47.22004141375052],[4.964578749658624,47.22011231610615],[4.96466430822898,47.220174099141495],[4.9646856,47.2201776]]]}}]}
