{"type":"FeatureCollection","features":[{"type":"Feature","id":"musigny-plot-les-musigny","properties":{"id":"musigny-plot-les-musigny","name":"Les Musigny","kind":"named_plot","tier":"grand_cru","appellationId":211,"denominationId":null,"parentFeatureId":"inao-denom-973","parentAppellation":"Musigny","sourceName":"LES MUSIGNY","communes":["21133"],"areaHa":5.894061,"matchId":"","atlasUrl":null,"bounds":[4.953096066459618,47.17651080831998,4.956612517584795,47.1802076],"labelPoint":[4.954562128129334,47.17860179143469]},"geometry":{"type":"MultiPolygon","coordinates":[[[[4.9531962,47.1794893],[4.9532273,47.1795957],[4.9532584,47.179674],[4.953293,47.1797574],[4.9533007,47.1797954],[4.9534981,47.1797889],[4.9541363,47.1797798],[4.9545207,47.1797505],[4.9546799,47.1797291],[4.9547354,47.1798692],[4.9547843,47.1800039],[4.9548062,47.18011],[4.9548175,47.1801655],[4.9548257,47.1802046],[4.954838,47.1802076],[4.9552573,47.1801458],[4.9554699,47.1801127],[4.9555507,47.1801718],[4.9555546,47.1801747],[4.9558442,47.1801076],[4.9560003,47.1801538],[4.9561217,47.1801771],[4.9562537,47.1801811],[4.956604,47.180156],[4.956612517584795,47.18015573547873],[4.956588123339524,47.180122272862356],[4.956346611318581,47.17990973320863],[4.9563371395276254,47.17989660999769],[4.956310155073629,47.179855180920846],[4.9562990801438165,47.17983901388665],[4.956224389633022,47.17959811548179],[4.956237718417128,47.17959380175443],[4.956195502797003,47.179421832782076],[4.956133770793781,47.17916640548157],[4.956120709165024,47.17913699775126],[4.956097730499324,47.17908220869442],[4.956068326854409,47.1790152625587],[4.955958363056065,47.178793349259045],[4.955936015550203,47.17875592129386],[4.9558769293384275,47.17865576859022],[4.9557950799894055,47.17854781427915],[4.955747847658017,47.17848526675746],[4.955702194113346,47.17842472781397],[4.955673904384932,47.17838841779925],[4.9556282381327375,47.17832788804741],[4.9555858038690515,47.17827342749352],[4.955498177268561,47.17808894196047],[4.955418814584115,47.1779257771236],[4.955336506206066,47.17776367960895],[4.955317081663194,47.17772415789194],[4.955279861769601,47.177648148837115],[4.955244096593647,47.17757109757181],[4.955153966280593,47.17735906991215],[4.955140831094048,47.17732761003423],[4.955083631510101,47.177196770019215],[4.954944038210174,47.177025418157875],[4.954700334378791,47.1771644095484],[4.954594237359976,47.177214227516814],[4.954139476628269,47.17735984236181],[4.953857144923002,47.17742591716594],[4.953666263036106,47.177451616122504],[4.953254654959199,47.177423817092475],[4.95315153798631,47.17743168943022],[4.953096066459618,47.177472474899204],[4.953125372484544,47.17761912285606],[4.953121602731677,47.177680487485716],[4.953140229723487,47.17782220039717],[4.953164951222944,47.17800774875138],[4.9531790725006575,47.17806677630704],[4.9531913820101465,47.178116639719185],[4.9532384452756535,47.17829874024938],[4.953257512645255,47.17836994996174],[4.953275102664911,47.17848306957227],[4.953308537053892,47.17878494911511],[4.9533136922525385,47.17880326055672],[4.953329220521788,47.17885919344236],[4.9533778269309305,47.17904229448744],[4.9533899381329745,47.179087046040806],[4.953372187650877,47.17917624862412],[4.953334942733895,47.17926474443234],[4.953182149783922,47.179409652837606],[4.9531962,47.1794893]]],[[[4.9549176,47.1768714],[4.9549794,47.1769704],[4.9550107,47.1770068],[4.955001564024647,47.17700765049621],[4.955011249294361,47.17701917712872],[4.955067320246267,47.17707749616829],[4.955177454316422,47.17722175221273],[4.955221021045508,47.17726597244219],[4.955328584213083,47.17758704258323],[4.955352469066395,47.17763544310699],[4.9553551,47.1776309],[4.9553575851812415,47.17754695610028],[4.955313087826762,47.17736659516153],[4.955281254216681,47.1772741499829],[4.955277405006328,47.17725071938755],[4.9552697564094235,47.17720486598137],[4.955201143588164,47.17713143130605],[4.955188318780009,47.17710815227661],[4.955176993278635,47.177043971527425],[4.9551378244201825,47.17695573871392],[4.955131097956421,47.17689454219969],[4.955131213815453,47.176893051148454],[4.95513,47.1768827],[4.9551367753600735,47.17679721908729],[4.955129643322748,47.17677194655977],[4.955110640766413,47.17674366566667],[4.955095606278245,47.176700998866316],[4.955080595878638,47.17665935829503],[4.955023108020174,47.176603107455534],[4.95501454859639,47.176573623570796],[4.954922351124785,47.17651080831998],[4.9548987570189515,47.17656229544723],[4.954875676461378,47.17671084522131],[4.954874285502025,47.17672032983557],[4.9549176,47.1768714]]],[[[4.9557243,47.178349],[4.955777407023074,47.17834327367751],[4.9557161638537,47.17819049952376],[4.955657894821592,47.17811281086354],[4.9555222002099875,47.178007810090776],[4.9555789939893655,47.17812742676068],[4.955660611873873,47.178270119706326],[4.955718813423877,47.17835180020275],[4.9557243,47.178349]]]]}},{"type":"Feature","id":"musigny-plot-les-petits-musigny","properties":{"id":"musigny-plot-les-petits-musigny","name":"Les Petits Musigny","kind":"named_plot","tier":"grand_cru","appellationId":211,"denominationId":null,"parentFeatureId":"inao-denom-973","parentAppellation":"Musigny","sourceName":"LES PETITS MUSIGNY","communes":["21133"],"areaHa":4.193348,"matchId":"","atlasUrl":null,"bounds":[4.95209898620754,47.174769,4.9550107,47.17741867796671],"labelPoint":[4.953496446629341,47.17612981448689]},"geometry":{"type":"MultiPolygon","coordinates":[[[[4.9535404,47.174769],[4.9530232,47.1749097],[4.9524218,47.175254],[4.952419563699772,47.17525552542334],[4.952422636734643,47.17526655728227],[4.953022986177952,47.17492128848835],[4.953540857431636,47.17478073654172],[4.953546295740584,47.17477684008056],[4.9535404,47.174769]]],[[[4.9550107,47.1770068],[4.9549794,47.1769704],[4.9549176,47.1768714],[4.954874285502025,47.17672032983557],[4.954873273423733,47.17672723095182],[4.954917922674603,47.176883831859044],[4.954979927560887,47.17698190050947],[4.955001564024647,47.17700765049621],[4.9550107,47.1770068]]],[[[4.9525206,47.1767061],[4.952564,47.1767357],[4.952567156047648,47.176739244842146],[4.95257203398645,47.1767415403168],[4.952700212419525,47.17688753857432],[4.952734158555877,47.17691455918325],[4.952892361236307,47.17706208611643],[4.952962832970683,47.17714571209572],[4.953004549952836,47.177221636986836],[4.953085789334728,47.177354125703985],[4.953129215833391,47.1773533931556],[4.95322326040125,47.17738450598568],[4.953286600738081,47.17739569404406],[4.95362010877964,47.17741867796671],[4.953709934125804,47.177416135662114],[4.953818895602535,47.17740408466767],[4.954131325318927,47.17734159051723],[4.954566727768013,47.17719936439852],[4.954672923026697,47.1771526157041],[4.954925257922681,47.17700325728913],[4.954841982779073,47.17689737966162],[4.954810913401124,47.176784487755555],[4.954828216542109,47.17655939792028],[4.9549308133963885,47.176289956253534],[4.954881462054826,47.1762100723563],[4.954859352145792,47.17617877297833],[4.954788359732056,47.17608085599545],[4.95471595025338,47.17598500716497],[4.954651618438391,47.17590537608594],[4.954493496461782,47.175719008959184],[4.954400077678751,47.17562249696347],[4.954307450729005,47.17554742286472],[4.954016588250173,47.17533673813332],[4.953880274018343,47.175214383162654],[4.953630652847638,47.17494270901031],[4.953585560589976,47.17489748730063],[4.9535161935794,47.17488537449386],[4.9534725337906504,47.17487998735092],[4.9534277156537785,47.17488380544601],[4.953062358119944,47.174973757349676],[4.952648341141141,47.17520961789767],[4.952386847569421,47.175354010754035],[4.952246107033078,47.1754401720315],[4.95216040857508,47.175556060108065],[4.952099824127454,47.175662320962175],[4.95209898620754,47.17568073351436],[4.952142434606335,47.17592829411131],[4.952177561197546,47.17619438440599],[4.952227760413925,47.17629775968227],[4.952303078094402,47.17643239305569],[4.952369945306487,47.17651969673515],[4.9525206,47.1767061]]]]}}]}
