{"type":"FeatureCollection","features":[{"type":"Feature","id":"inao-denom-1059","properties":{"id":"inao-denom-1059","name":"Pouilly-Vinzelles","tier":"village","kind":"appellation","appellationId":218,"denominationId":1059,"sourceName":"Pouilly-Vinzelles","communes":["71583"],"areaHa":72.66},"geometry":{"type":"MultiPolygon","coordinates":[[[[4.7617494806730845,46.26885204924304],[4.762168741223837,46.268804127928824],[4.762124679946976,46.26892820614723],[4.762363159054247,46.26891280541829],[4.762497444212039,46.268525225923085],[4.763245434356111,46.26662667112789],[4.763156556502128,46.2666091329864],[4.7629788589382205,46.266575857002515],[4.762933716225522,46.26658556313951],[4.76292116399131,46.266558736451714],[4.762981593691307,46.26653978654613],[4.762931494429391,46.26639554930256],[4.762908609388764,46.26633015242113],[4.763266550585185,46.26627416930785],[4.763190599037156,46.26609340379388],[4.763176349345325,46.26609452520754],[4.762691517808172,46.26616238068539],[4.762333431875403,46.26621386072215],[4.762228833459873,46.26599030438633],[4.762126918924125,46.26576940852458],[4.762100343748742,46.265710373534574],[4.762015716072489,46.26554235143407],[4.761993035270938,46.2654832561412],[4.761762764809446,46.26551113912203],[4.761681390023714,46.26528271938826],[4.761508895067461,46.26528989227609],[4.761320794582244,46.265296405660074],[4.761315660324511,46.26529828650525],[4.761020990034609,46.26542353954424],[4.760530321870687,46.26563288638882],[4.760473786480663,46.26565177477145],[4.760469921268139,46.26565273524945],[4.760432654021079,46.26566502071148],[4.760431384912552,46.26566594103996],[4.760302708369609,46.26570305829669],[4.759342227986459,46.26596289761525],[4.7587945942865,46.26601639511288],[4.757880676987598,46.26610887273478],[4.757396587830436,46.26615958077473],[4.757283916151526,46.26616942644967],[4.757267070187108,46.26617058720007],[4.757264474055214,46.266170627276054],[4.757189359576123,46.266177190984564],[4.7572541514886035,46.26625365112985],[4.757371328678777,46.26634371376411],[4.757688710392147,46.2666423500048],[4.757789816145641,46.26805218762465],[4.7578664802520745,46.26833652609981],[4.757893821573761,46.26870268926178],[4.757887512040644,46.26882978554531],[4.758208152608235,46.268865365471264],[4.7582169849303675,46.268938185856214],[4.7584188750044385,46.26915844150982],[4.7602511245135615,46.26943096001936],[4.7602990776239125,46.26950857959611],[4.760388222862889,46.268766824357044],[4.761497185662131,46.26888207369754],[4.7617494806730845,46.26885204924304]]],[[[4.764354719297758,46.26856671104779],[4.764306115747532,46.268428756091446],[4.764128245623376,46.26794693451682],[4.764008559525563,46.26777945706751],[4.76374486684855,46.267415155436765],[4.763645408369246,46.26727078250612],[4.763578534017281,46.26704934497703],[4.763541333280894,46.266942737665325],[4.762929880498251,46.26900761146829],[4.763127434775999,46.26905228924451],[4.763212944041004,46.269086092282905],[4.763616578132781,46.268915912127305],[4.7645723992859095,46.26887317890844],[4.764510726635563,46.26873272449652],[4.764441185949826,46.26863022151902],[4.764398681315972,46.26856062548115],[4.764354719297758,46.26856671104779]]],[[[4.764714569169451,46.27046341761662],[4.764661814968704,46.270357952433955],[4.764632348353503,46.27028995577742],[4.764630208735803,46.270263868564676],[4.764631259672615,46.27017558341214],[4.764428775996673,46.27017962250952],[4.764440103863795,46.27012810689249],[4.764257085436948,46.270091312382284],[4.764292664954977,46.269986279493814],[4.7643052910627475,46.2699347437711],[4.764323943735558,46.26986870340608],[4.764387727203738,46.26987311910243],[4.764411303861335,46.26975836446324],[4.764077273608335,46.26975093112833],[4.764059099531754,46.269751212745795],[4.7640239625098895,46.269749055097634],[4.7639577279411585,46.26974918069174],[4.763911052608198,46.269751705302305],[4.763871027000121,46.26983969360403],[4.763832937469979,46.26994746734748],[4.763826939744817,46.26996287221515],[4.76380649525031,46.27001362830708],[4.763781605218383,46.270047339921994],[4.763719800514647,46.270144672605866],[4.763692865057963,46.27019552923411],[4.76364767513007,46.270284498151454],[4.763586768878635,46.27040973860876],[4.763541772816378,46.27062570350796],[4.763538014519188,46.270750959354444],[4.763529150497891,46.27087899639629],[4.763540905555011,46.27096167891913],[4.763571807584283,46.27099362550886],[4.76360605319897,46.27100840695017],[4.764512718600764,46.271091633934326],[4.765020779084756,46.27113870119278],[4.765062790663803,46.271031766937064],[4.764983108411217,46.27101769035164],[4.765027629254077,46.270908015097326],[4.765378870389654,46.27096561822849],[4.765459245765176,46.2708400748504],[4.765479029523242,46.270809144156],[4.765508792209774,46.27076544886573],[4.7649682571015575,46.27059729242707],[4.764845757281053,46.27054424863866],[4.764784909886382,46.270510064483766],[4.764714569169451,46.27046341761662]]],[[[4.763503025578307,46.269382433691575],[4.763345466958932,46.26924886820779],[4.7632259093944285,46.26916605398719],[4.763120232218926,46.26911094644967],[4.763029588419003,46.26907902426352],[4.762781663139367,46.26976919865643],[4.762873345207672,46.26979299865515],[4.762733496310897,46.27020948715545],[4.762633132252057,46.27019843128776],[4.76238796713433,46.27089396606795],[4.762016538269398,46.270854680257045],[4.761973604922888,46.27101386827886],[4.762490981610303,46.271068008211735],[4.762403001572372,46.27132066609008],[4.761352489285772,46.27140897981341],[4.760950929098047,46.27128098718806],[4.761005525173035,46.27116125007752],[4.761115498480909,46.270946082624995],[4.7609766175695265,46.27090860005292],[4.761096652388536,46.27064283767647],[4.761027386040261,46.27062949792241],[4.761062774309661,46.27055869577474],[4.761163457259696,46.27057965581775],[4.761228722069065,46.27042822896694],[4.761418458000273,46.2699875524095],[4.761419640303941,46.26998393130911],[4.760268990058382,46.26978465951741],[4.760198513674889,46.26977404009242],[4.76026308554598,46.26960100768426],[4.758417354411762,46.269272854048054],[4.758510331891692,46.269296637509896],[4.758432224048859,46.269452764606015],[4.7583994293830205,46.269523525842125],[4.758361473865864,46.2696357990312],[4.758350513340809,46.26965848584923],[4.758297306425201,46.269902496934996],[4.759835269156524,46.270433565102195],[4.759146292426906,46.27081890505401],[4.759235866530529,46.27081752091905],[4.760462466489566,46.273135880198126],[4.761532937015113,46.27318237168135],[4.762279500521026,46.27293123148692],[4.763076243016314,46.27278649276884],[4.76310713296255,46.272737376492266],[4.763301681508228,46.27248667041136],[4.763451921910219,46.27227177766654],[4.763514476727239,46.272157320232026],[4.7635319779001675,46.27209580138587],[4.763545316691128,46.27198570909172],[4.763559656881685,46.271826062657524],[4.763553857107709,46.27164601204509],[4.7635567967113355,46.2714550176245],[4.76353729692104,46.27129319327243],[4.763510784379434,46.271115264904154],[4.763498275398893,46.271009175797786],[4.7634565307129515,46.2710035175072],[4.763471098427755,46.27064931583931],[4.763487990227695,46.270568891673626],[4.763536024485967,46.27040692187645],[4.763619333978657,46.27021107960245],[4.763675344149622,46.270135453605434],[4.763767079678766,46.26995929612164],[4.76379239777863,46.26989855680222],[4.763800375836144,46.269823674889565],[4.763799759864051,46.269764238067516],[4.76377439208975,46.2697024826197],[4.76373309861474,46.26963016546903],[4.763595497047916,46.269471071455214],[4.763503025578307,46.269382433691575]]],[[[4.765821790231736,46.272536780513455],[4.764763015738179,46.27281259967982],[4.764277038827079,46.272927315248495],[4.76383179101133,46.27301617805796],[4.763389167203452,46.27310589916304],[4.763114355141084,46.273163296715296],[4.763116449020745,46.27326864642566],[4.763130388099563,46.27329815372816],[4.763341360849987,46.27379927949106],[4.763370276808825,46.273850171652214],[4.763392259994843,46.27384712906268],[4.763567400391283,46.273800281871864],[4.763770680613685,46.27382055113383],[4.763912006374897,46.27409487721993],[4.764059216672651,46.27402774584549],[4.76430462195559,46.27390414980667],[4.7643800579671955,46.27386695269963],[4.764689358293275,46.27371084101417],[4.765134383420466,46.27349407862045],[4.765173206464439,46.273449342283094],[4.7656551296479055,46.27324911905276],[4.765992237365558,46.273109685804876],[4.765941891852179,46.27295824796225],[4.765997483152087,46.27295018004373],[4.766268744985317,46.27290363898123],[4.766259358236051,46.27285424594984],[4.766230277435678,46.27271779026954],[4.766173472565702,46.27244665924612],[4.765821790231736,46.272536780513455]]],[[[4.76225734371576,46.27353414395421],[4.761394011582432,46.2737492609722],[4.761464229683332,46.273953534563596],[4.7605590206880395,46.274118853706],[4.760630525230206,46.274242044753876],[4.760827578947944,46.27479563074582],[4.759899642724753,46.27490094890527],[4.759497229801093,46.27515125843202],[4.759915584450072,46.27563927732203],[4.760147477723373,46.2755393176066],[4.760319248151034,46.27546820871443],[4.760221189572125,46.27524635088494],[4.760347182324939,46.275529024496336],[4.760411775823604,46.275760406670514],[4.760433388037548,46.27578619283845],[4.7605282837226826,46.27582885988591],[4.760603275415356,46.275898855675194],[4.761108234549113,46.275727118554364],[4.76165788269103,46.27557180101746],[4.76214810787956,46.275507470643],[4.762145192554294,46.27549760804636],[4.762323225670811,46.275459725120605],[4.762415455909602,46.27541956731742],[4.762493862673263,46.27535350307889],[4.7625054832659925,46.275310990211324],[4.76250660166909,46.2752650371126],[4.7624958556951125,46.27517333189116],[4.762490969470001,46.27510225209747],[4.762511301150237,46.275047895255696],[4.762720292655052,46.27484200190053],[4.7624778624438,46.27445304905765],[4.762535791440381,46.27443684035772],[4.762812337377187,46.2743523964164],[4.76293572355719,46.2743117557541],[4.7629103546505505,46.27425000014208],[4.762994074458619,46.27422798764129],[4.763018538361432,46.27422130390553],[4.763015246061253,46.274199738041226],[4.763044902964917,46.27419297388556],[4.76305330131874,46.27421175857443],[4.763432117272537,46.27411672233803],[4.763401699881711,46.274059548531625],[4.763442895925464,46.27404810203586],[4.763278471749642,46.273822771051584],[4.7631582051577634,46.27351659353102],[4.7630703568763675,46.27332970724248],[4.76225734371576,46.27353414395421]]],[[[4.762912742868358,46.274767866727906],[4.762745487698361,46.27489835603331],[4.762599467873079,46.275042927560925],[4.762578040898495,46.27510360628804],[4.762615837123705,46.2753092818529],[4.762664714103437,46.27533464551702],[4.763268205255971,46.27527846438701],[4.763674965941518,46.275244242413244],[4.763935600865942,46.27523029701627],[4.763616706054805,46.27432282602047],[4.763323906229634,46.27450750159123],[4.763037247855901,46.274681272851865],[4.762912742868358,46.274767866727906]]],[[[4.7700517413172845,46.265090724432014],[4.769833305637499,46.26492208622567],[4.769107902727838,46.26437672691231],[4.768889705462653,46.26421528890229],[4.768660718289301,46.264041408280974],[4.768455852656689,46.26389057078389],[4.768399166090982,46.26386443031376],[4.7675121813552686,46.26394485851759],[4.767507018377213,46.26394583938946],[4.767426861431034,46.26395699173608],[4.767335806897474,46.26399263222739],[4.767334537943714,46.26399355263297],[4.7671969001467325,46.2640344197677],[4.767133704324,46.26404801069925],[4.767026579411973,46.2640685884495],[4.766360472794052,46.264232946913666],[4.766312823698733,46.264245395435054],[4.765672411942902,46.264401244767974],[4.764865886091078,46.264601098350724],[4.764201006530476,46.26476362354052],[4.763908557756535,46.26483660900446],[4.762944817954981,46.26507491287825],[4.763130195780398,46.26518553032458],[4.763034633560502,46.26520232235713],[4.762852363366326,46.26522856343949],[4.76270387107732,46.265255181889195],[4.762907717774211,46.26541505235616],[4.762994931416354,46.26550197054403],[4.763067235449003,46.265609835750865],[4.763108438048392,46.265679452410744],[4.763172033018199,46.265799161579224],[4.763259383253371,46.26601127513872],[4.764150729767057,46.265903792015095],[4.764111389499936,46.265771097644084],[4.764183413242889,46.26591049112582],[4.7632622982742925,46.266021137716216],[4.763304197232593,46.266112360389876],[4.7635177110431774,46.26661254571927],[4.764183231429829,46.26650946138908],[4.764402895590189,46.26651506396302],[4.7644027731837175,46.26679338306933],[4.764387058564524,46.26682965475142],[4.764334011380744,46.266835881144964],[4.764121648491558,46.26685538495183],[4.764102264312229,46.26685838745249],[4.764028166044097,46.26657401290498],[4.763533236676672,46.26665103541815],[4.763738022951994,46.26720269563114],[4.764202180043644,46.26713785833879],[4.764722124658569,46.26707125362553],[4.7650971180553725,46.26702040468032],[4.765910290169373,46.266985275651024],[4.766027030442436,46.266980762543845],[4.766989654974021,46.26694871136937],[4.767131029557701,46.26694291404686],[4.767877415813299,46.26689079357005],[4.768254546253678,46.26686602138539],[4.769835808729101,46.26684775331089],[4.769782239766184,46.26663692062624],[4.769762978772884,46.266563362314805],[4.769681459192763,46.266251184529935],[4.7695682589846395,46.26580259211224],[4.76951571034921,46.265623268103134],[4.770686205385259,46.26551409603009],[4.770480758355716,46.26538578868496],[4.77009565329853,46.26512336768342],[4.7700517413172845,46.265090724432014]],[[4.764007538750238,46.265570949522996],[4.76405660358711,46.2655620828666],[4.764111389499936,46.265771097644084],[4.764007538750238,46.265570949522996]]],[[[4.768291290926323,46.2669582231212],[4.768251447229774,46.266930920203976],[4.766987823476009,46.26701268975156],[4.767007755034464,46.26750956873319],[4.767014127056125,46.267747255555875],[4.767021593861569,46.26797862045578],[4.76703050411136,46.26821446646303],[4.7670396748661785,46.268579109014745],[4.7683484507723275,46.268607424666115],[4.7683378175169855,46.268197769612904],[4.768326305430897,46.26796196403579],[4.768322698336901,46.26772963847683],[4.768312280983974,46.26748751095767],[4.768291290926323,46.2669582231212]]],[[[4.768361868349013,46.26737415269633],[4.768379826900417,46.26788997704465],[4.768399256429955,46.268290488431084],[4.768410876822094,46.26861005776941],[4.768609605443288,46.26861057335227],[4.769188112183578,46.26862770473825],[4.769546858746819,46.26863654020501],[4.769560641146563,46.268299462638254],[4.769569235474972,46.26808316005606],[4.7695724918503615,46.26786243692245],[4.769616772784081,46.267866252111304],[4.769621110149953,46.267799532579026],[4.769626233111533,46.26775711984671],[4.769637533080718,46.267624540673204],[4.769641433951865,46.26754431736024],[4.769651563400657,46.26745589088365],[4.769646039709447,46.26740553731499],[4.769642926370104,46.26730921036134],[4.769644354003371,46.267152465632634],[4.769634076397765,46.26691483948028],[4.768381313369967,46.26693070431128],[4.768343155998291,46.266955616057366],[4.768361868349013,46.26737415269633]]],[[[4.769046230061327,46.269341465716515],[4.769040513934595,46.269325341871706],[4.769025001958778,46.26924722167892],[4.769013337042934,46.269207771971374],[4.768996265225179,46.26912156967852],[4.768994385356002,46.269103584811994],[4.768983658812954,46.269012780398064],[4.768979171927778,46.26895430436591],[4.768965878274502,46.26886444054392],[4.768945578104196,46.26867831027359],[4.7683907278485025,46.26866981721225],[4.767659013573851,46.26865416008974],[4.767036574305546,46.268644007789206],[4.76695513882329,46.26889746875107],[4.766925482644758,46.26914562247346],[4.766958601716472,46.26940721311036],[4.7669772776660215,46.269583461093845],[4.767018282626587,46.269888163071386],[4.766964709808561,46.26987818614648],[4.766922610381911,46.26957980606419],[4.766867008558371,46.26914472861854],[4.766877288043508,46.26906080366523],[4.76690197371896,46.26890009532998],[4.766946421628895,46.268748087287946],[4.766986257884316,46.26861416487096],[4.766985589651844,46.26859345906416],[4.766972864277737,46.26819914847317],[4.76694789744244,46.267505994311016],[4.766929438821539,46.26701449668637],[4.766030274004344,46.267041059347406],[4.765979648752381,46.26704184471459],[4.765106938084622,46.267083301632674],[4.763794166669599,46.267252265114415],[4.763771816065057,46.2672841360048],[4.763921798577592,46.267505186411285],[4.764037618518042,46.26767362455531],[4.7642026365110315,46.26791785990063],[4.764324745941629,46.26824112118219],[4.7643603608673475,46.26833874581141],[4.764375597476988,46.26836823285721],[4.76448046287316,46.26855935793565],[4.764590949194687,46.26872337471444],[4.764745283862373,46.26903893045278],[4.764788891981902,46.26914273597133],[4.764795970677949,46.269201171919796],[4.764705016967176,46.269522331343424],[4.764697446421489,46.26960981686319],[4.764694655978114,46.2698053126133],[4.764704833244394,46.270080769888075],[4.764769915146291,46.27008516524743],[4.764832371727525,46.270088700565246],[4.7649739577952435,46.27008920769317],[4.765009356269718,46.270099467323654],[4.76511307155329,46.27013388741519],[4.765228557463947,46.27017082701224],[4.765816577897516,46.27036166392344],[4.765869056070112,46.27037796329233],[4.765850932503668,46.27062143421002],[4.765847809831786,46.270725964187804],[4.765841771405928,46.270820631657756],[4.7659575376583385,46.27094673578737],[4.766007643823351,46.270929745885155],[4.766023831749018,46.270948409534995],[4.766076679445497,46.27093588058924],[4.76614911591233,46.2709266505417],[4.766249598186543,46.27094130431923],[4.766248407435807,46.270904393968806],[4.766237850610368,46.270778459326245],[4.766225618116332,46.27064084153903],[4.766807506402161,46.270721882802725],[4.7667824618697,46.27083125655951],[4.766843882730732,46.27084291319104],[4.766763875725385,46.271181017821654],[4.766796446463333,46.27118411516959],[4.7667974831779185,46.27117599275237],[4.766805175950644,46.271132639615715],[4.766814292263241,46.27113339884049],[4.76681630758063,46.27111535350105],[4.766841031099066,46.271116771212576],[4.766855321738197,46.27103638684547],[4.766855399701287,46.27099855610214],[4.766873895187284,46.27088748256434],[4.766884194825729,46.27076392637621],[4.767331957174682,46.27079390505321],[4.7673195371391675,46.27085174287234],[4.76739760190023,46.27085593520271],[4.767393135743925,46.270878522120604],[4.7676331525595,46.27087029222067],[4.767870485748414,46.27085940137644],[4.767870195055212,46.27085039885604],[4.768002056337115,46.27083123778533],[4.768130168378623,46.27081663830736],[4.768282625777198,46.27079175280846],[4.768395188676701,46.27077829524608],[4.768584179580753,46.27079877773384],[4.768762348991304,46.270805917483486],[4.768755440357973,46.27075288330203],[4.7687931264267185,46.27035148463563],[4.7687938719870555,46.27033435968104],[4.768792803697503,46.27022088760806],[4.768712317916588,46.27022213808227],[4.768705258772259,46.26992321411509],[4.768902083209632,46.26990484406561],[4.769086358900191,46.26977948491876],[4.7691068965419205,46.26977196013833],[4.769128965040252,46.26977161719555],[4.769156818822272,46.269829730095545],[4.769159618748714,46.269835991511044],[4.76918854894383,46.269927413719415],[4.769206723052472,46.269927131283225],[4.769149648122041,46.26976859366653],[4.769132703153133,46.269726523911544],[4.769093482659825,46.269557801066064],[4.769046230061327,46.269341465716515]]],[[[4.765611965449282,46.27138713518999],[4.765550950680563,46.271388081430786],[4.765432902785434,46.27139261417893],[4.765151718688422,46.271413186825136],[4.765017482979202,46.271399055369635],[4.765009190352725,46.271182114587674],[4.764643269557913,46.27115265962142],[4.764156154205755,46.271110670333805],[4.763570232946243,46.27106570608825],[4.763621474157397,46.27144681009645],[4.763642669897923,46.271741912103735],[4.7636265455754225,46.27192680585555],[4.765367111695816,46.27188992159708],[4.765464476584837,46.27188841178011],[4.765633242379752,46.27188579456679],[4.765972014041984,46.271878738747674],[4.766332796889805,46.27186953901519],[4.7670767802524825,46.271861596601745],[4.767085792707046,46.2715372035734],[4.767087538027364,46.27134983021849],[4.766297419291954,46.2712963400885],[4.765947278509238,46.271272949387594],[4.765603657974364,46.27125035719751],[4.765611965449282,46.27138713518999]]],[[[4.76806453912873,46.273369350267366],[4.767973496436601,46.27316450304558],[4.767677461942922,46.27324836163103],[4.767477234131093,46.273322625794144],[4.767406645147739,46.273348941317536],[4.767378044758917,46.27354934138816],[4.767361254862909,46.27355230413509],[4.767414821269486,46.273763137812615],[4.767234026343382,46.27379566749676],[4.767196388174199,46.273595394945296],[4.767119045983446,46.27361370877777],[4.767123550928423,46.27363255361839],[4.76714027249834,46.27370795312928],[4.766664204701413,46.273767582150604],[4.766639307630713,46.273640068672876],[4.766611610852581,46.27350629371229],[4.766579865271264,46.27332754642431],[4.7663303318328305,46.27340347428973],[4.766166403105347,46.27311328901793],[4.765950827300798,46.273194994188486],[4.7657519826808254,46.27327193593826],[4.765603245990672,46.27333188762007],[4.765254198550664,46.273503930093234],[4.765081548804281,46.2735876701056],[4.7643337999804904,46.273963143996646],[4.764110087647994,46.274074694842426],[4.764166427219949,46.27421072859917],[4.764168015576274,46.27421971100932],[4.764232725213396,46.27437362908433],[4.764240949933275,46.274387012169385],[4.764255114726108,46.274383189865475],[4.764302193071188,46.274513962858215],[4.764337957103011,46.27461608869591],[4.7643229872129655,46.274635235422714],[4.7643344758264705,46.274669284073575],[4.763823720485243,46.27474114769313],[4.7639965329202445,46.275226650883546],[4.764011278111146,46.27524083366295],[4.764532874284378,46.2752633749935],[4.765134761008051,46.27527836428048],[4.76545967910761,46.2752841349245],[4.7655531261593795,46.27528178517407],[4.765670000292669,46.27528087344566],[4.765779055712096,46.27527918215556],[4.766016524544911,46.275271896189196],[4.766298134774215,46.27526392494404],[4.7664361879802986,46.27527529370074],[4.766757676217416,46.27529552510072],[4.76683735596916,46.275269068955545],[4.767156646788322,46.275020023171216],[4.767276989271736,46.27492538284738],[4.767583748780419,46.27465040992151],[4.767867049376491,46.274373098267894],[4.76802583252159,46.27422201660851],[4.768125108986904,46.27411869543202],[4.768214425042591,46.273988507757856],[4.768249854116064,46.27387897241583],[4.768249688274918,46.27379340818036],[4.76817535699426,46.27362342898526],[4.768151804091235,46.27357785890532],[4.768144266193765,46.273545550653395],[4.76806453912873,46.273369350267366]]],[[[4.769992705691218,46.27487508999139],[4.76993307885278,46.27479855643293],[4.769774371706697,46.27459025888898],[4.7697448495953445,46.27456099456772],[4.769595959130339,46.27437506178907],[4.769547919193151,46.27425511417706],[4.7696128027468765,46.27425320500734],[4.7695976959512825,46.27418768844947],[4.769578257955019,46.27410872865461],[4.7695523175841315,46.27398933825854],[4.7695894047371565,46.27373025988631],[4.769604012115998,46.2736597779603],[4.769411951692775,46.27342407655597],[4.769101481094823,46.27346312803444],[4.768820724038997,46.27349721350902],[4.768822080447128,46.27349899384241],[4.768264285518645,46.273561700720975],[4.768229436652525,46.27356854688838],[4.768313098615287,46.27378611840421],[4.7683050885331095,46.27394026307631],[4.768279948036664,46.274006404884254],[4.76818322059354,46.27414841685607],[4.768032111329134,46.27429577676524],[4.767893460544095,46.274426730350214],[4.767433343682331,46.27485990655521],[4.76737663634825,46.27491392832152],[4.767158884395543,46.27508934256305],[4.766894053596363,46.275295210173496],[4.768312558533697,46.27529750680768],[4.768379032444334,46.27530458069247],[4.768849601592975,46.27535581662218],[4.7691573337883435,46.275392467641694],[4.769157013766615,46.275382564877376],[4.769140743501733,46.275281038214025],[4.769111392403617,46.275136481041216],[4.769095500488331,46.275046657636345],[4.769718402562707,46.27510903342329],[4.7703060197504055,46.27516474883902],[4.770668221166437,46.275198747422266],[4.770642755776189,46.275134292785964],[4.770599517085814,46.27516288703328],[4.7701893671565365,46.27513233585112],[4.769992705691218,46.27487508999139]],[[4.768537297112993,46.274815742690656],[4.768416907265201,46.27482842112734],[4.768133226413113,46.27485264246537],[4.7684168781847855,46.2748275208758],[4.768537297112993,46.274815742690656]]]]}},{"type":"Feature","id":"inao-denom-2927","properties":{"id":"inao-denom-2927","name":"Pouilly-Vinzelles Premier Cru","tier":"premier_cru","kind":"appellation","appellationId":218,"denominationId":2927,"sourceName":"Pouilly-Vinzelles premier cru","communes":["71583"],"areaHa":22.7},"geometry":{"type":"MultiPolygon","coordinates":[[[[4.762944295841295,46.26507483089395],[4.76312981216594,46.2651857164068],[4.763034506655096,46.265202414392895],[4.762852230663784,46.26522847542429],[4.76270269704301,46.26525501992839],[4.762907729368152,46.26541541245768],[4.7629958400499515,46.265501956471724],[4.763067102745192,46.265609747735894],[4.763108715051803,46.26567998854207],[4.763172159924755,46.265799069543334],[4.763259265043753,46.26601163725081],[4.764150331648265,46.265903527974],[4.764111011685675,46.26577146378027],[4.764183266033514,46.26590995298545],[4.763263068413112,46.2660208555763],[4.763303807813887,46.266112366421936],[4.763518227373276,46.26661244765022],[4.764183101622684,46.26650946340076],[4.764402650480895,46.266515518113565],[4.76440339611361,46.26679256278169],[4.764386302925075,46.26683038702557],[4.764333486347286,46.26683570914174],[4.7641225600478805,46.26685546089585],[4.764101208445291,46.266857863393206],[4.764027788223739,46.26657437904087],[4.763533885714192,46.26665102536343],[4.763738680695851,46.26720295565128],[4.764202554966016,46.267137402177006],[4.7647217236269785,46.267070899561155],[4.76509645450292,46.26701996461739],[4.765911588251461,46.266985255514484],[4.766027543867818,46.26698057443814],[4.766990064735211,46.26694933550155],[4.767032128687892,46.266912654432275],[4.766999005759196,46.26646578909646],[4.766960928680382,46.26599819438389],[4.766933394190063,46.265652031003235],[4.766838288671833,46.265505881852384],[4.76682503147292,46.26548140833766],[4.7667751273086605,46.265347527692384],[4.76671621516077,46.26517595727879],[4.7665982930152575,46.264841824923806],[4.766521069048896,46.26462190060401],[4.766312555383272,46.264245129387376],[4.765673196561413,46.26440141273832],[4.764865372684017,46.26460128645126],[4.764200496020181,46.264763901663386],[4.763907894240093,46.264836168934515],[4.762944295841295,46.26507483089395]],[[4.7640067425188795,46.26557042143981],[4.764057122806724,46.26556207482046],[4.764111011685675,46.26577146378027],[4.7640067425188795,46.26557042143981]]],[[[4.768337151016668,46.26819723954371],[4.768327187936175,46.267961139693966],[4.768322034749937,46.26772919843276],[4.768313440545326,46.26748722273447],[4.768291311278244,46.266958853297794],[4.768252205726276,46.26693027792943],[4.76698783219184,46.26701295982734],[4.767007385943581,46.2675102049547],[4.767013463479461,46.267746815504175],[4.767022104387503,46.26797834232034],[4.7670308993554285,46.26821464046874],[4.767038769088006,46.26857921314458],[4.768349215106112,46.26860696244146],[4.768337151016668,46.26819723954371]]],[[[4.768750453645465,46.267844588160635],[4.768735685868503,46.267520113834124],[4.768728905887667,46.26739466104188],[4.76872827111704,46.26738305182305],[4.768717352616285,46.267382771113276],[4.768702620101001,46.266926703368945],[4.768382346018744,46.26693050812905],[4.76834302328274,46.26695552804857],[4.768362393400286,46.26737432468098],[4.768380623207673,46.267890505097164],[4.768399380425834,46.26829030636416],[4.768411661509309,46.2686102257208],[4.768610369774913,46.26861011112586],[4.768786264189637,46.26861539459475],[4.768775797211866,46.268291393890706],[4.768769949891338,46.26829130460158],[4.768760075356436,46.26807006500172],[4.7687491674705536,46.26790126242223],[4.768750453645465,46.267844588160635]]],[[[4.769128699592975,46.26977144117984],[4.769155915936429,46.26982992426739],[4.769158836950636,46.26983591359003],[4.769188303858953,46.269927867880085],[4.769206976864433,46.26992694719805],[4.7691492761318415,46.26976913986963],[4.769132287528847,46.26972571973689],[4.769092597231477,46.26955853538851],[4.769046218426188,46.26934110561576],[4.7690414022686465,46.269324697574824],[4.769025276129418,46.269247667770465],[4.769013091959825,46.2692082261317],[4.768996256499106,46.269121299602936],[4.768994140273201,46.26910403897228],[4.768984204242549,46.26901358255616],[4.76897877667218,46.268954130366986],[4.768966506976855,46.26886380028187],[4.76894531266281,46.26867813425743],[4.7683906067594055,46.268670089304365],[4.767659541541658,46.268654422102834],[4.76703734736725,46.268643815649085],[4.766955545693344,46.268898002858],[4.766925736460766,46.269145438393345],[4.766958344994006,46.26940730716531],[4.766978065268185,46.269583719080316],[4.767017893181438,46.269888169116136],[4.766964975249399,46.269878362167226],[4.766922988203649,46.2695794399188],[4.76686805578029,46.26914498257632],[4.766876266969979,46.26906135993473],[4.766903023841602,46.268900439312695],[4.766945648565401,46.268748279427456],[4.766986497170856,46.268613530664496],[4.766985465650576,46.26859364112953],[4.766972356654808,46.268199516633636],[4.766946856061965,46.26750592040445],[4.7669302234813475,46.26701466464798],[4.766031049950657,46.267040957239374],[4.76597846886284,46.26704150273702],[4.765106692978623,46.2670837557847],[4.763794432087518,46.2672524411426],[4.763772061183021,46.267283681855666],[4.763922205407715,46.26750572052913],[4.7640378839387845,46.267673800582926],[4.764202766321514,46.267917857888925],[4.764324636437134,46.26824175337128],[4.764359703106895,46.2683384857949],[4.764376232029427,46.26836777267111],[4.764481391865781,46.268559974028655],[4.764590311738507,46.26872374487641],[4.764744626091683,46.26903867043851],[4.764788508345358,46.269142922059046],[4.764796218697792,46.26920080779384],[4.764704869742966,46.26952179320393],[4.764697210005734,46.269610541090096],[4.764696991896854,46.269631981196504],[4.765714169872273,46.26973149923786],[4.766025500272543,46.26976801234015],[4.7659638471007995,46.269934337814426],[4.765816306650968,46.27036130784948],[4.7658678848202225,46.270377891389515],[4.765851581587821,46.2706214241421],[4.765917567134785,46.27062562469962],[4.7662266740765435,46.27064136557841],[4.766808671850282,46.27072177464541],[4.766782603307562,46.27083161464579],[4.7668437587239,46.27084309525623],[4.766764285515672,46.27118164195439],[4.766797089743612,46.27118392504581],[4.766797990829617,46.27117562459279],[4.766804411568571,46.27113310182989],[4.766813389347598,46.271133592993735],[4.76681590069546,46.27111481939376],[4.766842066737559,46.27111666506964],[4.76685426866962,46.27103595283717],[4.766855399701287,46.27099855610214],[4.766873237384283,46.270887222562415],[4.766885227552156,46.270763730207655],[4.767331550286872,46.2707933709477],[4.767319421851975,46.270852195013696],[4.767396675742003,46.27085540915885],[4.767393115400884,46.27087789194409],[4.767634087439885,46.27087108833825],[4.76786983375488,46.270859321430684],[4.76786994995527,46.27085085301383],[4.76800256107037,46.27083077959517],[4.768129525107288,46.27081682843868],[4.768282242140975,46.27079193890792],[4.768395953040393,46.27077783302122],[4.768585203577435,46.27079831147427],[4.768762369350076,46.27080654765976],[4.768756360710752,46.27075322928447],[4.768792480254727,46.27035158474553],[4.768793081457119,46.27033401168193],[4.768793712407912,46.270220873489485],[4.768712701547357,46.27022195198135],[4.7687046126051635,46.26992331422447],[4.768902714833255,46.269904293829164],[4.769086860705803,46.26977893669855],[4.769106501280016,46.26977178613986],[4.769128699592975,46.26977144117984]]],[[[4.762935864978887,46.27431211384504],[4.762910100797383,46.27425018421316],[4.76299318307477,46.27422854186537],[4.763018275811359,46.27422121790095],[4.763014472906994,46.27419993015393],[4.763045782750956,46.27419205955989],[4.763054224592817,46.274212194628156],[4.763432639473172,46.27411680431999],[4.763402357706339,46.27405980855353],[4.7634436719758995,46.274047999945545],[4.763277842923841,46.273823411281896],[4.763157299290535,46.273516697629915],[4.763070991497271,46.27332924706387],[4.76225734371576,46.27353414395421],[4.761394135613966,46.27374907891301],[4.761464215200512,46.2739530844369],[4.76055771953979,46.27411878375616],[4.76062950110139,46.274242510941725],[4.7608273337719265,46.27479608488828],[4.7608099919806754,46.27479806442146],[4.760829085697687,46.27480209249229],[4.760833763257675,46.27483444539727],[4.76083183901719,46.274835195718],[4.760716416340846,46.2748812051812],[4.760893556477515,46.27535268485866],[4.7608948779254305,46.27535338498207],[4.760856755230703,46.2753594688621],[4.761108222964822,46.27572675845304],[4.76165814814241,46.2755719770505],[4.762148240605882,46.275507558658944],[4.76214516937217,46.2754968878439],[4.762051078577874,46.2751685071404],[4.76186675833414,46.2751966692983],[4.76186631669943,46.27519505486971],[4.761867349527408,46.27519485874673],[4.7618296761430265,46.275065560564606],[4.761726295895556,46.274698683272376],[4.7617257244423605,46.27469707085205],[4.761723002797567,46.27468918679209],[4.7625333699207015,46.27443021265162],[4.762535393267334,46.27443657631121],[4.762812455607767,46.274352034305075],[4.762935864978887,46.27431211384504]]]]}},{"type":"Feature","id":"inao-denom-2928","properties":{"id":"inao-denom-2928","name":"Les Pétaux","tier":"premier_cru","kind":"vineyard","appellationId":218,"denominationId":2928,"sourceName":"Pouilly-Vinzelles premier cru Les Pétaux","communes":["71583"],"areaHa":2.78},"geometry":{"type":"Polygon","coordinates":[[[4.761723002797567,46.27468918679209],[4.7625333699207015,46.27443021265162],[4.762535393267334,46.27443657631121],[4.762812455607767,46.274352034305075],[4.762935864978887,46.27431211384504],[4.762910100797383,46.27425018421316],[4.76299318307477,46.27422854186537],[4.763018275811359,46.27422121790095],[4.763014472906994,46.27419993015393],[4.763045782750956,46.27419205955989],[4.763054224592817,46.274212194628156],[4.763432639473172,46.27411680431999],[4.763402357706339,46.27405980855353],[4.7634436719758995,46.274047999945545],[4.763277842923841,46.273823411281896],[4.763157299290535,46.273516697629915],[4.763070991497271,46.27332924706387],[4.76225734371576,46.27353414395421],[4.761394135613966,46.27374907891301],[4.761464215200512,46.2739530844369],[4.76055771953979,46.27411878375616],[4.76062950110139,46.274242510941725],[4.7608273337719265,46.27479608488828],[4.7608099919806754,46.27479806442146],[4.760829085697687,46.27480209249229],[4.760833763257675,46.27483444539727],[4.76083183901719,46.274835195718],[4.760716416340846,46.2748812051812],[4.760893556477515,46.27535268485866],[4.7608948779254305,46.27535338498207],[4.760856755230703,46.2753594688621],[4.761108222964822,46.27572675845304],[4.76165814814241,46.2755719770505],[4.762148240605882,46.275507558658944],[4.76214516937217,46.2754968878439],[4.762051078577874,46.2751685071404],[4.76186675833414,46.2751966692983],[4.76186631669943,46.27519505486971],[4.761867349527408,46.27519485874673],[4.7618296761430265,46.275065560564606],[4.761726295895556,46.274698683272376],[4.7617257244423605,46.27469707085205],[4.761723002797567,46.27468918679209]]]}},{"type":"Feature","id":"inao-denom-2929","properties":{"id":"inao-denom-2929","name":"Les Longeays","tier":"premier_cru","kind":"vineyard","appellationId":218,"denominationId":2929,"sourceName":"Pouilly-Vinzelles premier cru Les Longeays","communes":["71583"],"areaHa":7.36},"geometry":{"type":"Polygon","coordinates":[[[4.765673196561413,46.26440141273832],[4.764865372684017,46.26460128645126],[4.764200496020181,46.264763901663386],[4.763907894240093,46.264836168934515],[4.762944295841295,46.26507483089395],[4.76312981216594,46.2651857164068],[4.763034506655096,46.265202414392895],[4.762852230663784,46.26522847542429],[4.76270269704301,46.26525501992839],[4.762907729368152,46.26541541245768],[4.7629958400499515,46.265501956471724],[4.763067102745192,46.265609747735894],[4.763108715051803,46.26567998854207],[4.763172159924755,46.265799069543334],[4.763259265043753,46.26601163725081],[4.764150331648265,46.265903527974],[4.764111011685675,46.26577146378027],[4.764183266033514,46.26590995298545],[4.763263068413112,46.2660208555763],[4.763303807813887,46.266112366421936],[4.763518227373276,46.26661244765022],[4.764183101622684,46.26650946340076],[4.764402650480895,46.266515518113565],[4.76440339611361,46.26679256278169],[4.764386302925075,46.26683038702557],[4.764333486347286,46.26683570914174],[4.7641225600478805,46.26685546089585],[4.764101208445291,46.266857863393206],[4.764027788223739,46.26657437904087],[4.763533885714192,46.26665102536343],[4.763738680695851,46.26720295565128],[4.764202554966016,46.267137402177006],[4.7647217236269785,46.267070899561155],[4.76509645450292,46.26701996461739],[4.765911588251461,46.266985255514484],[4.766027543867818,46.26698057443814],[4.766990064735211,46.26694933550155],[4.767032128687892,46.266912654432275],[4.766999005759196,46.26646578909646],[4.766960928680382,46.26599819438389],[4.766933394190063,46.265652031003235],[4.766838288671833,46.265505881852384],[4.76682503147292,46.26548140833766],[4.7667751273086605,46.265347527692384],[4.76671621516077,46.26517595727879],[4.7665982930152575,46.264841824923806],[4.766521069048896,46.26462190060401],[4.766312555383272,46.264245129387376],[4.765673196561413,46.26440141273832]],[[4.764111011685675,46.26577146378027],[4.7640067425188795,46.26557042143981],[4.764057122806724,46.26556207482046],[4.764111011685675,46.26577146378027]]]}},{"type":"Feature","id":"inao-denom-2930","properties":{"id":"inao-denom-2930","name":"Les Quarts","tier":"premier_cru","kind":"vineyard","appellationId":218,"denominationId":2930,"sourceName":"Pouilly-Vinzelles premier cru Les Quarts","communes":["71583"],"areaHa":12.56},"geometry":{"type":"MultiPolygon","coordinates":[[[[4.7670308993554285,46.26821464046874],[4.767038769088006,46.26857921314458],[4.768349215106112,46.26860696244146],[4.768337151016668,46.26819723954371],[4.768327187936175,46.267961139693966],[4.768322034749937,46.26772919843276],[4.768313440545326,46.26748722273447],[4.768291311278244,46.266958853297794],[4.768252205726276,46.26693027792943],[4.76698783219184,46.26701295982734],[4.767007385943581,46.2675102049547],[4.767013463479461,46.267746815504175],[4.767022104387503,46.26797834232034],[4.7670308993554285,46.26821464046874]]],[[[4.768769949891338,46.26829130460158],[4.768760075356436,46.26807006500172],[4.7687491674705536,46.26790126242223],[4.768750453645465,46.267844588160635],[4.768735685868503,46.267520113834124],[4.768728905887667,46.26739466104188],[4.76872827111704,46.26738305182305],[4.768717352616285,46.267382771113276],[4.768702620101001,46.266926703368945],[4.768382346018744,46.26693050812905],[4.76834302328274,46.26695552804857],[4.768362393400286,46.26737432468098],[4.768380623207673,46.267890505097164],[4.768399380425834,46.26829030636416],[4.768411661509309,46.2686102257208],[4.768610369774913,46.26861011112586],[4.768786264189637,46.26861539459475],[4.768775797211866,46.268291393890706],[4.768769949891338,46.26829130460158]]],[[[4.7687046126051635,46.26992331422447],[4.768902714833255,46.269904293829164],[4.769086860705803,46.26977893669855],[4.769106501280016,46.26977178613986],[4.769128699592975,46.26977144117984],[4.769155915936429,46.26982992426739],[4.769158836950636,46.26983591359003],[4.769188303858953,46.269927867880085],[4.769206976864433,46.26992694719805],[4.7691492761318415,46.26976913986963],[4.769132287528847,46.26972571973689],[4.769092597231477,46.26955853538851],[4.769046218426188,46.26934110561576],[4.7690414022686465,46.269324697574824],[4.769025276129418,46.269247667770465],[4.769013091959825,46.2692082261317],[4.768996256499106,46.269121299602936],[4.768994140273201,46.26910403897228],[4.768984204242549,46.26901358255616],[4.76897877667218,46.268954130366986],[4.768966506976855,46.26886380028187],[4.76894531266281,46.26867813425743],[4.7683906067594055,46.268670089304365],[4.767659541541658,46.268654422102834],[4.76703734736725,46.268643815649085],[4.766955545693344,46.268898002858],[4.766925736460766,46.269145438393345],[4.766958344994006,46.26940730716531],[4.766978065268185,46.269583719080316],[4.767017893181438,46.269888169116136],[4.766964975249399,46.269878362167226],[4.766922988203649,46.2695794399188],[4.76686805578029,46.26914498257632],[4.766876266969979,46.26906135993473],[4.766903023841602,46.268900439312695],[4.766945648565401,46.268748279427456],[4.766986497170856,46.268613530664496],[4.766985465650576,46.26859364112953],[4.766972356654808,46.268199516633636],[4.766946856061965,46.26750592040445],[4.7669302234813475,46.26701466464798],[4.766031049950657,46.267040957239374],[4.76597846886284,46.26704150273702],[4.765106692978623,46.2670837557847],[4.763794432087518,46.2672524411426],[4.763772061183021,46.267283681855666],[4.763922205407715,46.26750572052913],[4.7640378839387845,46.267673800582926],[4.764202766321514,46.267917857888925],[4.764324636437134,46.26824175337128],[4.764359703106895,46.2683384857949],[4.764376232029427,46.26836777267111],[4.764481391865781,46.268559974028655],[4.764590311738507,46.26872374487641],[4.764744626091683,46.26903867043851],[4.764788508345358,46.269142922059046],[4.764796218697792,46.26920080779384],[4.764704869742966,46.26952179320393],[4.764697210005734,46.269610541090096],[4.764696991896854,46.269631981196504],[4.765714169872273,46.26973149923786],[4.766025500272543,46.26976801234015],[4.7659638471007995,46.269934337814426],[4.765816306650968,46.27036130784948],[4.7658678848202225,46.270377891389515],[4.765851581587821,46.2706214241421],[4.765917567134785,46.27062562469962],[4.7662266740765435,46.27064136557841],[4.766808671850282,46.27072177464541],[4.766782603307562,46.27083161464579],[4.7668437587239,46.27084309525623],[4.766764285515672,46.27118164195439],[4.766797089743612,46.27118392504581],[4.766797990829617,46.27117562459279],[4.766804411568571,46.27113310182989],[4.766813389347598,46.271133592993735],[4.76681590069546,46.27111481939376],[4.766842066737559,46.27111666506964],[4.76685426866962,46.27103595283717],[4.766855399701287,46.27099855610214],[4.766873237384283,46.270887222562415],[4.766885227552156,46.270763730207655],[4.767331550286872,46.2707933709477],[4.767319421851975,46.270852195013696],[4.767396675742003,46.27085540915885],[4.767393115400884,46.27087789194409],[4.767634087439885,46.27087108833825],[4.76786983375488,46.270859321430684],[4.76786994995527,46.27085085301383],[4.76800256107037,46.27083077959517],[4.768129525107288,46.27081682843868],[4.768282242140975,46.27079193890792],[4.768395953040393,46.27077783302122],[4.768585203577435,46.27079831147427],[4.768762369350076,46.27080654765976],[4.768756360710752,46.27075322928447],[4.768792480254727,46.27035158474553],[4.768793081457119,46.27033401168193],[4.768793712407912,46.270220873489485],[4.768712701547357,46.27022195198135],[4.7687046126051635,46.26992331422447]]]]}},{"type":"Feature","id":"commune-71583","properties":{"id":"commune-71583","name":"VINZELLES","kind":"commune","tier":"commune"},"geometry":{"type":"MultiPolygon","coordinates":[[[[4.7947111,46.2569251],[4.7960311,46.2568562],[4.7970187,46.2570174],[4.7970773,46.257028],[4.7971033,46.2570328],[4.7971871,46.257046],[4.7975666,46.2575252],[4.7977766,46.2577915],[4.7981562,46.2582671],[4.7984633,46.2586602],[4.7972395,46.2589551],[4.796663,46.2590909],[4.7965783,46.259117],[4.7965952,46.2591727],[4.7965788,46.2591748],[4.7956243,46.2592966],[4.7956066,46.2592446],[4.7955836,46.259185],[4.7954657,46.259199],[4.7951931,46.2592383],[4.7951297,46.2593636],[4.7947112,46.259426],[4.7948031,46.2598327],[4.7953614,46.2608956],[4.7947217,46.2610771],[4.7942331,46.2612088],[4.7936927,46.2612962],[4.7932214,46.2613454],[4.7926422,46.2614673],[4.792721,46.2616388],[4.7938926,46.264123],[4.7946777,46.2657663],[4.7950337,46.2664044],[4.7955645,46.2674532],[4.7956451,46.2676257],[4.7961647,46.2686944],[4.7963759,46.2691371],[4.7968643,46.2699278],[4.7969738,46.2701135],[4.7968433,46.2701274],[4.796546,46.270185],[4.7961666,46.2702686],[4.7963266,46.2705577],[4.7964482,46.2707724],[4.7966144,46.2710623],[4.7967464,46.2712904],[4.7968602,46.2714836],[4.7970648,46.2718479],[4.7971123,46.2719306],[4.7972607,46.2721965],[4.7973447,46.2723543],[4.7974293,46.2725054],[4.7974946,46.2725069],[4.7975361,46.272513],[4.7975634,46.2725243],[4.7975807,46.2725341],[4.7975911,46.2725481],[4.7975775,46.2726821],[4.7976652,46.2728437],[4.797701,46.2728687],[4.7977654,46.2728968],[4.7979099,46.2729591],[4.7979181,46.273001],[4.7976464,46.2730687],[4.7976364,46.2730378],[4.7975911,46.2730391],[4.7973704,46.2730072],[4.7972611,46.2729461],[4.7971882,46.2729694],[4.7969336,46.2729673],[4.7969257,46.2729438],[4.7968973,46.2729499],[4.7967663,46.2729785],[4.7967093,46.272991],[4.7963091,46.273079],[4.7958011,46.2731739],[4.7953303,46.273236],[4.7950389,46.2732532],[4.7946189,46.2732497],[4.7941618,46.2732407],[4.7939495,46.2732168],[4.7934577,46.2731491],[4.7930919,46.2730839],[4.7927386,46.273015],[4.7924036,46.2729808],[4.7920248,46.2729519],[4.7915682,46.2729604],[4.7911853,46.2729961],[4.7908121,46.2730356],[4.790467,46.2730299],[4.7901326,46.2730501],[4.789879,46.2730715],[4.7895938,46.2731022],[4.7892198,46.2731427],[4.7885723,46.2732222],[4.788211,46.2732667],[4.7876528,46.2733464],[4.7873795,46.2734074],[4.7871873,46.2734502],[4.7869166,46.2734956],[4.7866547,46.2735107],[4.786444,46.2735314],[4.7862805,46.2735713],[4.7862624,46.2735772],[4.7861476,46.2736145],[4.7860855,46.2736316],[4.7861469,46.2739832],[4.7857424,46.2740713],[4.7846012,46.2743464],[4.7841958,46.2744385],[4.7830718,46.2747045],[4.7824477,46.2748525],[4.7823253,46.2748854],[4.7818197,46.2750085],[4.7806658,46.2752911],[4.7795361,46.2755487],[4.7786228,46.2757492],[4.7782009,46.2758852],[4.7779054,46.2759616],[4.7774867,46.2760385],[4.7773343,46.2760699],[4.7768788,46.2758924],[4.7751032,46.2760885],[4.773304,46.2762972],[4.7732312,46.2762926],[4.7723758,46.2759286],[4.7719445,46.2757443],[4.7718349,46.2757173],[4.7716607,46.2756806],[4.7711632,46.2756396],[4.7706979,46.2756074],[4.7706836,46.2756029],[4.7706333,46.2755843],[4.7701476,46.275527],[4.769134,46.2754095],[4.7682696,46.2753195],[4.7674424,46.2753166],[4.7667423,46.2753226],[4.7662879,46.2752941],[4.7656179,46.2753085],[4.765367,46.2753114],[4.7649001,46.275297],[4.7638809,46.2752594],[4.7636419,46.275273],[4.7634131,46.2752954],[4.7631127,46.275315],[4.7626534,46.2753617],[4.7625471,46.2753841],[4.7623449,46.2754823],[4.7621623,46.2755247],[4.7617744,46.275579],[4.7616295,46.2755981],[4.7611237,46.2757444],[4.760628,46.2759287],[4.7605093,46.2759788],[4.7601781,46.2762064],[4.7600514,46.276281],[4.7598372,46.2763731],[4.7597027,46.2764066],[4.7594206,46.276453],[4.758915,46.276503],[4.7587311,46.2765142],[4.7586615,46.2765085],[4.7586764,46.2764929],[4.7583688,46.2764947],[4.7576345,46.2765027],[4.757495,46.2763421],[4.7574262,46.2763638],[4.7569996,46.2763742],[4.7568631,46.2763487],[4.7566206,46.2762968],[4.7564433,46.2762385],[4.7562195,46.2761673],[4.7560752,46.2760421],[4.7558607,46.275987],[4.7557736,46.2759684],[4.7555608,46.2759436],[4.7555885,46.2757272],[4.755649,46.2752377],[4.7557294,46.2746184],[4.7557832,46.2741943],[4.7558625,46.2735717],[4.755981,46.2726947],[4.7560974,46.2717775],[4.7560533,46.2717656],[4.7560358,46.2717445],[4.7560364,46.2717221],[4.7560475,46.2717068],[4.7560716,46.2716948],[4.756092,46.2716909],[4.7561377,46.2712732],[4.7562161,46.2705049],[4.7564645,46.2681769],[4.7566202,46.266715],[4.7566685,46.2662159],[4.7571916,46.266175],[4.757397,46.2661616],[4.757882,46.2661109],[4.7593411,46.2659642],[4.7594612,46.2659316],[4.7602831,46.2657059],[4.7605333,46.265637],[4.7608349,46.265506],[4.7613253,46.2652939],[4.7616824,46.2652823],[4.7618319,46.265274],[4.7620266,46.2652479],[4.7623869,46.265187],[4.7625701,46.2651677],[4.7628589,46.2650981],[4.7629446,46.265075],[4.7639079,46.264836],[4.7641966,46.2647632],[4.7648711,46.2646015],[4.7656727,46.2644025],[4.7663093,46.2642457],[4.7663587,46.2642341],[4.767028,46.2640669],[4.7671369,46.2640554],[4.7672023,46.2640451],[4.7673407,46.2640023],[4.7674212,46.2639575],[4.7675075,46.2639478],[4.7678389,46.2638635],[4.7687423,46.2636452],[4.76914,46.2635479],[4.7692059,46.2635324],[4.7692165,46.2635303],[4.7691953,46.2634667],[4.7692037,46.2634617],[4.7692272,46.2634192],[4.7692817,46.2633602],[4.7694153,46.2632023],[4.7694074,46.2631555],[4.7703266,46.2630644],[4.7707212,46.2630217],[4.7707034,46.2630028],[4.7716409,46.2628104],[4.7720257,46.2625641],[4.7723555,46.2624756],[4.77286,46.2624262],[4.7730681,46.2623934],[4.7731046,46.2623685],[4.7732553,46.2620469],[4.7733612,46.26199],[4.7751461,46.2618974],[4.7761284,46.2618178],[4.7763624,46.2617934],[4.7766697,46.2617961],[4.7768581,46.2618134],[4.7771248,46.2618512],[4.7774594,46.2618848],[4.7775049,46.2618892],[4.7775671,46.2618973],[4.7799886,46.261215],[4.7807063,46.2610181],[4.7808353,46.2609833],[4.7810695,46.2609243],[4.7813334,46.2608531],[4.7816312,46.2607692],[4.7818676,46.2607013],[4.7821844,46.2605982],[4.7824533,46.2605172],[4.782772,46.2604377],[4.7830033,46.260375],[4.7843386,46.2600114],[4.7854136,46.2597145],[4.7856941,46.259608],[4.7859414,46.2595143],[4.7873399,46.258962],[4.7884223,46.2586146],[4.7888536,46.2584666],[4.7890408,46.2584172],[4.7893567,46.2583168],[4.7895234,46.2582802],[4.7903468,46.258101],[4.7908682,46.257972],[4.7912048,46.2578558],[4.792886,46.257516],[4.7929734,46.2575035],[4.7934285,46.257421],[4.7941471,46.2571671],[4.7941187,46.2570684],[4.7941006,46.2570378],[4.7940605,46.2568974],[4.7943785,46.2569121],[4.7947111,46.2569251]]]]}}],"overviewFills":[{"type":"Feature","id":"overview-premier_cru","properties":{"id":"overview-premier_cru","kind":"vineyard","tier":"premier_cru"},"geometry":{"type":"MultiPolygon","coordinates":[[[[4.764200496020181,46.264763901663386],[4.763907894240093,46.264836168934515],[4.762944295841295,46.26507483089395],[4.76312981216594,46.2651857164068],[4.763034506655096,46.265202414392895],[4.762852230663784,46.26522847542429],[4.76270269704301,46.26525501992839],[4.762907729368152,46.26541541245768],[4.7629958400499515,46.265501956471724],[4.763067102745192,46.265609747735894],[4.763108715051803,46.26567998854207],[4.763172159924755,46.265799069543334],[4.763259265043753,46.26601163725081],[4.764150331648265,46.265903527974],[4.764111011685675,46.26577146378027],[4.764183266033514,46.26590995298545],[4.763263068413112,46.2660208555763],[4.763303807813887,46.266112366421936],[4.763518227373276,46.26661244765022],[4.764183101622684,46.26650946340076],[4.764402650480895,46.266515518113565],[4.76440339611361,46.26679256278169],[4.764386302925075,46.26683038702557],[4.764333486347286,46.26683570914174],[4.7641225600478805,46.26685546089585],[4.764101208445291,46.266857863393206],[4.764027788223739,46.26657437904087],[4.763533885714192,46.26665102536343],[4.763738680695851,46.26720295565128],[4.764202554966016,46.267137402177006],[4.7647217236269785,46.267070899561155],[4.76509645450292,46.26701996461739],[4.765911588251461,46.266985255514484],[4.766027543867818,46.26698057443814],[4.766990064735211,46.26694933550155],[4.767032128687892,46.266912654432275],[4.766999005759196,46.26646578909646],[4.766960928680382,46.26599819438389],[4.766933394190063,46.265652031003235],[4.766838288671833,46.265505881852384],[4.76682503147292,46.26548140833766],[4.7667751273086605,46.265347527692384],[4.76671621516077,46.26517595727879],[4.7665982930152575,46.264841824923806],[4.766521069048896,46.26462190060401],[4.766312555383272,46.264245129387376],[4.765673196561413,46.26440141273832],[4.764865372684017,46.26460128645126],[4.764200496020181,46.264763901663386]],[[4.7640067425188795,46.26557042143981],[4.764057122806724,46.26556207482046],[4.764111011685675,46.26577146378027],[4.7640067425188795,46.26557042143981]]],[[[4.768349215106112,46.26860696244146],[4.768337151016668,46.26819723954371],[4.768327187936175,46.267961139693966],[4.768322034749937,46.26772919843276],[4.768313440545326,46.26748722273447],[4.768291311278244,46.266958853297794],[4.768252205726276,46.26693027792943],[4.76698783219184,46.26701295982734],[4.767007385943581,46.2675102049547],[4.767013463479461,46.267746815504175],[4.767022104387503,46.26797834232034],[4.7670308993554285,46.26821464046874],[4.767038769088006,46.26857921314458],[4.768349215106112,46.26860696244146]]],[[[4.7687491674705536,46.26790126242223],[4.768750453645465,46.267844588160635],[4.768735685868503,46.267520113834124],[4.768728905887667,46.26739466104188],[4.76872827111704,46.26738305182305],[4.768717352616285,46.267382771113276],[4.768702620101001,46.266926703368945],[4.768382346018744,46.26693050812905],[4.76834302328274,46.26695552804857],[4.768362393400286,46.26737432468098],[4.768380623207673,46.267890505097164],[4.768399380425834,46.26829030636416],[4.768411661509309,46.2686102257208],[4.768610369774913,46.26861011112586],[4.768786264189637,46.26861539459475],[4.768775797211866,46.268291393890706],[4.768769949891338,46.26829130460158],[4.768760075356436,46.26807006500172],[4.7687491674705536,46.26790126242223]]],[[[4.769106501280016,46.26977178613986],[4.769128699592975,46.26977144117984],[4.769155915936429,46.26982992426739],[4.769158836950636,46.26983591359003],[4.769188303858953,46.269927867880085],[4.769206976864433,46.26992694719805],[4.7691492761318415,46.26976913986963],[4.769132287528847,46.26972571973689],[4.769092597231477,46.26955853538851],[4.769046218426188,46.26934110561576],[4.7690414022686465,46.269324697574824],[4.769025276129418,46.269247667770465],[4.769013091959825,46.2692082261317],[4.768996256499106,46.269121299602936],[4.768994140273201,46.26910403897228],[4.768984204242549,46.26901358255616],[4.76897877667218,46.268954130366986],[4.768966506976855,46.26886380028187],[4.76894531266281,46.26867813425743],[4.7683906067594055,46.268670089304365],[4.767659541541658,46.268654422102834],[4.76703734736725,46.268643815649085],[4.766955545693344,46.268898002858],[4.766925736460766,46.269145438393345],[4.766958344994006,46.26940730716531],[4.766978065268185,46.269583719080316],[4.767017893181438,46.269888169116136],[4.766964975249399,46.269878362167226],[4.766922988203649,46.2695794399188],[4.76686805578029,46.26914498257632],[4.766876266969979,46.26906135993473],[4.766903023841602,46.268900439312695],[4.766945648565401,46.268748279427456],[4.766986497170856,46.268613530664496],[4.766985465650576,46.26859364112953],[4.766972356654808,46.268199516633636],[4.766946856061965,46.26750592040445],[4.7669302234813475,46.26701466464798],[4.766031049950657,46.267040957239374],[4.76597846886284,46.26704150273702],[4.765106692978623,46.2670837557847],[4.763794432087518,46.2672524411426],[4.763772061183021,46.267283681855666],[4.763922205407715,46.26750572052913],[4.7640378839387845,46.267673800582926],[4.764202766321514,46.267917857888925],[4.764324636437134,46.26824175337128],[4.764359703106895,46.2683384857949],[4.764376232029427,46.26836777267111],[4.764481391865781,46.268559974028655],[4.764590311738507,46.26872374487641],[4.764744626091683,46.26903867043851],[4.764788508345358,46.269142922059046],[4.764796218697792,46.26920080779384],[4.764704869742966,46.26952179320393],[4.764697210005734,46.269610541090096],[4.764696991896854,46.269631981196504],[4.765714169872273,46.26973149923786],[4.766025500272543,46.26976801234015],[4.7659638471007995,46.269934337814426],[4.765816306650968,46.27036130784948],[4.7658678848202225,46.270377891389515],[4.765851581587821,46.2706214241421],[4.765917567134785,46.27062562469962],[4.7662266740765435,46.27064136557841],[4.766808671850282,46.27072177464541],[4.766782603307562,46.27083161464579],[4.7668437587239,46.27084309525623],[4.766764285515672,46.27118164195439],[4.766797089743612,46.27118392504581],[4.766797990829617,46.27117562459279],[4.766804411568571,46.27113310182989],[4.766813389347598,46.271133592993735],[4.76681590069546,46.27111481939376],[4.766842066737559,46.27111666506964],[4.76685426866962,46.27103595283717],[4.766855399701287,46.27099855610214],[4.766873237384283,46.270887222562415],[4.766885227552156,46.270763730207655],[4.767331550286872,46.2707933709477],[4.767319421851975,46.270852195013696],[4.767396675742003,46.27085540915885],[4.767393115400884,46.27087789194409],[4.767634087439885,46.27087108833825],[4.76786983375488,46.270859321430684],[4.76786994995527,46.27085085301383],[4.76800256107037,46.27083077959517],[4.768129525107288,46.27081682843868],[4.768282242140975,46.27079193890792],[4.768395953040393,46.27077783302122],[4.768585203577435,46.27079831147427],[4.768762369350076,46.27080654765976],[4.768756360710752,46.27075322928447],[4.768792480254727,46.27035158474553],[4.768793081457119,46.27033401168193],[4.768793712407912,46.270220873489485],[4.768712701547357,46.27022195198135],[4.7687046126051635,46.26992331422447],[4.768902714833255,46.269904293829164],[4.769086860705803,46.26977893669855],[4.769106501280016,46.26977178613986]]],[[[4.762812455607767,46.274352034305075],[4.762935864978887,46.27431211384504],[4.762910100797383,46.27425018421316],[4.76299318307477,46.27422854186537],[4.763018275811359,46.27422121790095],[4.763014472906994,46.27419993015393],[4.763045782750956,46.27419205955989],[4.763054224592817,46.274212194628156],[4.763432639473172,46.27411680431999],[4.763402357706339,46.27405980855353],[4.7634436719758995,46.274047999945545],[4.763277842923841,46.273823411281896],[4.763157299290535,46.273516697629915],[4.763070991497271,46.27332924706387],[4.76225734371576,46.27353414395421],[4.761394135613966,46.27374907891301],[4.761464215200512,46.2739530844369],[4.76055771953979,46.27411878375616],[4.76062950110139,46.274242510941725],[4.7608273337719265,46.27479608488828],[4.7608099919806754,46.27479806442146],[4.760829085697687,46.27480209249229],[4.760833763257675,46.27483444539727],[4.76083183901719,46.274835195718],[4.760716416340846,46.2748812051812],[4.760893556477515,46.27535268485866],[4.7608948779254305,46.27535338498207],[4.760856755230703,46.2753594688621],[4.761108222964822,46.27572675845304],[4.76165814814241,46.2755719770505],[4.762148240605882,46.275507558658944],[4.76214516937217,46.2754968878439],[4.762051078577874,46.2751685071404],[4.76186675833414,46.2751966692983],[4.76186631669943,46.27519505486971],[4.761867349527408,46.27519485874673],[4.7618296761430265,46.275065560564606],[4.761726295895556,46.274698683272376],[4.7617257244423605,46.27469707085205],[4.761723002797567,46.27468918679209],[4.7625333699207015,46.27443021265162],[4.762535393267334,46.27443657631121],[4.762812455607767,46.274352034305075]]]]}}]}
