{"type":"FeatureCollection","features":[{"type":"Feature","id":"richebourg-plot-les-richebourgs","properties":{"id":"richebourg-plot-les-richebourgs","name":"Les Richebourgs","kind":"named_plot","tier":"grand_cru","appellationId":221,"denominationId":null,"parentFeatureId":"inao-denom-1083","parentAppellation":"Richebourg","sourceName":"LES RICHEBOURGS","communes":["21714"],"areaHa":5.0425,"matchId":"","atlasUrl":null,"bounds":[4.947303628615596,47.1620942,4.950760399945384,47.1643697],"labelPoint":[4.9486665237776455,47.16318560328874]},"geometry":{"type":"MultiPolygon","coordinates":[[[[4.9479884,47.1641003],[4.948033424047742,47.16408959756242],[4.948073791246281,47.16407997432613],[4.948082013792871,47.16407392521569],[4.9480834,47.1640729],[4.94808340358382,47.16407290278318],[4.94808343774265,47.16407287765343],[4.948098882551865,47.16406181097992],[4.948158216301567,47.16401929648954],[4.948176544725674,47.1640076409359],[4.948255905413833,47.16398217017795],[4.948560343424491,47.16387852426905],[4.948566337210974,47.16387265977335],[4.948599380159255,47.16385895532369],[4.949040154078908,47.16360766218789],[4.949204891568535,47.16351140984748],[4.949405780914444,47.163366998721855],[4.949443679776925,47.16333060811907],[4.949487068791487,47.163285389580565],[4.9495358045728866,47.16323467759589],[4.94958836708742,47.16317660657749],[4.949652330153152,47.16310519529276],[4.949720875759305,47.163025421602086],[4.949869876327454,47.16280461530096],[4.949923757744928,47.16275381645019],[4.9500107689376875,47.162691742752436],[4.950093891605939,47.16265720166801],[4.950222339511351,47.16260541656562],[4.950236483552969,47.16260220640108],[4.95043363709656,47.16258447546233],[4.950667569564483,47.162561441451935],[4.950649225643175,47.162434140779425],[4.950648457884695,47.162416592734516],[4.950644809649471,47.1623085999717],[4.9506448,47.1623086],[4.9504649,47.1623077],[4.950366497099147,47.162308549032794],[4.950349045723975,47.16230870748211],[4.950273776481493,47.162312347008694],[4.9501118,47.1623202],[4.950033012943704,47.162321016446185],[4.949996036763926,47.162321409248676],[4.949996034749024,47.16232139963991],[4.949996,47.1623214],[4.949979750156422,47.162243740863836],[4.949961562540226,47.16215700685408],[4.949644492734451,47.162163068342814],[4.949540924465054,47.162163372849754],[4.9495409,47.1621634],[4.9491337,47.1621691],[4.949068332271572,47.16215808988791],[4.949048831091614,47.16215481848065],[4.9489632064962885,47.16214212139955],[4.948953624001081,47.16214081174902],[4.9489409,47.1621391],[4.948673682836573,47.16214342935098],[4.948607580444552,47.16214450654023],[4.948433929998452,47.16213302075331],[4.948192644226933,47.162095115885364],[4.9481825248726885,47.162094791577736],[4.9481632,47.1620942],[4.9481382,47.1620946],[4.9481046,47.1620969],[4.948100528454083,47.16209727014054],[4.94809687510254,47.16209762830751],[4.948046764452008,47.16209802227491],[4.947966326723654,47.162098699774916],[4.947966508214242,47.162110989319615],[4.947967157083728,47.1621503904403],[4.9479703,47.1623388],[4.9479740636198715,47.16248655452495],[4.9479761218689635,47.162566512167636],[4.947981558892374,47.16272006490676],[4.9479822,47.1627381],[4.947983108233427,47.16275488958616],[4.947992919023844,47.16293591034785],[4.947922836237011,47.16295501094676],[4.947903448800342,47.16298118334422],[4.947902187803258,47.16298282557679],[4.947873415207373,47.16302107808229],[4.9477606,47.1631711],[4.947748,47.1631946],[4.9477376,47.1632186],[4.947737391268562,47.16321916821336],[4.947732202544078,47.16323334061955],[4.9476963115112484,47.16332691673914],[4.9476456,47.1634592],[4.9476403,47.1634694],[4.9475929,47.163532],[4.94758157279994,47.16354672536007],[4.947570934116464,47.16356061669608],[4.947567546268826,47.16356942921064],[4.947566,47.1635735],[4.947545724854697,47.16363519189511],[4.9475308985284965,47.16368034459062],[4.9473467984662225,47.16366012221973],[4.9473162,47.1641034],[4.947311671389904,47.16415975603675],[4.947303628615596,47.16426016747416],[4.947325995829105,47.16425429776825],[4.947325998495942,47.16425430039616],[4.947326,47.1642543],[4.9473289,47.1642571],[4.9473446,47.1642534],[4.947395456327437,47.1642415426622],[4.947418823816635,47.164236075701574],[4.94745958892822,47.16422636079964],[4.9475457,47.1642058],[4.9476196935864385,47.164188208387536],[4.9476680866327865,47.164176677464944],[4.947813460599977,47.16414202766207],[4.9479884,47.1641003]]],[[[4.94995230650085,47.162117630879045],[4.9496088182721545,47.162147819314804],[4.9495491079750105,47.16215431845334],[4.949958691471067,47.16214795948757],[4.94995230650085,47.162117630879045]]],[[[4.9480979,47.1640933],[4.9481628,47.1642596],[4.9481833,47.1643697],[4.948197,47.1643685],[4.948328,47.1643574],[4.948473,47.1643466],[4.9485339,47.1643423],[4.9489422,47.1643112],[4.9502277808158786,47.16430510009103],[4.950205792395111,47.164142685899854],[4.950193390371995,47.16400078607308],[4.95019675523083,47.16394057180071],[4.950200843277731,47.16387115960364],[4.95029353454491,47.16386014200678],[4.95037914003949,47.163824838477304],[4.950428667703505,47.16379599645264],[4.950497345652757,47.16374539832196],[4.950536443030118,47.16370565508077],[4.950548302976566,47.16369041583146],[4.9506229255873615,47.16357793883554],[4.950636086892936,47.1635512404972],[4.950654192349041,47.16351158078933],[4.950670041390312,47.163471598877706],[4.950713124516275,47.16335235874749],[4.9507404394746475,47.16325346688574],[4.950754676239144,47.16317992112697],[4.950757923230899,47.163123761328535],[4.950760399945384,47.16307914171741],[4.950757782910609,47.162995973794104],[4.950757795557109,47.16298174468413],[4.950756380402973,47.162942684095164],[4.950752863671152,47.162903929092415],[4.950719830266017,47.162742924771905],[4.950671513950224,47.16257191156931],[4.950487256685386,47.16258843498438],[4.9502393998271055,47.162609812052054],[4.950015314333123,47.16270058175131],[4.949948054553396,47.16274656286898],[4.949903151204032,47.16278640373562],[4.949877231978812,47.16281448764031],[4.94984417899888,47.16286799752458],[4.9497644630982744,47.16298569303901],[4.9497176649125425,47.163049790880684],[4.949687628667293,47.16308451819139],[4.949566105031944,47.163221829552676],[4.949415516741083,47.1633733188093],[4.949210644105152,47.16352076888415],[4.949132783314716,47.163565757268564],[4.948876282642097,47.16371326554735],[4.948618157927299,47.163859719890965],[4.948565486609901,47.16388564218748],[4.948380542416927,47.16394900294822],[4.948209664163989,47.164006993463374],[4.9481720186044,47.164021225542285],[4.948092813472116,47.164080194528445],[4.9480928013171415,47.16408020338324],[4.9480979,47.1640933]]]]}},{"type":"Feature","id":"richebourg-plot-les-verroilles-ou-richebourgs","properties":{"id":"richebourg-plot-les-verroilles-ou-richebourgs","name":"Les Vérroilles ou Richebourgs","kind":"named_plot","tier":"grand_cru","appellationId":221,"denominationId":null,"parentFeatureId":"inao-denom-1083","parentAppellation":"Richebourg","sourceName":"LES VERROILLES OU RICHEBOURGS","communes":["21714"],"areaHa":2.988512,"matchId":"","atlasUrl":null,"bounds":[4.945675344260581,47.1640729,4.950232271524203,47.16543371786752],"labelPoint":[4.947653337942128,47.16479982705938]},"geometry":{"type":"MultiPolygon","coordinates":[[[[4.9479884,47.1641003],[4.947813460599977,47.16414202766207],[4.947988435090469,47.16410032259121],[4.948033424047742,47.16408959756242],[4.9479884,47.1641003]]],[[[4.9480834,47.1640729],[4.948082013792871,47.16407392521569],[4.94808340358382,47.16407290278318],[4.9480834,47.1640729]]],[[[4.9489422,47.1643112],[4.9485339,47.1643423],[4.948473,47.1643466],[4.948328,47.1643574],[4.948197,47.1643685],[4.9481833,47.1643697],[4.9481628,47.1642596],[4.9480979,47.1640933],[4.9480928013171415,47.16408020338324],[4.94808509432137,47.16408581786642],[4.947986804052449,47.164109986052146],[4.947666497858201,47.16418751093933],[4.947545276382782,47.164216567387165],[4.947415529229696,47.16424720803801],[4.947331862046289,47.16426680694503],[4.947332005269753,47.16427076700704],[4.947317091620462,47.164274620144624],[4.947183759878441,47.16430838274296],[4.947160993481003,47.16431416907935],[4.947136666589391,47.16431331750461],[4.94700499313687,47.16430895824349],[4.946901916778226,47.16430303718141],[4.946889218973387,47.16430244024267],[4.946794282084603,47.1642952114561],[4.946699689047968,47.16428653591096],[4.946442459017351,47.16426438508254],[4.946365439629371,47.16426333869947],[4.946361097123543,47.16433680747219],[4.94625625091752,47.16439881792155],[4.9462255419361325,47.16440770946724],[4.946077987745402,47.164446212705926],[4.9458828342174765,47.1644464315676],[4.945790386841095,47.164460593463204],[4.9457794709833065,47.16446545987188],[4.945745407376747,47.16452402859815],[4.945736473255191,47.164543540837926],[4.945711983642939,47.16470992589809],[4.945687398667418,47.16486271407154],[4.945677939193695,47.164940771599525],[4.945675344260581,47.16500781695433],[4.945676887348043,47.16502859397612],[4.94569413417984,47.16510025890441],[4.945765094133645,47.165076101844136],[4.945820802230643,47.16506471891654],[4.945908124433371,47.165062170354744],[4.945950910564704,47.165062261599594],[4.9460609582710315,47.16506374363605],[4.946170790850004,47.16506658002651],[4.9463738782117765,47.16508486893063],[4.946630527867517,47.16509451192905],[4.94683430022631,47.16510252211185],[4.946938104812401,47.1651066298871],[4.947066104698977,47.1651115913834],[4.947115071954814,47.165114640138185],[4.947239860618783,47.165122086974065],[4.9473391343627116,47.16512870212396],[4.947455377871553,47.1651371930427],[4.947581790802084,47.16514938516118],[4.947651163756074,47.16515803407168],[4.947771504622221,47.16517393039554],[4.947891112373626,47.16519145994269],[4.948002882115865,47.16520768037085],[4.948012709459912,47.165209226058344],[4.9480558588780355,47.16521570440099],[4.948138759196292,47.16522961879597],[4.9482210518335865,47.16524498425831],[4.9483431409307235,47.1652763402306],[4.948413014171581,47.16529515661524],[4.948645675891554,47.16537166038488],[4.94875800971504,47.165410744865056],[4.948864478656142,47.16543371786752],[4.948947656624123,47.165426103590804],[4.949002204504804,47.16539726776411],[4.949048513389053,47.16537064192654],[4.949093724143038,47.1653428638292],[4.949176797770674,47.16528860203687],[4.949214836611935,47.16525968386714],[4.949267464981788,47.16521430989157],[4.94932384043474,47.16516301913667],[4.949450831723589,47.16500517337392],[4.949560725558388,47.16486382552564],[4.949656749593429,47.164736940047234],[4.949678689763675,47.164711985160736],[4.949748668015189,47.16465713297925],[4.949888106253165,47.16456959104206],[4.949936432563586,47.16454401151311],[4.950076408050101,47.16447131956486],[4.950217609951874,47.16439968745156],[4.950232271524203,47.16433784196084],[4.950227785821065,47.16430513706109],[4.9502277808158786,47.16430510009103],[4.9489422,47.1643112]]],[[[4.9473446,47.1642534],[4.9473289,47.1642571],[4.947326,47.1642543],[4.947325998495942,47.16425430039616],[4.94732887122637,47.16425713119309],[4.947344583161564,47.16425344473659],[4.947395456327437,47.1642415426622],[4.9473446,47.1642534]]],[[[4.9475457,47.1642058],[4.94745958892822,47.16422636079964],[4.947545680767079,47.16420584389832],[4.9476196935864385,47.164188208387536],[4.9475457,47.1642058]]]]}}]}
