{"type":"FeatureCollection","features":[{"type":"Feature","id":"ruchottes-chambertin-plot-ruchottes-du-bas","properties":{"id":"ruchottes-chambertin-plot-ruchottes-du-bas","name":"Ruchottes du Bas","kind":"named_plot","tier":"grand_cru","appellationId":224,"denominationId":null,"parentFeatureId":"inao-denom-1086","parentAppellation":"Ruchottes-Chambertin","sourceName":"RUCHOTTES DU BAS","communes":["21295"],"areaHa":1.310945,"matchId":"","atlasUrl":null,"bounds":[4.964686586012851,47.22007560061665,4.966091819478412,47.22185936411009],"labelPoint":[4.965265112434027,47.22096039474193]},"geometry":{"type":"MultiPolygon","coordinates":[[[[4.9656449,47.2208279],[4.9656439,47.2208254],[4.9656529,47.2208008],[4.9656649,47.2207768],[4.9656695,47.2207692],[4.9657961,47.2206709],[4.965799167906202,47.22066352044184],[4.965777978650435,47.220506815387374],[4.965723170347747,47.22040250716361],[4.96567016652654,47.22030633627034],[4.965619252761894,47.220267350697334],[4.965562715093272,47.220156939002905],[4.965448319930854,47.22018646315296],[4.965388285078899,47.220185437177996],[4.965237298789182,47.22007560061665],[4.965203580419237,47.22009661489756],[4.965133677513214,47.22015399455989],[4.965104002601871,47.22016267477976],[4.96505439509081,47.220159427556155],[4.964686586012851,47.22019018623952],[4.964790612887499,47.220328403511886],[4.964804831885521,47.22043033852229],[4.964816028305857,47.22053130716009],[4.9648227440608705,47.22063336938627],[4.964822967956719,47.22063949831697],[4.964825243412145,47.220701786612004],[4.964823027423129,47.220764151062376],[4.964822243517201,47.220783580152954],[4.964824542487999,47.22088776150238],[4.9648234835607425,47.22094091174228],[4.964821006510864,47.22099613026859],[4.964818889078781,47.221061554900665],[4.964816896527487,47.221170924112705],[4.964816546869262,47.221202602283014],[4.9648329813959435,47.221283039657386],[4.964837971052081,47.22129623812261],[4.96483076614749,47.22130453725551],[4.964802381685683,47.22143069887888],[4.964792288559461,47.22152385149017],[4.965218883734311,47.22166477559656],[4.96548630129513,47.22175935434518],[4.965579348199834,47.22176083796559],[4.965665638264563,47.22178287854729],[4.96589924707073,47.22185936411009],[4.9659268,47.2218561],[4.9659712,47.2218412],[4.9660137,47.2218243],[4.9660158,47.2218234],[4.9660381,47.2217976],[4.9660636,47.2217085],[4.9660707,47.2216677],[4.966078,47.2216245],[4.966091819478412,47.22160747497247],[4.966025730844607,47.22154073632913],[4.966002052340707,47.221508439185165],[4.965867760016032,47.22123994992993],[4.9658181271868935,47.22115394314191],[4.965757208544128,47.22104666773978],[4.965718773799148,47.22097987774158],[4.965691537516905,47.2209323225753],[4.965670671694585,47.22089487154717],[4.965662584211871,47.22087865479511],[4.965644679969968,47.220840135905725],[4.965644605306529,47.220838092929526],[4.965646642147694,47.2208318924218],[4.9656449,47.2208279]]],[[[4.9647401,47.2214773],[4.964706,47.2215],[4.96470381057975,47.22151136131589],[4.964706372411685,47.22151202513749],[4.964740054712407,47.22148999402464],[4.964747386284912,47.22140302096568],[4.964747088714573,47.22139641727668],[4.9647401,47.2214773]]],[[[4.9647574,47.220544],[4.9647395,47.2212146],[4.964739661581642,47.22121810891491],[4.964758431733851,47.220555788036485],[4.964763720778068,47.220495406715116],[4.964762391629782,47.220489626889865],[4.9647574,47.220544]]]]}},{"type":"Feature","id":"ruchottes-chambertin-plot-ruchottes-du-dessus","properties":{"id":"ruchottes-chambertin-plot-ruchottes-du-dessus","name":"Ruchottes du Dessus","kind":"named_plot","tier":"grand_cru","appellationId":224,"denominationId":null,"parentFeatureId":"inao-denom-1086","parentAppellation":"Ruchottes-Chambertin","sourceName":"RUCHOTTES DU DESSUS","communes":["21295"],"areaHa":1.99076,"matchId":"","atlasUrl":null,"bounds":[4.963291383937095,47.21920242271838,4.964762391629782,47.22151136131589],"labelPoint":[4.964183757399195,47.22036803264622]},"geometry":{"type":"Polygon","coordinates":[[[4.9633314,47.2198411],[4.9633472,47.2198999],[4.9633659,47.2199582],[4.9633881,47.2200159],[4.9634126,47.2200707],[4.9635169,47.2200604],[4.9635581,47.2201672],[4.9636116,47.2203108],[4.9636464,47.2204035],[4.963642281923746,47.22040414859701],[4.963646468186528,47.22041523973585],[4.963486955171606,47.220441437990516],[4.963488578864922,47.22056810843029],[4.9634990736584355,47.22090393806675],[4.9635063,47.2211269],[4.9635065557869575,47.22113904988051],[4.963740358374534,47.221261711687895],[4.96470381057975,47.22151136131589],[4.964706,47.2215],[4.9647401,47.2214773],[4.964747088714573,47.22139641727668],[4.964739426965708,47.22122638753886],[4.964739661581642,47.22121810891491],[4.9647395,47.2212146],[4.9647574,47.220544],[4.964762391629782,47.220489626889865],[4.964726273210311,47.22033256529244],[4.964675509901343,47.22025678940485],[4.964582456127083,47.22017253590952],[4.964448106802161,47.22006650476716],[4.964402544200828,47.220010056397484],[4.964385736869893,47.21996027989364],[4.96437337026792,47.21990940148218],[4.964364015552412,47.21985847201046],[4.964358330694664,47.21982586950396],[4.964358216246687,47.21981449435236],[4.9643581,47.2198137],[4.96435792969957,47.219786014015895],[4.96435718979577,47.21971247389645],[4.96435747371278,47.219711883592],[4.9643574,47.2196999],[4.9644014,47.2196081],[4.9644147,47.2195461],[4.9644248,47.2194837],[4.9644316,47.2194214],[4.9644339,47.2193873],[4.964435,47.2193033],[4.964435495810962,47.219284087325235],[4.964262679347769,47.21930127404068],[4.964264537780974,47.21928897241648],[4.9642622,47.2192892],[4.964266246578528,47.219260295867656],[4.964127101402271,47.21920242271838],[4.963734712676593,47.2192172411853],[4.963550282521423,47.21921832234454],[4.963522704804416,47.21921789920286],[4.9635654,47.2193273],[4.963562200977135,47.21933177535936],[4.96356520724406,47.21933966134936],[4.963530117762525,47.219389635525054],[4.9635355,47.2194004],[4.963582,47.2194969],[4.963576427755707,47.21949745073364],[4.963581884246213,47.2195089968443],[4.963299469763655,47.21953728647907],[4.963297885756696,47.21961701174761],[4.963291796843872,47.21969680433519],[4.963291383937095,47.219702898182746],[4.9633314,47.2198411]]]}}]}
