{"type":"FeatureCollection","features":[{"type":"Feature","id":"21714000AC0230","geometry":{"type":"Polygon","coordinates":[[[4.9550699,47.1624201],[4.9550795,47.1624824],[4.9547242,47.1625213],[4.9544751,47.1625324],[4.9544829,47.1625739],[4.9545105,47.16272],[4.9545554,47.1629524],[4.9545935,47.1631272],[4.9548483,47.1630996],[4.9548695,47.1631626],[4.9545216,47.163209],[4.9533019,47.1633669],[4.9532848,47.1633691],[4.9532757,47.1633062],[4.9532635,47.1632387],[4.9530894,47.1625229],[4.9530009,47.1623013],[4.9529883,47.1622234],[4.9529777,47.1620405],[4.9529158,47.1618519],[4.9530491,47.1618287],[4.9532025,47.161804],[4.9533595,47.1617846],[4.953477,47.1617761],[4.9535949,47.1617692],[4.9536599,47.161766],[4.9538489,47.1617784],[4.9540645,47.1617637],[4.954262,47.1617429],[4.9544717,47.1617095],[4.9546412,47.1616879],[4.9547958,47.1616268],[4.9550265,47.161617],[4.9550118,47.1616776],[4.9549464,47.1618769],[4.954953,47.1620154],[4.9549835,47.1620148],[4.95502,47.1621095],[4.9550255,47.1621086],[4.9550377,47.1621953],[4.9550436,47.1622364],[4.955045,47.1622471],[4.9550517,47.1622933],[4.955062,47.1623619],[4.9550699,47.1624201]]]},"properties":{"id":"21714000AC0230","reference":"AC 0230","commune":"21714","cadastreAreaM2":22165,"geometryAreaM2":22120.8038,"bounds":[4.9529158,47.161617,4.9550795,47.1633691],"labelPoint":[4.953991421649384,47.16250185],"overlaps":[{"parentFeatureId":"inao-denom-1085","name":"Romanée-Saint-Vivant","areaM2":22120.4552,"parcelPercent":99.9984}],"recordedRights":[{"holderId":"778269407","siren":"778269407","name":"DOMAINE DE LA ROMANEE CONTI","rightCode":"P","rightLabel":"Propriétaire","legalForm":"6597","legalFormLabel":"SCEA"}],"domaineLinks":[],"recordMatch":"reference-and-area","recordAreasM2":[22165]}},{"type":"Feature","id":"21714000AC0231","geometry":{"type":"Polygon","coordinates":[[[4.9532709,47.16337],[4.9521669,47.1635151],[4.9506194,47.1637181],[4.9505766,47.1637238],[4.9506011,47.1636999],[4.9506321,47.1636533],[4.9506611,47.1636062],[4.9506773,47.1635777],[4.9507447,47.1634228],[4.9507912,47.1632554],[4.9508,47.1632184],[4.9508122,47.1630586],[4.9508106,47.1629873],[4.9507888,47.1628236],[4.9507236,47.1625301],[4.9507037,47.1623676],[4.9507166,47.1622517],[4.9507524,47.1621616],[4.9508605,47.1621331],[4.9511121,47.1620874],[4.9513458,47.1620579],[4.9521991,47.1619647],[4.9523721,47.1619442],[4.952901,47.1618546],[4.9529628,47.1620399],[4.9529758,47.1622273],[4.9529847,47.1622945],[4.9529951,47.1623257],[4.953077,47.1625309],[4.9531096,47.1626587],[4.9531365,47.1627692],[4.953254,47.1632533],[4.9532709,47.16337]]]},"properties":{"id":"21714000AC0231","reference":"AC 0231","commune":"21714","cadastreAreaM2":30693,"geometryAreaM2":30696.8356,"bounds":[4.9505766,47.1618546,4.9532709,47.1637238],"labelPoint":[4.95196292977837,47.162796400000005],"overlaps":[{"parentFeatureId":"inao-denom-1085","name":"Romanée-Saint-Vivant","areaM2":30696.2951,"parcelPercent":99.9982}],"recordedRights":[{"holderId":"778269407","siren":"778269407","name":"DOMAINE DE LA ROMANEE CONTI","rightCode":"P","rightLabel":"Propriétaire","legalForm":"6597","legalFormLabel":"SCEA"}],"domaineLinks":[],"recordMatch":"reference-and-area","recordAreasM2":[30693]}},{"type":"Feature","id":"21714000AC0298","geometry":{"type":"Polygon","coordinates":[[[4.9549696,47.1632798],[4.9550156,47.1633932],[4.9532892,47.163615],[4.9532867,47.163497],[4.9549696,47.1632798]]]},"properties":{"id":"21714000AC0298","reference":"AC 0298","commune":"21714","cadastreAreaM2":1718,"geometryAreaM2":1704.4082,"bounds":[4.9532867,47.1632798,4.9550156,47.163615],"labelPoint":[4.954150230580067,47.163445100000004],"overlaps":[{"parentFeatureId":"inao-denom-1085","name":"Romanée-Saint-Vivant","areaM2":1704.4049,"parcelPercent":99.9998}],"recordedRights":[{"holderId":"U33201044","siren":null,"name":"GFV LES HERITIERS CONFURON","rightCode":"P","rightLabel":"Propriétaire","legalForm":"6534","legalFormLabel":"GFA"}],"domaineLinks":[],"recordMatch":"reference-and-area","recordAreasM2":[1718]}},{"type":"Feature","id":"21714000AC0299","geometry":{"type":"Polygon","coordinates":[[[4.9550756,47.1635409],[4.9547309,47.1636028],[4.9545146,47.1636329],[4.9543273,47.1636558],[4.9541549,47.1636743],[4.9535006,47.1637402],[4.9532903,47.1637656],[4.9532899,47.1637238],[4.9532892,47.163615],[4.9550156,47.1633932],[4.9550736,47.1635356],[4.9550756,47.1635409]]]},"properties":{"id":"21714000AC0299","reference":"AC 0299","commune":"21714","cadastreAreaM2":2408,"geometryAreaM2":2437.4004,"bounds":[4.9532892,47.1633932,4.9550756,47.1637656],"labelPoint":[4.954264155928788,47.16357185],"overlaps":[{"parentFeatureId":"inao-denom-1085","name":"Romanée-Saint-Vivant","areaM2":2437.3009,"parcelPercent":99.9959}],"recordedRights":[{"holderId":"U14149307","siren":null,"name":"SCI DOM LEROY","rightCode":"P","rightLabel":"Propriétaire","legalForm":"6599","legalFormLabel":"SC"}],"domaineLinks":[],"recordMatch":"reference-and-area","recordAreasM2":[2408]}},{"type":"Feature","id":"21714000AC0300","geometry":{"type":"Polygon","coordinates":[[[4.9532699,47.1636297],[4.9502348,47.1640185],[4.9502316,47.1639846],[4.9502368,47.1639428],[4.9502601,47.1639072],[4.950313,47.1638839],[4.95327,47.1635024],[4.9532699,47.1636297]]]},"properties":{"id":"21714000AC0300","reference":"AC 0300","commune":"21714","cadastreAreaM2":3266,"geometryAreaM2":3205.1947,"bounds":[4.9502316,47.1635024,4.95327,47.1640185],"labelPoint":[4.951787932876176,47.1637568],"overlaps":[{"parentFeatureId":"inao-denom-1085","name":"Romanée-Saint-Vivant","areaM2":3205.1621,"parcelPercent":99.999}],"recordedRights":[{"holderId":"U33201044","siren":null,"name":"GFV LES HERITIERS CONFURON","rightCode":"P","rightLabel":"Propriétaire","legalForm":"6534","legalFormLabel":"GFA"}],"domaineLinks":[],"recordMatch":"reference-and-area","recordAreasM2":[3266]}},{"type":"Feature","id":"21714000AC0301","geometry":{"type":"Polygon","coordinates":[[[4.9532699,47.1636297],[4.9532704,47.1636851],[4.9532693,47.1637222],[4.9532687,47.1637404],[4.953267,47.1637695],[4.9530137,47.1638439],[4.9528084,47.1639273],[4.9526048,47.163998],[4.9524498,47.1640567],[4.9523502,47.1640807],[4.9520344,47.1641292],[4.9517344,47.1641553],[4.9514399,47.1641876],[4.9511451,47.1642185],[4.950923,47.1642408],[4.9506309,47.1642785],[4.9503075,47.1643539],[4.9502796,47.1643397],[4.9502549,47.1642165],[4.9502372,47.1640665],[4.9502348,47.1640185],[4.9532699,47.1636297]]]},"properties":{"id":"21714000AC0301","reference":"AC 0301","commune":"21714","cadastreAreaM2":7521,"geometryAreaM2":7561.1863,"bounds":[4.9502348,47.1636297,4.9532704,47.1643539],"labelPoint":[4.951688691685936,47.16396265],"overlaps":[{"parentFeatureId":"inao-denom-1085","name":"Romanée-Saint-Vivant","areaM2":7560.9357,"parcelPercent":99.9967}],"recordedRights":[{"holderId":"U14149307","siren":null,"name":"SCI DOM LEROY","rightCode":"P","rightLabel":"Propriétaire","legalForm":"6599","legalFormLabel":"SC"}],"domaineLinks":[],"recordMatch":"reference-and-area","recordAreasM2":[7521]}},{"type":"Feature","id":"21714000AC0357","geometry":{"type":"Polygon","coordinates":[[[4.9549696,47.1632798],[4.9532867,47.163497],[4.9532857,47.1634331],[4.9540744,47.1633311],[4.9549445,47.1632178],[4.9549696,47.1632798]]]},"properties":{"id":"21714000AC0357","reference":"AC 0357","commune":"21714","cadastreAreaM2":900,"geometryAreaM2":906.266,"bounds":[4.9532857,47.1632178,4.9549696,47.163497],"labelPoint":[4.953928506698891,47.1633821],"overlaps":[{"parentFeatureId":"inao-denom-1085","name":"Romanée-Saint-Vivant","areaM2":906.2147,"parcelPercent":99.9943}],"recordedRights":[{"holderId":"438871279","siren":"438871279","name":"GFV HUDELOT NOELLAT","rightCode":"P","rightLabel":"Propriétaire","legalForm":"6534","legalFormLabel":"GFA"}],"domaineLinks":[],"recordMatch":"reference-and-area","recordAreasM2":[900]}},{"type":"Feature","id":"21714000AC0358","geometry":{"type":"Polygon","coordinates":[[[4.9532848,47.1633691],[4.9533019,47.1633669],[4.9545216,47.163209],[4.9548695,47.1631626],[4.9549196,47.1631569],[4.9549445,47.1632178],[4.9540744,47.1633311],[4.9532857,47.1634331],[4.9532848,47.1633691]]]},"properties":{"id":"21714000AC0358","reference":"AC 0358","commune":"21714","cadastreAreaM2":884,"geometryAreaM2":889.5035,"bounds":[4.9532848,47.1631569,4.9549445,47.1634331],"labelPoint":[4.954262740436964,47.16327445],"overlaps":[{"parentFeatureId":"inao-denom-1085","name":"Romanée-Saint-Vivant","areaM2":889.4226,"parcelPercent":99.9909}],"recordedRights":[{"holderId":"438871279","siren":"438871279","name":"GFV HUDELOT NOELLAT","rightCode":"P","rightLabel":"Propriétaire","legalForm":"6534","legalFormLabel":"GFA"}],"domaineLinks":[],"recordMatch":"reference-and-area","recordAreasM2":[884]}},{"type":"Feature","id":"21714000AC0359","geometry":{"type":"Polygon","coordinates":[[[4.95327,47.1635024],[4.950313,47.1638839],[4.9504246,47.1638326],[4.9504868,47.163798],[4.9522723,47.1635646],[4.9532704,47.1634367],[4.95327,47.1635024]]]},"properties":{"id":"21714000AC0359","reference":"AC 0359","commune":"21714","cadastreAreaM2":1551,"geometryAreaM2":1575.1836,"bounds":[4.950313,47.1634367,4.9532704,47.1638839],"labelPoint":[4.95163144957405,47.1636813],"overlaps":[{"parentFeatureId":"inao-denom-1085","name":"Romanée-Saint-Vivant","areaM2":1575.1499,"parcelPercent":99.9979}],"recordedRights":[{"holderId":"438871279","siren":"438871279","name":"GFV HUDELOT NOELLAT","rightCode":"P","rightLabel":"Propriétaire","legalForm":"6534","legalFormLabel":"GFA"}],"domaineLinks":[],"recordMatch":"reference-and-area","recordAreasM2":[1551]}},{"type":"Feature","id":"21714000AC0360","geometry":{"type":"Polygon","coordinates":[[[4.9532709,47.16337],[4.9532704,47.1634367],[4.9522723,47.1635646],[4.9504868,47.163798],[4.9504977,47.163792],[4.9505527,47.163747],[4.9505766,47.1637238],[4.9506194,47.1637181],[4.9521669,47.1635151],[4.9532709,47.16337]]]},"properties":{"id":"21714000AC0360","reference":"AC 0360","commune":"21714","cadastreAreaM2":1442,"geometryAreaM2":1465.6564,"bounds":[4.9504868,47.16337,4.9532709,47.163798],"labelPoint":[4.951444821379395,47.16364135],"overlaps":[{"parentFeatureId":"inao-denom-1085","name":"Romanée-Saint-Vivant","areaM2":1465.6335,"parcelPercent":99.9984}],"recordedRights":[{"holderId":"438871279","siren":"438871279","name":"GFV HUDELOT NOELLAT","rightCode":"P","rightLabel":"Propriétaire","legalForm":"6534","legalFormLabel":"GFA"}],"domaineLinks":[],"recordMatch":"reference-and-area","recordAreasM2":[1442]}},{"type":"Feature","id":"21714000AL0001","geometry":{"type":"Polygon","coordinates":[[[4.95089,47.1616475],[4.9520799,47.1614563],[4.9522197,47.1614321],[4.9527994,47.1613278],[4.9528718,47.1618168],[4.9525991,47.1618703],[4.9523414,47.1619099],[4.9520738,47.1619417],[4.9518056,47.1619721],[4.9515319,47.1620015],[4.9512674,47.1620253],[4.9509525,47.1620434],[4.9508245,47.1620414],[4.9508752,47.1618517],[4.950898,47.1617122],[4.95089,47.1616475]]]},"properties":{"id":"21714000AL0001","reference":"AL 0001","commune":"21714","cadastreAreaM2":7630,"geometryAreaM2":7743.431,"bounds":[4.9508245,47.1613278,4.9528718,47.1620434],"labelPoint":[4.951872761779141,47.16167985],"overlaps":[{"parentFeatureId":"inao-denom-1085","name":"Romanée-Saint-Vivant","areaM2":7743.2783,"parcelPercent":99.998}],"recordedRights":[{"holderId":"528291362","siren":"528291362","name":"VIGNOBLE LATOUR","rightCode":"P","rightLabel":"Propriétaire","legalForm":"6540","legalFormLabel":"SCI"},{"holderId":"U21852238","siren":null,"name":"GFA DOM CORTON GRANCEY","rightCode":"P","rightLabel":"Propriétaire","legalForm":"6599","legalFormLabel":"SC"}],"domaineLinks":[],"recordMatch":"reference-and-area","recordAreasM2":[7630]}},{"type":"Feature","id":"21714000AL0325","geometry":{"type":"Polygon","coordinates":[[[4.9527994,47.1613278],[4.9522197,47.1614321],[4.9520635,47.1612215],[4.9520252,47.1611698],[4.9527549,47.161031],[4.9527994,47.1613278]]]},"properties":{"id":"21714000AL0325","reference":"AL 0325","commune":"21714","cadastreAreaM2":1656,"geometryAreaM2":1662.4022,"bounds":[4.9520252,47.161031,4.9527994,47.1614321],"labelPoint":[4.95244717596337,47.16127465],"overlaps":[{"parentFeatureId":"inao-denom-1085","name":"Romanée-Saint-Vivant","areaM2":1662.3854,"parcelPercent":99.999}],"recordedRights":[{"holderId":"484070800","siren":"484070800","name":"NICHOLEM","rightCode":"P","rightLabel":"Propriétaire","legalForm":"6534","legalFormLabel":"GFA"}],"domaineLinks":[],"recordMatch":"reference-and-area","recordAreasM2":[1656]}},{"type":"Feature","id":"21714000AL0326","geometry":{"type":"Polygon","coordinates":[[[4.9527191,47.1607868],[4.9527549,47.161031],[4.9520252,47.1611698],[4.9519014,47.1610007],[4.9518617,47.1609475],[4.9527191,47.1607868]]]},"properties":{"id":"21714000AL0326","reference":"AL 0326","commune":"21714","cadastreAreaM2":1673,"geometryAreaM2":1682.6324,"bounds":[4.9518617,47.1607868,4.9527549,47.1611698],"labelPoint":[4.95231405419738,47.160974100000004],"overlaps":[{"parentFeatureId":"inao-denom-1085","name":"Romanée-Saint-Vivant","areaM2":1682.6324,"parcelPercent":100.0}],"recordedRights":[{"holderId":"405387101","siren":"405387101","name":"FAMILLE CATHIARD","rightCode":"P","rightLabel":"Propriétaire","legalForm":"6534","legalFormLabel":"GFA"}],"domaineLinks":[],"recordMatch":"reference-and-area","recordAreasM2":[1673]}},{"type":"Feature","id":"21714000AL0327","geometry":{"type":"Polygon","coordinates":[[[4.9527191,47.1607868],[4.9518617,47.1609475],[4.9516715,47.1606933],[4.9516628,47.1606818],[4.9518096,47.1605589],[4.9519406,47.1605048],[4.9520637,47.1604667],[4.9521395,47.1604521],[4.9525804,47.1603721],[4.9526561,47.1603593],[4.9527191,47.1607868]]]},"properties":{"id":"21714000AL0327","reference":"AL 0327","commune":"21714","cadastreAreaM2":3450,"geometryAreaM2":3405.4185,"bounds":[4.9516628,47.1603593,4.9527191,47.1609475],"labelPoint":[4.952215385263155,47.16062035],"overlaps":[{"parentFeatureId":"inao-denom-1085","name":"Romanée-Saint-Vivant","areaM2":3405.4126,"parcelPercent":99.9998}],"recordedRights":[{"holderId":"328972344","siren":"328972344","name":"DOMAINE ARNOUX - LACHAUX","rightCode":"P","rightLabel":"Propriétaire","legalForm":"6597","legalFormLabel":"SCEA"}],"domaineLinks":[],"recordMatch":"reference-and-area","recordAreasM2":[3450]}},{"type":"Feature","id":"21714000AL0328","geometry":{"type":"Polygon","coordinates":[[[4.95089,47.1616475],[4.9508731,47.1615552],[4.9508403,47.1614176],[4.9520635,47.1612215],[4.9522197,47.1614321],[4.9520799,47.1614563],[4.95089,47.1616475]]]},"properties":{"id":"21714000AL0328","reference":"AL 0328","commune":"21714","cadastreAreaM2":2518,"geometryAreaM2":2549.7645,"bounds":[4.9508403,47.1612215,4.9522197,47.1616475],"labelPoint":[4.951498220348837,47.1614442],"overlaps":[{"parentFeatureId":"inao-denom-1085","name":"Romanée-Saint-Vivant","areaM2":2549.7361,"parcelPercent":99.9989}],"recordedRights":[{"holderId":"322235748","siren":"322235748","name":"DE L ARLOT","rightCode":"P","rightLabel":"Propriétaire","legalForm":"6540","legalFormLabel":"SCI"}],"domaineLinks":[],"recordMatch":"reference-and-area","recordAreasM2":[2518]}},{"type":"Feature","id":"21714000AL0329","geometry":{"type":"Polygon","coordinates":[[[4.9520252,47.1611698],[4.9520635,47.1612215],[4.9508403,47.1614176],[4.9507825,47.1611822],[4.9519014,47.1610007],[4.9520252,47.1611698]]]},"properties":{"id":"21714000AL0329","reference":"AL 0329","commune":"21714","cadastreAreaM2":2442,"geometryAreaM2":2422.165,"bounds":[4.9507825,47.1610007,4.9520635,47.1614176],"labelPoint":[4.951418133944031,47.16120185],"overlaps":[{"parentFeatureId":"inao-denom-1085","name":"Romanée-Saint-Vivant","areaM2":2422.1485,"parcelPercent":99.9993}],"recordedRights":[],"domaineLinks":[],"recordMatch":"unknown","recordAreasM2":[]}},{"type":"Feature","id":"21714000AL0330","geometry":{"type":"Polygon","coordinates":[[[4.9516628,47.1606818],[4.9516715,47.1606933],[4.9518617,47.1609475],[4.9519014,47.1610007],[4.9507825,47.1611822],[4.9507364,47.1609983],[4.9507369,47.1609907],[4.9507397,47.1609832],[4.9507446,47.1609763],[4.9507527,47.1609692],[4.9507683,47.1609615],[4.9508879,47.1609235],[4.9513912,47.1608153],[4.9515599,47.1607404],[4.9516474,47.1606946],[4.9516628,47.1606818]]]},"properties":{"id":"21714000AL0330","reference":"AL 0330","commune":"21714","cadastreAreaM2":2457,"geometryAreaM2":2397.4265,"bounds":[4.9507364,47.1606818,4.9519014,47.1611822],"labelPoint":[4.951351426411033,47.1609355],"overlaps":[{"parentFeatureId":"inao-denom-1085","name":"Romanée-Saint-Vivant","areaM2":2397.3768,"parcelPercent":99.9979}],"recordedRights":[{"holderId":"931134381","siren":"931134381","name":"MEMOIRE DE VIGNES","rightCode":"P","rightLabel":"Propriétaire","legalForm":"6540","legalFormLabel":"SCI"}],"domaineLinks":[],"recordMatch":"reference-and-area","recordAreasM2":[2457]}},{"type":"Feature","id":"21714000AM0001","geometry":{"type":"Polygon","coordinates":[[[4.9512086,47.1601627],[4.9506933,47.1601954],[4.9507656,47.1605341],[4.9508807,47.160511],[4.9512756,47.1604581],[4.9513758,47.1604462],[4.9516358,47.160397],[4.9517243,47.160534],[4.9517135,47.1605622],[4.9516474,47.1606262],[4.9515818,47.1606747],[4.9514951,47.1607217],[4.9513403,47.1607797],[4.9512489,47.1608028],[4.9510321,47.1608393],[4.9507899,47.1609046],[4.9506637,47.1609279],[4.9503594,47.1609363],[4.9496574,47.160962],[4.9494114,47.1609536],[4.9491998,47.1609516],[4.9490909,47.1609526],[4.9486298,47.1609643],[4.9482264,47.1609664],[4.9478825,47.1610292],[4.9478345,47.1610328],[4.9477672,47.1610329],[4.9476245,47.1610126],[4.9474896,47.1608616],[4.9474214,47.1607929],[4.9473575,47.1607417],[4.9473695,47.1607393],[4.9474956,47.1607147],[4.9486388,47.1606715],[4.9488997,47.1606655],[4.9491606,47.160661],[4.9493405,47.1606588],[4.9493639,47.1605576],[4.9495801,47.160553],[4.9497346,47.1605428],[4.9501381,47.1605241],[4.9501186,47.1603531],[4.9502318,47.1603511],[4.9502221,47.1601313],[4.9503583,47.1601213],[4.9506009,47.1601149],[4.9508314,47.160116],[4.9511751,47.1601076],[4.9512086,47.1601627]]]},"properties":{"id":"21714000AM0001","reference":"AM 0001","commune":"21714","cadastreAreaM2":14207,"geometryAreaM2":14175.3489,"bounds":[4.9473575,47.1601076,4.9517243,47.1610329],"labelPoint":[4.950517943577072,47.160594200000006],"overlaps":[{"parentFeatureId":"inao-denom-654","name":"La Grande Rue","areaM2":14174.8877,"parcelPercent":99.9967}],"recordedRights":[{"holderId":"397738634","siren":"397738634","name":"NICOLE LAMARCHE","rightCode":"P","rightLabel":"Propriétaire","legalForm":"5710","legalFormLabel":"SAS"}],"domaineLinks":[],"recordMatch":"reference-and-area","recordAreasM2":[14207]}},{"type":"Feature","id":"21714000AM0002","geometry":{"type":"Polygon","coordinates":[[[4.9512086,47.1601627],[4.9512816,47.1602094],[4.9514854,47.1601527],[4.9516106,47.1603551],[4.9516358,47.160397],[4.9513758,47.1604462],[4.9512756,47.1604581],[4.9508807,47.160511],[4.9507656,47.1605341],[4.9506933,47.1601954],[4.9512086,47.1601627]]]},"properties":{"id":"21714000AM0002","reference":"AM 0002","commune":"21714","cadastreAreaM2":2096,"geometryAreaM2":2093.5144,"bounds":[4.9506933,47.1601527,4.9516358,47.1605341],"labelPoint":[4.951138687971314,47.160282249999995],"overlaps":[{"parentFeatureId":"inao-denom-654","name":"La Grande Rue","areaM2":2093.5143,"parcelPercent":100.0}],"recordedRights":[{"holderId":"397738634","siren":"397738634","name":"NICOLE LAMARCHE","rightCode":"P","rightLabel":"Propriétaire","legalForm":"5710","legalFormLabel":"SAS"}],"domaineLinks":[],"recordMatch":"reference-and-area","recordAreasM2":[2096]}},{"type":"Feature","id":"21714000AM0008","geometry":{"type":"Polygon","coordinates":[[[4.9503583,47.1601213],[4.9503605,47.1601024],[4.9508031,47.1600677],[4.9511699,47.1600843],[4.9511751,47.1601076],[4.9508314,47.160116],[4.9506009,47.1601149],[4.9503583,47.1601213]]]},"properties":{"id":"21714000AM0008","reference":"AM 0008","commune":"21714","cadastreAreaM2":222,"geometryAreaM2":230.7701,"bounds":[4.9503583,47.1600677,4.9511751,47.1601213],"labelPoint":[4.950823926441866,47.16009335],"overlaps":[{"parentFeatureId":"inao-denom-654","name":"La Grande Rue","areaM2":230.7651,"parcelPercent":99.9978}],"recordedRights":[{"holderId":"397738634","siren":"397738634","name":"NICOLE LAMARCHE","rightCode":"P","rightLabel":"Propriétaire","legalForm":"5710","legalFormLabel":"SAS"}],"domaineLinks":[],"recordMatch":"reference-and-area","recordAreasM2":[222]}},{"type":"Feature","id":"21714000AM0009","geometry":{"type":"Polygon","coordinates":[[[4.9512086,47.1601627],[4.9511751,47.1601076],[4.9511699,47.1600843],[4.9508031,47.1600677],[4.9503605,47.1601024],[4.9503583,47.1601213],[4.9502221,47.1601313],[4.9502318,47.1603511],[4.9501186,47.1603531],[4.9501381,47.1605241],[4.9497346,47.1605428],[4.9495801,47.160553],[4.9493639,47.1605576],[4.9493405,47.1606588],[4.9491606,47.160661],[4.9488997,47.1606655],[4.9486388,47.1606715],[4.9474956,47.1607147],[4.9473695,47.1607393],[4.9473575,47.1607417],[4.9473348,47.1606822],[4.9473107,47.1606255],[4.9472845,47.1605694],[4.9472637,47.1604649],[4.9471531,47.160204],[4.9471395,47.1601879],[4.9470937,47.1601358],[4.9470459,47.1600845],[4.9469963,47.160034],[4.9468734,47.1599468],[4.9469866,47.1599179],[4.9469983,47.1599143],[4.9469654,47.1597207],[4.947068,47.159723],[4.9470676,47.1597173],[4.9470533,47.1595438],[4.9470951,47.1595404],[4.9471504,47.1592527],[4.9476602,47.1592631],[4.9476523,47.15914],[4.9481659,47.1590796],[4.948722,47.1590117],[4.9492893,47.1589452],[4.9493772,47.1593147],[4.9494405,47.1595804],[4.949462,47.1596316],[4.9495851,47.1595952],[4.9496821,47.1597056],[4.9501205,47.1596809],[4.9501267,47.159688],[4.9506504,47.1596847],[4.9506288,47.1595988],[4.9510872,47.1595382],[4.9516348,47.1594735],[4.9516462,47.1593806],[4.9518073,47.1593621],[4.9522103,47.1593318],[4.9522193,47.1593718],[4.9523199,47.1598651],[4.9523287,47.1599],[4.9523445,47.1599479],[4.9522731,47.1599556],[4.9522652,47.1599564],[4.9520833,47.1599758],[4.951768,47.1600328],[4.95171,47.1600447],[4.95161,47.1600665],[4.9515107,47.1600898],[4.9512544,47.1601555],[4.9512086,47.1601627]]]},"properties":{"id":"21714000AM0009","reference":"AM 0009","commune":"21714","cadastreAreaM2":46275,"geometryAreaM2":46000.2538,"bounds":[4.9468734,47.1589452,4.9523445,47.1607417],"labelPoint":[4.949641637767655,47.15979405],"overlaps":[{"parentFeatureId":"inao-denom-656","name":"La Tâche","areaM2":45998.9811,"parcelPercent":99.9972}],"recordedRights":[{"holderId":"778269407","siren":"778269407","name":"DOMAINE DE LA ROMANEE CONTI","rightCode":"P","rightLabel":"Propriétaire","legalForm":"6597","legalFormLabel":"SCEA"}],"domaineLinks":[],"recordMatch":"reference-and-area","recordAreasM2":[46275]}},{"type":"Feature","id":"21714000AM0016","geometry":{"type":"Polygon","coordinates":[[[4.9522103,47.1593318],[4.9518073,47.1593621],[4.9516462,47.1593806],[4.9516348,47.1594735],[4.9510872,47.1595382],[4.9506288,47.1595988],[4.9506504,47.1596847],[4.9501267,47.159688],[4.9501205,47.1596809],[4.9496821,47.1597056],[4.9495851,47.1595952],[4.949462,47.1596316],[4.9494405,47.1595804],[4.9493772,47.1593147],[4.9492893,47.1589452],[4.9492549,47.1588198],[4.94927,47.158817],[4.9498429,47.1587636],[4.9499121,47.1590847],[4.9518874,47.1588986],[4.951901,47.1588973],[4.9519735,47.1589393],[4.9520579,47.1590026],[4.952159,47.1591031],[4.9522103,47.1593318]]]},"properties":{"id":"21714000AM0016","reference":"AM 0016","commune":"21714","cadastreAreaM2":14345,"geometryAreaM2":14483.4877,"bounds":[4.9492549,47.1587636,4.9522103,47.1597056],"labelPoint":[4.950767381738911,47.1592089],"overlaps":[{"parentFeatureId":"inao-denom-656","name":"La Tâche","areaM2":14483.2083,"parcelPercent":99.9981}],"recordedRights":[{"holderId":"778269407","siren":"778269407","name":"DOMAINE DE LA ROMANEE CONTI","rightCode":"P","rightLabel":"Propriétaire","legalForm":"6597","legalFormLabel":"SCEA"}],"domaineLinks":[],"recordMatch":"reference-and-area","recordAreasM2":[14345]}},{"type":"Feature","id":"21714000AN0053","geometry":{"type":"Polygon","coordinates":[[[4.9458828,47.1644464],[4.9458696,47.1645727],[4.9458522,47.1647575],[4.9458208,47.1650647],[4.9457651,47.1650761],[4.9456941,47.1651003],[4.9456769,47.1650286],[4.9456753,47.1650078],[4.9456779,47.1649408],[4.9456874,47.1648627],[4.945712,47.1647099],[4.9457365,47.1645435],[4.9457454,47.164524],[4.9457795,47.1644655],[4.9457904,47.1644606],[4.9458828,47.1644464]]]},"properties":{"id":"21714000AN0053","reference":"AN 0053","commune":"21714","cadastreAreaM2":733,"geometryAreaM2":751.916,"bounds":[4.9456753,47.1644464,4.9458828,47.1651003],"labelPoint":[4.945771345946158,47.1648101],"overlaps":[{"parentFeatureId":"inao-denom-1083","name":"Richebourg","areaM2":751.8437,"parcelPercent":99.9904}],"recordedRights":[{"holderId":"036380046","siren":"036380046","name":"BICHOT SA","rightCode":"P","rightLabel":"Propriétaire","legalForm":"5699","legalFormLabel":"SA"}],"domaineLinks":[],"recordMatch":"reference-and-area","recordAreasM2":[733]}},{"type":"Feature","id":"21714000AN0054","geometry":{"type":"Polygon","coordinates":[[[4.9458828,47.1644464],[4.946078,47.1644462],[4.9462255,47.1644077],[4.9462563,47.1643988],[4.9463611,47.1643368],[4.9463654,47.1642633],[4.9464425,47.1642644],[4.9463852,47.1649301],[4.9463739,47.1650849],[4.9461708,47.1650666],[4.946061,47.1650637],[4.9459509,47.1650623],[4.9459081,47.1650622],[4.9458208,47.1650647],[4.9458522,47.1647575],[4.9458696,47.1645727],[4.9458828,47.1644464]]]},"properties":{"id":"21714000AN0054","reference":"AN 0054","commune":"21714","cadastreAreaM2":3061,"geometryAreaM2":3086.3278,"bounds":[4.9458208,47.1642633,4.9464425,47.1650849],"labelPoint":[4.946134454912123,47.1646651],"overlaps":[{"parentFeatureId":"inao-denom-1083","name":"Richebourg","areaM2":3086.1765,"parcelPercent":99.9951}],"recordedRights":[{"holderId":"320926439","siren":"320926439","name":"DOMAINE MEO CAMUZET","rightCode":"U","rightLabel":"Usufruitier","legalForm":"6597","legalFormLabel":"SCEA"},{"holderId":"448502708","siren":"448502708","name":"MEO CAMUZET FRERE ET SOEURS","rightCode":"N","rightLabel":"Nu-propriétaire","legalForm":"5710","legalFormLabel":"SAS"}],"domaineLinks":[],"recordMatch":"reference-and-area","recordAreasM2":[3061]}},{"type":"Feature","id":"21714000AN0056","geometry":{"type":"Polygon","coordinates":[[[4.9485339,47.1643423],[4.9489422,47.1643112],[4.9502278,47.1643051],[4.9502323,47.1643378],[4.9502176,47.1643997],[4.9500764,47.1644713],[4.9499364,47.164544],[4.9498881,47.1645696],[4.9497487,47.1646571],[4.9496787,47.164712],[4.9496567,47.1647369],[4.9495607,47.1648638],[4.9494508,47.1650052],[4.9493238,47.165163],[4.9492675,47.1652143],[4.9492148,47.1652597],[4.9491768,47.1652886],[4.9490937,47.1653429],[4.9490485,47.1653706],[4.9490022,47.1653973],[4.9489477,47.1654261],[4.9488645,47.1654337],[4.948758,47.1654107],[4.9486457,47.1653717],[4.9486176,47.1650988],[4.9486138,47.1650602],[4.9485807,47.1647624],[4.9485613,47.1645873],[4.9485339,47.1643423]]]},"properties":{"id":"21714000AN0056","reference":"AN 0056","commune":"21714","cadastreAreaM2":9370,"geometryAreaM2":9374.6703,"bounds":[4.9485339,47.1643051,4.9502323,47.1654337],"labelPoint":[4.9490527893216925,47.1649345],"overlaps":[{"parentFeatureId":"inao-denom-1083","name":"Richebourg","areaM2":9374.6199,"parcelPercent":99.9995}],"recordedRights":[{"holderId":"778269407","siren":"778269407","name":"DOMAINE DE LA ROMANEE CONTI","rightCode":"P","rightLabel":"Propriétaire","legalForm":"6597","legalFormLabel":"SCEA"}],"domaineLinks":[],"recordMatch":"reference-and-area","recordAreasM2":[9370]}},{"type":"Feature","id":"21714000AN0057","geometry":{"type":"Polygon","coordinates":[[[4.9485339,47.1643423],[4.948473,47.1643466],[4.948328,47.1643574],[4.948197,47.1643685],[4.9481833,47.1643697],[4.9481628,47.1642596],[4.9480979,47.1640933],[4.9480928,47.1640802],[4.948172,47.1640212],[4.9482097,47.164007],[4.9482308,47.1640079],[4.9486428,47.1640065],[4.9489909,47.1640054],[4.9494845,47.1640035],[4.950179,47.1640008],[4.9501934,47.1640008],[4.9502058,47.1641427],[4.9502278,47.1643051],[4.9489422,47.1643112],[4.9485339,47.1643423]]]},"properties":{"id":"21714000AN0057","reference":"AN 0057","commune":"21714","cadastreAreaM2":5522,"geometryAreaM2":5497.0595,"bounds":[4.9480928,47.1640008,4.9502278,47.1643697],"labelPoint":[4.949176853745049,47.16420115],"overlaps":[{"parentFeatureId":"inao-denom-1083","name":"Richebourg","areaM2":5497.0158,"parcelPercent":99.9992}],"recordedRights":[{"holderId":"U14149307","siren":null,"name":"SCI DOM LEROY","rightCode":"P","rightLabel":"Propriétaire","legalForm":"6599","legalFormLabel":"SC"}],"domaineLinks":[],"recordMatch":"reference-and-area","recordAreasM2":[5522]}},{"type":"Feature","id":"21714000AN0059","geometry":{"type":"Polygon","coordinates":[[[4.9473036,47.1642602],[4.9473162,47.1641034],[4.9473468,47.1636601],[4.9475309,47.1636803],[4.9475209,47.1637133],[4.9475652,47.1638582],[4.9475612,47.1638581],[4.9475436,47.1638576],[4.9474567,47.1638557],[4.9473841,47.1638539],[4.9473446,47.1642534],[4.9473289,47.1642571],[4.947326,47.1642543],[4.9473036,47.1642602]]]},"properties":{"id":"21714000AN0059","reference":"AN 0059","commune":"21714","cadastreAreaM2":462,"geometryAreaM2":463.3596,"bounds":[4.9473036,47.1636601,4.9475652,47.1642602],"labelPoint":[4.947348107871445,47.163980800000004],"overlaps":[{"parentFeatureId":"inao-denom-1083","name":"Richebourg","areaM2":463.2939,"parcelPercent":99.9858}],"recordedRights":[{"holderId":"320926439","siren":"320926439","name":"DOMAINE MEO CAMUZET","rightCode":"U","rightLabel":"Usufruitier","legalForm":"6597","legalFormLabel":"SCEA"},{"holderId":"448502708","siren":"448502708","name":"MEO CAMUZET FRERE ET SOEURS","rightCode":"N","rightLabel":"Nu-propriétaire","legalForm":"5710","legalFormLabel":"SAS"}],"domaineLinks":[],"recordMatch":"reference-and-area","recordAreasM2":[462]}},{"type":"Feature","id":"21714000AN0060","geometry":{"type":"Polygon","coordinates":[[[4.9475709,47.1635606],[4.9479105,47.1635673],[4.9482632,47.1635702],[4.94844,47.1635716],[4.9485292,47.1635753],[4.9487272,47.1635891],[4.9489176,47.1636008],[4.9490337,47.1636073],[4.9490402,47.1636077],[4.9485994,47.163859],[4.9485663,47.1638727],[4.9481168,47.1638667],[4.9480066,47.1638655],[4.9479773,47.1638651],[4.9476959,47.1638609],[4.9475792,47.1638585],[4.9475652,47.1638582],[4.9475209,47.1637133],[4.9475309,47.1636803],[4.947566,47.1635735],[4.9475709,47.1635606]]]},"properties":{"id":"21714000AN0060","reference":"AN 0060","commune":"21714","cadastreAreaM2":3195,"geometryAreaM2":3156.0271,"bounds":[4.9475209,47.1635606,4.9490402,47.1638727],"labelPoint":[4.948135468135694,47.16378575],"overlaps":[{"parentFeatureId":"inao-denom-1083","name":"Richebourg","areaM2":3155.7898,"parcelPercent":99.9925}],"recordedRights":[{"holderId":"778269407","siren":"778269407","name":"DOMAINE DE LA ROMANEE CONTI","rightCode":"P","rightLabel":"Propriétaire","legalForm":"6597","legalFormLabel":"SCEA"}],"domaineLinks":[],"recordMatch":"reference-and-area","recordAreasM2":[3195]}},{"type":"Feature","id":"21714000AN0061","geometry":{"type":"Polygon","coordinates":[[[4.9476456,47.1634592],[4.9479511,47.1634633],[4.9482566,47.163466],[4.9482698,47.163466],[4.9484409,47.1634666],[4.9486574,47.1634813],[4.9487223,47.1634852],[4.9488744,47.1634944],[4.9490914,47.1635059],[4.9492049,47.1635114],[4.9490402,47.1636077],[4.9490337,47.1636073],[4.9489176,47.1636008],[4.9487272,47.1635891],[4.9485292,47.1635753],[4.94844,47.1635716],[4.9482632,47.1635702],[4.9479105,47.1635673],[4.9475709,47.1635606],[4.9475929,47.163532],[4.9476403,47.1634694],[4.9476456,47.1634592]]]},"properties":{"id":"21714000AN0061","reference":"AN 0061","commune":"21714","cadastreAreaM2":1321,"geometryAreaM2":1323.1867,"bounds":[4.9475709,47.1634592,4.9492049,47.1636077],"labelPoint":[4.948363555607482,47.16354629999999],"overlaps":[{"parentFeatureId":"inao-denom-1083","name":"Richebourg","areaM2":1323.1423,"parcelPercent":99.9966}],"recordedRights":[{"holderId":"U14149307","siren":null,"name":"SCI DOM LEROY","rightCode":"P","rightLabel":"Propriétaire","legalForm":"6599","legalFormLabel":"SC"}],"domaineLinks":[],"recordMatch":"reference-and-area","recordAreasM2":[1321]}},{"type":"Feature","id":"21714000AN0064","geometry":{"type":"Polygon","coordinates":[[[4.9507579,47.1631238],[4.950742,47.1631251],[4.9501642,47.1631725],[4.9495845,47.1632203],[4.9495661,47.1632218],[4.9496876,47.1630845],[4.9497041,47.1630832],[4.9507578,47.162996],[4.9507604,47.1630791],[4.9507579,47.1631238]]]},"properties":{"id":"21714000AN0064","reference":"AN 0064","commune":"21714","cadastreAreaM2":1222,"geometryAreaM2":1214.3623,"bounds":[4.9495661,47.162996,4.9507604,47.1632218],"labelPoint":[4.95021460512301,47.163104149999995],"overlaps":[{"parentFeatureId":"inao-denom-1083","name":"Richebourg","areaM2":1214.3123,"parcelPercent":99.9959}],"recordedRights":[{"holderId":"438871279","siren":"438871279","name":"GFV HUDELOT NOELLAT","rightCode":"P","rightLabel":"Propriétaire","legalForm":"6534","legalFormLabel":"GFA"}],"domaineLinks":[],"recordMatch":"reference-and-area","recordAreasM2":[1222]}},{"type":"Feature","id":"21714000AN0066","geometry":{"type":"Polygon","coordinates":[[[4.9495884,47.1631766],[4.9491072,47.1631498],[4.9491132,47.163062],[4.9489202,47.1630541],[4.9489233,47.1630101],[4.9489261,47.1629891],[4.9497209,47.1630254],[4.9496523,47.1631052],[4.9495884,47.1631766]]]},"properties":{"id":"21714000AN0066","reference":"AN 0066","commune":"21714","cadastreAreaM2":808,"geometryAreaM2":813.8943,"bounds":[4.9489202,47.1629891,4.9497209,47.1631766],"labelPoint":[4.9493912961695266,47.16308359999999],"overlaps":[{"parentFeatureId":"inao-denom-1083","name":"Richebourg","areaM2":813.8898,"parcelPercent":99.9994}],"recordedRights":[{"holderId":"438871279","siren":"438871279","name":"GFV HUDELOT NOELLAT","rightCode":"P","rightLabel":"Propriétaire","legalForm":"6534","legalFormLabel":"GFA"}],"domaineLinks":[],"recordMatch":"reference-and-area","recordAreasM2":[808]}},{"type":"Feature","id":"21714000AN0068","geometry":{"type":"Polygon","coordinates":[[[4.9507529,47.1629039],[4.9507376,47.1629053],[4.9503175,47.1629434],[4.9497645,47.1629857],[4.9498442,47.162868],[4.9498772,47.1628145],[4.9499032,47.1627864],[4.9499481,47.1627466],[4.9500153,47.1627006],[4.9502394,47.1626098],[4.9504873,47.1625884],[4.9506715,47.1625719],[4.9507198,47.1627429],[4.9507529,47.1629039]]]},"properties":{"id":"21714000AN0068","reference":"AN 0068","commune":"21714","cadastreAreaM2":2245,"geometryAreaM2":2262.3509,"bounds":[4.9497645,47.1625719,4.9507529,47.1629857],"labelPoint":[4.9503251509627315,47.162766500000004],"overlaps":[{"parentFeatureId":"inao-denom-1083","name":"Richebourg","areaM2":2262.2446,"parcelPercent":99.9953}],"recordedRights":[{"holderId":"778269407","siren":"778269407","name":"DOMAINE DE LA ROMANEE CONTI","rightCode":"P","rightLabel":"Propriétaire","legalForm":"6597","legalFormLabel":"SCEA"}],"domaineLinks":[],"recordMatch":"reference-and-area","recordAreasM2":[2245]}},{"type":"Feature","id":"21714000AN0069","geometry":{"type":"Polygon","coordinates":[[[4.9489286,47.1625946],[4.9489355,47.1624929],[4.9489376,47.1624629],[4.9496828,47.1624503],[4.9502481,47.1624408],[4.9506492,47.1624341],[4.9506676,47.1625614],[4.9504336,47.1625845],[4.9502365,47.1626022],[4.9502223,47.1626054],[4.9497312,47.1626032],[4.9495707,47.1626017],[4.9493299,47.1625996],[4.9489286,47.1625946]]]},"properties":{"id":"21714000AN0069","reference":"AN 0069","commune":"21714","cadastreAreaM2":2144,"geometryAreaM2":2152.5843,"bounds":[4.9489286,47.1624341,4.9506676,47.1626054],"labelPoint":[4.949797912871541,47.16252715],"overlaps":[{"parentFeatureId":"inao-denom-1083","name":"Richebourg","areaM2":2152.5502,"parcelPercent":99.9984}],"recordedRights":[{"holderId":"778269407","siren":"778269407","name":"DOMAINE DE LA ROMANEE CONTI","rightCode":"P","rightLabel":"Propriétaire","legalForm":"6597","legalFormLabel":"SCEA"}],"domaineLinks":[],"recordMatch":"reference-and-area","recordAreasM2":[2144]}},{"type":"Feature","id":"21714000AN0071","geometry":{"type":"Polygon","coordinates":[[[4.9495491,47.1621543],[4.9496088,47.1621478],[4.9499523,47.1621176],[4.9499587,47.162148],[4.9495491,47.1621543]]]},"properties":{"id":"21714000AN0071","reference":"AN 0071","commune":"21714","cadastreAreaM2":53,"geometryAreaM2":54.3687,"bounds":[4.9495491,47.1621176,4.9499587,47.1621543],"labelPoint":[4.949868014473684,47.1621327],"overlaps":[{"parentFeatureId":"inao-denom-1083","name":"Richebourg","areaM2":54.2348,"parcelPercent":99.7536}],"recordedRights":[{"holderId":"778269407","siren":"778269407","name":"DOMAINE DE LA ROMANEE CONTI","rightCode":"P","rightLabel":"Propriétaire","legalForm":"6597","legalFormLabel":"SCEA"}],"domaineLinks":[],"recordMatch":"reference-and-area","recordAreasM2":[53]}},{"type":"Feature","id":"21714000AN0072","geometry":{"type":"Polygon","coordinates":[[[4.9499616,47.162157],[4.9504616,47.1621511],[4.9506915,47.1621461],[4.9506587,47.1622402],[4.9506448,47.1623086],[4.9504649,47.1623077],[4.950349,47.1623087],[4.9501118,47.1623202],[4.949996,47.1623214],[4.9499616,47.162157]]]},"properties":{"id":"21714000AN0072","reference":"AN 0072","commune":"21714","cadastreAreaM2":927,"geometryAreaM2":926.3321,"bounds":[4.9499616,47.1621461,4.9506915,47.1623214],"labelPoint":[4.95032175247084,47.162198599999996],"overlaps":[{"parentFeatureId":"inao-denom-1084","name":"Romanée-Conti","areaM2":926.1986,"parcelPercent":99.9856}],"recordedRights":[{"holderId":"778269407","siren":"778269407","name":"DOMAINE DE LA ROMANEE CONTI","rightCode":"P","rightLabel":"Propriétaire","legalForm":"6597","legalFormLabel":"SCEA"}],"domaineLinks":[],"recordMatch":"reference-and-area","recordAreasM2":[927]}},{"type":"Feature","id":"21714000AN0074","geometry":{"type":"Polygon","coordinates":[[[4.9484905,47.1610096],[4.9484951,47.161054],[4.948676,47.1610554],[4.9487516,47.1612313],[4.9487655,47.1612824],[4.948778,47.161322],[4.9487816,47.1613335],[4.9487984,47.1613803],[4.948852,47.1613977],[4.94913,47.1613886],[4.9491396,47.161441],[4.9491472,47.1614937],[4.9491515,47.1615376],[4.949177,47.1616942],[4.9491559,47.1618549],[4.9491531,47.1619389],[4.949148,47.1620227],[4.9491456,47.1620524],[4.9491504,47.1621602],[4.9491298,47.1621585],[4.9489586,47.1621327],[4.9489362,47.1621302],[4.9487955,47.1621314],[4.948655,47.1621341],[4.9486047,47.1621354],[4.9484161,47.1621223],[4.9482611,47.1620976],[4.9481872,47.1620865],[4.9481578,47.1620853],[4.9481283,47.1620858],[4.9480972,47.1620878],[4.948083,47.1620183],[4.9481583,47.1617593],[4.9481683,47.1617584],[4.948161,47.1617215],[4.9481347,47.1615596],[4.948081,47.1612586],[4.9480607,47.161259],[4.9480245,47.1610597],[4.9481582,47.1610276],[4.9482154,47.1610191],[4.9482731,47.1610118],[4.9483311,47.1610062],[4.9483515,47.1610046],[4.9484905,47.1610096]]]},"properties":{"id":"21714000AN0074","reference":"AN 0074","commune":"21714","cadastreAreaM2":8452,"geometryAreaM2":8415.8858,"bounds":[4.9480245,47.1610046,4.949177,47.1621602],"labelPoint":[4.948655836900231,47.1616269],"overlaps":[{"parentFeatureId":"inao-denom-655","name":"La Romanée","areaM2":8415.4506,"parcelPercent":99.9948}],"recordedRights":[{"holderId":"U14132333","siren":null,"name":"SCI DU CHATEAU DE VOSNE ROMANEE","rightCode":"P","rightLabel":"Propriétaire","legalForm":"6540","legalFormLabel":"SCI"}],"domaineLinks":[],"recordMatch":"reference-and-area","recordAreasM2":[8452]}},{"type":"Feature","id":"21714000AN0168","geometry":{"type":"Polygon","coordinates":[[[4.9501968,47.1639406],[4.9501934,47.1640008],[4.950179,47.1640008],[4.9494845,47.1640035],[4.9489909,47.1640054],[4.9486428,47.1640065],[4.9482308,47.1640079],[4.9482097,47.164007],[4.9483805,47.163949],[4.9499913,47.1639405],[4.9501968,47.1639406]]]},"properties":{"id":"21714000AN0168","reference":"AN 0168","commune":"21714","cadastreAreaM2":922,"geometryAreaM2":957.29,"bounds":[4.9482097,47.1639405,4.9501968,47.1640079],"labelPoint":[4.949249545878109,47.1639749],"overlaps":[{"parentFeatureId":"inao-denom-1083","name":"Richebourg","areaM2":957.2697,"parcelPercent":99.9979}],"recordedRights":[{"holderId":"U14149307","siren":null,"name":"SCI DOM LEROY","rightCode":"P","rightLabel":"Propriétaire","legalForm":"6599","legalFormLabel":"SC"}],"domaineLinks":[],"recordMatch":"reference-and-area","recordAreasM2":[922]}},{"type":"Feature","id":"21714000AN0169","geometry":{"type":"Polygon","coordinates":[[[4.9501968,47.1639406],[4.9499913,47.1639405],[4.9483805,47.163949],[4.9485655,47.1638856],[4.9486182,47.1638597],[4.9488763,47.1637133],[4.9491328,47.1635658],[4.9492106,47.1635208],[4.9494155,47.1633733],[4.9495661,47.1632218],[4.9495845,47.1632203],[4.9501642,47.1631725],[4.950742,47.1631251],[4.9507579,47.1631238],[4.9507547,47.1631799],[4.9507404,47.1632535],[4.9507131,47.1633524],[4.95067,47.1634716],[4.9506542,47.1635116],[4.9506361,47.1635512],[4.9506229,47.1635779],[4.9505483,47.1636904],[4.9505364,47.1637057],[4.9504973,47.1637454],[4.9504287,47.163796],[4.9503791,47.1638248],[4.9502935,47.1638601],[4.9502008,47.1638712],[4.9501968,47.1639406]]]},"properties":{"id":"21714000AN0169","reference":"AN 0169","commune":"21714","cadastreAreaM2":9573,"geometryAreaM2":9553.0712,"bounds":[4.9483805,47.1631238,4.9507579,47.163949],"labelPoint":[4.949913684181817,47.163536],"overlaps":[{"parentFeatureId":"inao-denom-1083","name":"Richebourg","areaM2":9552.9232,"parcelPercent":99.9984}],"recordedRights":[{"holderId":"778269407","siren":"778269407","name":"DOMAINE DE LA ROMANEE CONTI","rightCode":"P","rightLabel":"Propriétaire","legalForm":"6597","legalFormLabel":"SCEA"}],"domaineLinks":[],"recordMatch":"reference-and-area","recordAreasM2":[9573]}},{"type":"Feature","id":"21714000AN0171","geometry":{"type":"Polygon","coordinates":[[[4.9484653,47.1626446],[4.9484662,47.1625895],[4.9489286,47.1625946],[4.9493299,47.1625996],[4.9495707,47.1626017],[4.9497312,47.1626032],[4.9502223,47.1626054],[4.9500939,47.1626572],[4.9492309,47.1626497],[4.9484653,47.1626446]]]},"properties":{"id":"21714000AN0171","reference":"AN 0171","commune":"21714","cadastreAreaM2":792,"geometryAreaM2":743.9376,"bounds":[4.9484653,47.1625895,4.9502223,47.1626572],"labelPoint":[4.949319668180702,47.162625],"overlaps":[{"parentFeatureId":"inao-denom-1083","name":"Richebourg","areaM2":743.9375,"parcelPercent":100.0}],"recordedRights":[{"holderId":"778269407","siren":"778269407","name":"DOMAINE DE LA ROMANEE CONTI","rightCode":"P","rightLabel":"Propriétaire","legalForm":"6597","legalFormLabel":"SCEA"}],"domaineLinks":[],"recordMatch":"reference-and-area","recordAreasM2":[792]}},{"type":"Feature","id":"21714000AN0173","geometry":{"type":"Polygon","coordinates":[[[4.9499616,47.162157],[4.949996,47.1623214],[4.9501118,47.1623202],[4.950349,47.1623087],[4.9504649,47.1623077],[4.9506448,47.1623086],[4.9506485,47.1624166],[4.9506492,47.1624341],[4.9502481,47.1624408],[4.9496828,47.1624503],[4.9489376,47.1624629],[4.9489355,47.1624929],[4.9489286,47.1625946],[4.9484662,47.1625895],[4.9484653,47.1626446],[4.9484639,47.162746],[4.9479822,47.1627381],[4.9479761,47.1625665],[4.9479703,47.1623388],[4.9479665,47.162111],[4.9479663,47.1620987],[4.9480969,47.1620976],[4.9481046,47.1620969],[4.9481382,47.1620946],[4.9481632,47.1620942],[4.9481926,47.1620951],[4.9484339,47.162133],[4.9486076,47.1621445],[4.9489409,47.1621391],[4.9489632,47.1621421],[4.9490488,47.1621548],[4.9491337,47.1621691],[4.9495409,47.1621634],[4.9496445,47.1621631],[4.9499616,47.162157]]]},"properties":{"id":"21714000AN0173","reference":"AN 0173","commune":"21714","cadastreAreaM2":7738,"geometryAreaM2":7691.5143,"bounds":[4.9479663,47.1620942,4.9506492,47.162746],"labelPoint":[4.949310677305665,47.16242535],"overlaps":[{"parentFeatureId":"inao-denom-1083","name":"Richebourg","areaM2":7691.3842,"parcelPercent":99.9983}],"recordedRights":[{"holderId":"778269407","siren":"778269407","name":"DOMAINE DE LA ROMANEE CONTI","rightCode":"P","rightLabel":"Propriétaire","legalForm":"6597","legalFormLabel":"SCEA"}],"domaineLinks":[],"recordMatch":"reference-and-area","recordAreasM2":[7738]}},{"type":"Feature","id":"21714000AN0174","geometry":{"type":"Polygon","coordinates":[[[4.9485339,47.1643423],[4.9485613,47.1645873],[4.9485807,47.1647624],[4.9486138,47.1650602],[4.9486176,47.1650988],[4.9486457,47.1653717],[4.948413,47.1652952],[4.9483431,47.1652763],[4.9482211,47.165245],[4.9481388,47.1652296],[4.9480559,47.1652157],[4.9480127,47.1652092],[4.9480029,47.1652077],[4.9480216,47.1649668],[4.9480381,47.1647986],[4.9480811,47.1642748],[4.9480979,47.1640933],[4.9481628,47.1642596],[4.9481833,47.1643697],[4.948197,47.1643685],[4.948328,47.1643574],[4.948473,47.1643466],[4.9485339,47.1643423]]]},"properties":{"id":"21714000AN0174","reference":"AN 0174","commune":"21714","cadastreAreaM2":4384,"geometryAreaM2":4400.6328,"bounds":[4.9480029,47.1640933,4.9486457,47.1653717],"labelPoint":[4.948309629467353,47.16467485],"overlaps":[{"parentFeatureId":"inao-denom-1083","name":"Richebourg","areaM2":4400.5453,"parcelPercent":99.998}],"recordedRights":[{"holderId":"348024928","siren":"348024928","name":"ANNE GROS","rightCode":"N","rightLabel":"Nu-propriétaire","legalForm":"5710","legalFormLabel":"SAS"}],"domaineLinks":[],"recordMatch":"reference-and-area","recordAreasM2":[4384]}},{"type":"Feature","id":"21714000AN0180","geometry":{"type":"Polygon","coordinates":[[[4.9481168,47.1638667],[4.9485663,47.1638727],[4.9485603,47.1638785],[4.9482559,47.1639822],[4.9481765,47.1640076],[4.9481582,47.1640193],[4.9480989,47.1640618],[4.9481168,47.1638667]]]},"properties":{"id":"21714000AN0180","reference":"AN 0180","commune":"21714","cadastreAreaM2":338,"geometryAreaM2":332.4426,"bounds":[4.9480989,47.1638667,4.9485663,47.1640618],"labelPoint":[4.9482595301255765,47.16393035],"overlaps":[{"parentFeatureId":"inao-denom-1083","name":"Richebourg","areaM2":332.4244,"parcelPercent":99.9945}],"recordedRights":[{"holderId":"348024928","siren":"348024928","name":"ANNE GROS","rightCode":"P","rightLabel":"Propriétaire","legalForm":"5710","legalFormLabel":"SAS"}],"domaineLinks":[],"recordMatch":"reference-and-area","recordAreasM2":[338]}},{"type":"Feature","id":"21714000AN0236","geometry":{"type":"Polygon","coordinates":[[[4.9480979,47.1640933],[4.9480811,47.1642748],[4.9480381,47.1647986],[4.9480216,47.1649668],[4.9480029,47.1652077],[4.9478911,47.1651915],[4.9479458,47.1645703],[4.9479605,47.1644205],[4.9479868,47.16411],[4.9480851,47.1640858],[4.9480928,47.1640802],[4.9480979,47.1640933]]]},"properties":{"id":"21714000AN0236","reference":"AN 0236","commune":"21714","cadastreAreaM2":1066,"geometryAreaM2":1026.8469,"bounds":[4.9478911,47.1640802,4.9480979,47.1652077],"labelPoint":[4.947991609663202,47.164684449999996],"overlaps":[{"parentFeatureId":"inao-denom-1083","name":"Richebourg","areaM2":1026.8148,"parcelPercent":99.9969}],"recordedRights":[{"holderId":"348024928","siren":"348024928","name":"ANNE GROS","rightCode":"N","rightLabel":"Nu-propriétaire","legalForm":"5710","legalFormLabel":"SAS"}],"domaineLinks":[],"recordMatch":"reference-and-area","recordAreasM2":[1066]}},{"type":"Feature","id":"21714000AN0238","geometry":{"type":"Polygon","coordinates":[[[4.9480066,47.1638655],[4.9481168,47.1638667],[4.9480989,47.1640618],[4.9480834,47.1640729],[4.9480738,47.16408],[4.9479884,47.1641003],[4.9479966,47.1639967],[4.9480066,47.1638655]]]},"properties":{"id":"21714000AN0238","reference":"AN 0238","commune":"21714","cadastreAreaM2":214,"geometryAreaM2":200.9733,"bounds":[4.9479884,47.1638655,4.9481168,47.1641003],"labelPoint":[4.948056195329944,47.1639317],"overlaps":[{"parentFeatureId":"inao-denom-1083","name":"Richebourg","areaM2":200.9674,"parcelPercent":99.9971}],"recordedRights":[{"holderId":"348024928","siren":"348024928","name":"ANNE GROS","rightCode":"P","rightLabel":"Propriétaire","legalForm":"5710","legalFormLabel":"SAS"}],"domaineLinks":[],"recordMatch":"reference-and-area","recordAreasM2":[214]}},{"type":"Feature","id":"21714000AN0241","geometry":{"type":"Polygon","coordinates":[[[4.9474155,47.1642472],[4.947401,47.1644214],[4.947345,47.1650287],[4.9473391,47.1651287],[4.9472399,47.1651221],[4.947302,47.164455],[4.9473171,47.1642746],[4.947332,47.1642708],[4.9473319,47.1642668],[4.9474155,47.1642472]]]},"properties":{"id":"21714000AN0241","reference":"AN 0241","commune":"21714","cadastreAreaM2":702,"geometryAreaM2":702.2345,"bounds":[4.9472399,47.1642472,4.9474155,47.1651287],"labelPoint":[4.947323374063642,47.16474185],"overlaps":[{"parentFeatureId":"inao-denom-1083","name":"Richebourg","areaM2":702.225,"parcelPercent":99.9987}],"recordedRights":[],"domaineLinks":[],"recordMatch":"unknown","recordAreasM2":[]}},{"type":"Feature","id":"21714000AN0243","geometry":{"type":"Polygon","coordinates":[[[4.9474554,47.1651372],[4.9474786,47.164897],[4.947492,47.1647404],[4.9475266,47.1643893],[4.9475453,47.1642166],[4.9476665,47.1641875],[4.9476143,47.1647786],[4.9476031,47.1649274],[4.9475921,47.1650254],[4.9475836,47.1651234],[4.9475818,47.1651494],[4.9474554,47.1651372]]]},"properties":{"id":"21714000AN0243","reference":"AN 0243","commune":"21714","cadastreAreaM2":949,"geometryAreaM2":983.9561,"bounds":[4.9474554,47.1641875,4.9476665,47.1651494],"labelPoint":[4.947571238123836,47.164564850000005],"overlaps":[{"parentFeatureId":"inao-denom-1083","name":"Richebourg","areaM2":983.9449,"parcelPercent":99.9989}],"recordedRights":[{"holderId":"885114322","siren":"885114322","name":"GFA HERITIERS AF-GROS","rightCode":"P","rightLabel":"Propriétaire","legalForm":"6534","legalFormLabel":"GFA"}],"domaineLinks":[],"recordMatch":"reference-and-area","recordAreasM2":[949]}},{"type":"Feature","id":"21714000AN0245","geometry":{"type":"Polygon","coordinates":[[[4.9475792,47.1638585],[4.9476959,47.1638609],[4.947681,47.1640177],[4.9476681,47.1641767],[4.9475457,47.1642058],[4.9475792,47.1638585]]]},"properties":{"id":"21714000AN0245","reference":"AN 0245","commune":"21714","cadastreAreaM2":332,"geometryAreaM2":328.628,"bounds":[4.9475457,47.1638585,4.9476959,47.1642058],"labelPoint":[4.947615362690757,47.1640972],"overlaps":[{"parentFeatureId":"inao-denom-1083","name":"Richebourg","areaM2":328.6227,"parcelPercent":99.9984}],"recordedRights":[{"holderId":"885114322","siren":"885114322","name":"GFA HERITIERS AF-GROS","rightCode":"P","rightLabel":"Propriétaire","legalForm":"6534","legalFormLabel":"GFA"}],"domaineLinks":[],"recordMatch":"reference-and-area","recordAreasM2":[332]}},{"type":"Feature","id":"21714000AN0246","geometry":{"type":"Polygon","coordinates":[[[4.9473446,47.1642534],[4.9473841,47.1638539],[4.9474567,47.1638557],[4.9474188,47.1642361],[4.9473446,47.1642534]]]},"properties":{"id":"21714000AN0246","reference":"AN 0246","commune":"21714","cadastreAreaM2":232,"geometryAreaM2":238.322,"bounds":[4.9473446,47.1638539,4.9474567,47.1642534],"labelPoint":[4.94740143313517,47.1640459],"overlaps":[{"parentFeatureId":"inao-denom-1083","name":"Richebourg","areaM2":238.3202,"parcelPercent":99.9992}],"recordedRights":[],"domaineLinks":[],"recordMatch":"unknown","recordAreasM2":[]}},{"type":"Feature","id":"21714000AN0247","geometry":{"type":"Polygon","coordinates":[[[4.9479034,47.1629812],[4.9484514,47.1629999],[4.9489233,47.1630101],[4.9489202,47.1630541],[4.9491132,47.163062],[4.9491072,47.1631498],[4.9495884,47.1631766],[4.9495358,47.1632347],[4.9494871,47.1632854],[4.9492026,47.1632767],[4.9489675,47.1632711],[4.9479355,47.1632385],[4.9477322,47.1632333],[4.9477376,47.1632186],[4.947748,47.1631946],[4.9477606,47.1631711],[4.9479022,47.1629828],[4.9479034,47.1629812]]]},"properties":{"id":"21714000AN0247","reference":"AN 0247","commune":"21714","cadastreAreaM2":3199,"geometryAreaM2":3164.099,"bounds":[4.9477322,47.1629812,4.9495884,47.1632854],"labelPoint":[4.948459914922996,47.1631059],"overlaps":[{"parentFeatureId":"inao-denom-1083","name":"Richebourg","areaM2":3164.0737,"parcelPercent":99.9992}],"recordedRights":[{"holderId":"318506367","siren":"318506367","name":"JEAN GRIVOT","rightCode":"P","rightLabel":"Propriétaire","legalForm":"6534","legalFormLabel":"GFA"}],"domaineLinks":[],"recordMatch":"reference-and-area","recordAreasM2":[3199]}},{"type":"Feature","id":"21714000AN0248","geometry":{"type":"Polygon","coordinates":[[[4.9477322,47.1632333],[4.9479355,47.1632385],[4.9489675,47.1632711],[4.9492026,47.1632767],[4.9494871,47.1632854],[4.9494437,47.1633306],[4.9494058,47.163367],[4.9492049,47.1635114],[4.9490914,47.1635059],[4.9488744,47.1634944],[4.9487223,47.1634852],[4.9486574,47.1634813],[4.9484409,47.1634666],[4.9482698,47.163466],[4.9482566,47.163466],[4.9479511,47.1634633],[4.9476456,47.1634592],[4.9477322,47.1632333]]]},"properties":{"id":"21714000AN0248","reference":"AN 0248","commune":"21714","cadastreAreaM2":3112,"geometryAreaM2":3139.5719,"bounds":[4.9476456,47.1632333,4.9494871,47.1635114],"labelPoint":[4.9485024674723235,47.1634131],"overlaps":[{"parentFeatureId":"inao-denom-1083","name":"Richebourg","areaM2":3139.5395,"parcelPercent":99.999}],"recordedRights":[{"holderId":"778269498","siren":"778269498","name":"GFA MONGEARD MUGNERET ET FILS","rightCode":"P","rightLabel":"Propriétaire","legalForm":"6534","legalFormLabel":"GFA"}],"domaineLinks":[],"recordMatch":"reference-and-area","recordAreasM2":[3112]}},{"type":"Feature","id":"21714000AN0258","geometry":{"type":"Polygon","coordinates":[[[4.9495491,47.1621543],[4.9491504,47.1621602],[4.9491456,47.1620524],[4.949148,47.1620227],[4.9491531,47.1619389],[4.9491559,47.1618549],[4.949177,47.1616942],[4.9491515,47.1615376],[4.9491472,47.1614937],[4.9491396,47.161441],[4.94913,47.1613886],[4.948852,47.1613977],[4.9487984,47.1613803],[4.9487816,47.1613335],[4.948778,47.161322],[4.9487655,47.1612824],[4.9487516,47.1612313],[4.948676,47.1610554],[4.9484951,47.161054],[4.9484905,47.1610096],[4.9486646,47.1610059],[4.9488386,47.1610005],[4.9488975,47.1609983],[4.949064,47.1609972],[4.9492305,47.1609944],[4.9493133,47.1609925],[4.9494857,47.1609979],[4.94982,47.161],[4.9501669,47.1609915],[4.950666,47.1609833],[4.9507025,47.1611194],[4.9507411,47.1612551],[4.9507853,47.161402],[4.9508158,47.1615185],[4.9508405,47.1616442],[4.950843,47.1616735],[4.9508414,47.1617938],[4.9508346,47.1618286],[4.9508116,47.1618976],[4.950746,47.1620408],[4.950695,47.1621371],[4.9504509,47.1621415],[4.9502394,47.1621432],[4.950028,47.1621466],[4.9499587,47.162148],[4.9499523,47.1621176],[4.9496088,47.1621478],[4.9495491,47.1621543]]]},"properties":{"id":"21714000AN0258","reference":"AN 0258","commune":"21714","cadastreAreaM2":17213,"geometryAreaM2":17152.6276,"bounds":[4.9484905,47.1609833,4.950843,47.1621602],"labelPoint":[4.949995102844988,47.1615909],"overlaps":[{"parentFeatureId":"inao-denom-1084","name":"Romanée-Conti","areaM2":17152.2603,"parcelPercent":99.9979}],"recordedRights":[{"holderId":"778269407","siren":"778269407","name":"DOMAINE DE LA ROMANEE CONTI","rightCode":"P","rightLabel":"Propriétaire","legalForm":"6597","legalFormLabel":"SCEA"}],"domaineLinks":[],"recordMatch":"reference-and-area","recordAreasM2":[17213]}},{"type":"Feature","id":"21714000AN0259","geometry":{"type":"Polygon","coordinates":[[[4.9469381,47.1651066],[4.9469589,47.1648747],[4.9469705,47.1647124],[4.9469793,47.1646314],[4.946991,47.1644708],[4.947005,47.164309],[4.9471367,47.1643133],[4.9470661,47.1651116],[4.9469381,47.1651066]]]},"properties":{"id":"21714000AN0259","reference":"AN 0259","commune":"21714","cadastreAreaM2":847,"geometryAreaM2":872.2109,"bounds":[4.9469381,47.164309,4.9471367,47.1651116],"labelPoint":[4.947039943079043,47.1646719],"overlaps":[{"parentFeatureId":"inao-denom-1083","name":"Richebourg","areaM2":872.2066,"parcelPercent":99.9995}],"recordedRights":[],"domaineLinks":[],"recordMatch":"unknown","recordAreasM2":[]}},{"type":"Feature","id":"21714000AN0283","geometry":{"type":"Polygon","coordinates":[[[4.9472399,47.1651221],[4.9471151,47.1651146],[4.9471838,47.1643084],[4.9473171,47.1642746],[4.947302,47.164455],[4.9472399,47.1651221]]]},"properties":{"id":"21714000AN0283","reference":"AN 0283","commune":"21714","cadastreAreaM2":899,"geometryAreaM2":894.5507,"bounds":[4.9471151,47.1642746,4.9473171,47.1651221],"labelPoint":[4.9472072514281855,47.1647848],"overlaps":[{"parentFeatureId":"inao-denom-1083","name":"Richebourg","areaM2":894.5455,"parcelPercent":99.9994}],"recordedRights":[],"domaineLinks":[],"recordMatch":"unknown","recordAreasM2":[]}},{"type":"Feature","id":"21714000AN0284","geometry":{"type":"Polygon","coordinates":[[[4.9471367,47.1643133],[4.947161,47.1643142],[4.9471838,47.1643084],[4.9471151,47.1651146],[4.9470661,47.1651116],[4.9471367,47.1643133]]]},"properties":{"id":"21714000AN0284","reference":"AN 0284","commune":"21714","cadastreAreaM2":325,"geometryAreaM2":323.1274,"bounds":[4.9470661,47.1643084,4.9471838,47.1651146],"labelPoint":[4.947125345451255,47.1647129],"overlaps":[{"parentFeatureId":"inao-denom-1083","name":"Richebourg","areaM2":323.1263,"parcelPercent":99.9997}],"recordedRights":[],"domaineLinks":[],"recordMatch":"unknown","recordAreasM2":[]}},{"type":"Feature","id":"21714000AN0290","geometry":{"type":"Polygon","coordinates":[[[4.9496876,47.1630845],[4.9497033,47.1630663],[4.9507577,47.162978],[4.9507578,47.1629817],[4.9507578,47.162996],[4.9497041,47.1630832],[4.9496876,47.1630845]]]},"properties":{"id":"21714000AN0290","reference":"AN 0290","commune":"21714","cadastreAreaM2":156,"geometryAreaM2":156.2902,"bounds":[4.9496876,47.162978,4.9507578,47.1630845],"labelPoint":[4.95022804370412,47.163031149999995],"overlaps":[{"parentFeatureId":"inao-denom-1083","name":"Richebourg","areaM2":156.2782,"parcelPercent":99.9923}],"recordedRights":[{"holderId":"438871279","siren":"438871279","name":"GFV HUDELOT NOELLAT","rightCode":"P","rightLabel":"Propriétaire","legalForm":"6534","legalFormLabel":"GFA"}],"domaineLinks":[],"recordMatch":"reference-and-area","recordAreasM2":[156]}},{"type":"Feature","id":"21714000AN0291","geometry":{"type":"Polygon","coordinates":[[[4.9507529,47.1629039],[4.9507564,47.1629427],[4.9507577,47.162978],[4.9497033,47.1630663],[4.9497177,47.1630498],[4.9497645,47.1629857],[4.9503175,47.1629434],[4.9507376,47.1629053],[4.9507529,47.1629039]]]},"properties":{"id":"21714000AN0291","reference":"AN 0291","commune":"21714","cadastreAreaM2":631,"geometryAreaM2":629.8716,"bounds":[4.9497033,47.1629039,4.9507577,47.1630663],"labelPoint":[4.9502632794391825,47.16298185],"overlaps":[{"parentFeatureId":"inao-denom-1083","name":"Richebourg","areaM2":629.8496,"parcelPercent":99.9965}],"recordedRights":[{"holderId":"438871279","siren":"438871279","name":"GFV HUDELOT NOELLAT","rightCode":"P","rightLabel":"Propriétaire","legalForm":"6534","legalFormLabel":"GFA"}],"domaineLinks":[],"recordMatch":"reference-and-area","recordAreasM2":[631]}},{"type":"Feature","id":"21714000AN0292","geometry":{"type":"Polygon","coordinates":[[[4.9479929,47.1629359],[4.94846,47.1629471],[4.9484618,47.1628549],[4.9492074,47.1628633],[4.9498276,47.1628672],[4.9497209,47.1630254],[4.9489261,47.1629891],[4.9489233,47.1630101],[4.9484514,47.1629999],[4.9479034,47.1629812],[4.9479228,47.162955],[4.9479929,47.1629359]]]},"properties":{"id":"21714000AN0292","reference":"AN 0292","commune":"21714","cadastreAreaM2":1816,"geometryAreaM2":1832.619,"bounds":[4.9479034,47.1628549,4.9498276,47.1630254],"labelPoint":[4.949118798374267,47.1629415],"overlaps":[{"parentFeatureId":"inao-denom-1083","name":"Richebourg","areaM2":1832.5982,"parcelPercent":99.9989}],"recordedRights":[],"domaineLinks":[],"recordMatch":"unknown","recordAreasM2":[]}},{"type":"Feature","id":"21714000AN0293","geometry":{"type":"Polygon","coordinates":[[[4.9484639,47.162746],[4.9484653,47.1626446],[4.9492309,47.1626497],[4.9500939,47.1626572],[4.9500108,47.1626917],[4.9499238,47.1627538],[4.9498699,47.1628046],[4.9498276,47.1628672],[4.9492074,47.1628633],[4.9484618,47.1628549],[4.9484639,47.162746]]]},"properties":{"id":"21714000AN0293","reference":"AN 0293","commune":"21714","cadastreAreaM2":2635,"geometryAreaM2":2620.5103,"bounds":[4.9484618,47.1626446,4.9500939,47.1628672],"labelPoint":[4.949180054889805,47.1627792],"overlaps":[{"parentFeatureId":"inao-denom-1083","name":"Richebourg","areaM2":2620.5006,"parcelPercent":99.9996}],"recordedRights":[],"domaineLinks":[],"recordMatch":"unknown","recordAreasM2":[]}},{"type":"Feature","id":"21714000AN0294","geometry":{"type":"Polygon","coordinates":[[[4.9479929,47.1629359],[4.9479882,47.1628495],[4.9484618,47.1628549],[4.94846,47.1629471],[4.9479929,47.1629359]]]},"properties":{"id":"21714000AN0294","reference":"AN 0294","commune":"21714","cadastreAreaM2":351,"geometryAreaM2":353.3388,"bounds":[4.9479882,47.1628495,4.9484618,47.1629471],"labelPoint":[4.948225853101274,47.1628954],"overlaps":[{"parentFeatureId":"inao-denom-1083","name":"Richebourg","areaM2":353.3191,"parcelPercent":99.9944}],"recordedRights":[],"domaineLinks":[],"recordMatch":"unknown","recordAreasM2":[]}},{"type":"Feature","id":"21714000AN0295","geometry":{"type":"Polygon","coordinates":[[[4.9479822,47.1627381],[4.9484639,47.162746],[4.9484618,47.1628549],[4.9479882,47.1628495],[4.9479822,47.1627381]]]},"properties":{"id":"21714000AN0295","reference":"AN 0295","commune":"21714","cadastreAreaM2":448,"geometryAreaM2":442.6202,"bounds":[4.9479822,47.1627381,4.9484639,47.1628549],"labelPoint":[4.948224157406487,47.162797749999996],"overlaps":[{"parentFeatureId":"inao-denom-1083","name":"Richebourg","areaM2":442.6041,"parcelPercent":99.9964}],"recordedRights":[],"domaineLinks":[],"recordMatch":"unknown","recordAreasM2":[]}},{"type":"Feature","id":"21714000AN0296","geometry":{"type":"Polygon","coordinates":[[[4.9478911,47.1651915],[4.9478744,47.165189],[4.9479197,47.1646855],[4.9479058,47.1646849],[4.9479558,47.1641175],[4.9479868,47.16411],[4.9479605,47.1644205],[4.9479458,47.1645703],[4.9478911,47.1651915]]]},"properties":{"id":"21714000AN0296","reference":"AN 0296","commune":"21714","cadastreAreaM2":218,"geometryAreaM2":217.1072,"bounds":[4.9478744,47.16411,4.9479868,47.1651915],"labelPoint":[4.9479258018874095,47.1646276],"overlaps":[{"parentFeatureId":"inao-denom-1083","name":"Richebourg","areaM2":217.1048,"parcelPercent":99.9989}],"recordedRights":[],"domaineLinks":[],"recordMatch":"unknown","recordAreasM2":[]}},{"type":"Feature","id":"21714000AN0297","geometry":{"type":"Polygon","coordinates":[[[4.9475818,47.1651494],[4.9475836,47.1651234],[4.9475921,47.1650254],[4.9476031,47.1649274],[4.9476143,47.1647786],[4.9476665,47.1641875],[4.9479558,47.1641175],[4.9479058,47.1646849],[4.9479197,47.1646855],[4.9478744,47.165189],[4.9477715,47.1651739],[4.9476512,47.165158],[4.9475818,47.1651494]]]},"properties":{"id":"21714000AN0297","reference":"AN 0297","commune":"21714","cadastreAreaM2":2491,"geometryAreaM2":2474.6216,"bounds":[4.9475818,47.1641175,4.9479558,47.165189],"labelPoint":[4.9477861265381655,47.1644362],"overlaps":[{"parentFeatureId":"inao-denom-1083","name":"Richebourg","areaM2":2474.6141,"parcelPercent":99.9997}],"recordedRights":[],"domaineLinks":[],"recordMatch":"unknown","recordAreasM2":[]}},{"type":"Feature","id":"21714000AN0298","geometry":{"type":"Polygon","coordinates":[[[4.9479966,47.1639967],[4.9479884,47.1641003],[4.9479706,47.1641045],[4.9479798,47.163996],[4.9479966,47.1639967]]]},"properties":{"id":"21714000AN0298","reference":"AN 0298","commune":"21714","cadastreAreaM2":15,"geometryAreaM2":15.3099,"bounds":[4.9479706,47.163996,4.9479966,47.1641045],"labelPoint":[4.947983924193548,47.1640485],"overlaps":[{"parentFeatureId":"inao-denom-1083","name":"Richebourg","areaM2":15.3099,"parcelPercent":100.0}],"recordedRights":[],"domaineLinks":[],"recordMatch":"unknown","recordAreasM2":[]}},{"type":"Feature","id":"21714000AN0299","geometry":{"type":"Polygon","coordinates":[[[4.9479773,47.1638651],[4.9480066,47.1638655],[4.9479966,47.1639967],[4.9479798,47.163996],[4.9479706,47.1641045],[4.9479568,47.1641078],[4.9479773,47.1638651]]]},"properties":{"id":"21714000AN0299","reference":"AN 0299","commune":"21714","cadastreAreaM2":46,"geometryAreaM2":45.4502,"bounds":[4.9479568,47.1638651,4.9480066,47.1641078],"labelPoint":[4.947986690728197,47.16393075],"overlaps":[{"parentFeatureId":"inao-denom-1083","name":"Richebourg","areaM2":45.4502,"parcelPercent":100.0}],"recordedRights":[],"domaineLinks":[],"recordMatch":"unknown","recordAreasM2":[]}},{"type":"Feature","id":"21714000AN0300","geometry":{"type":"Polygon","coordinates":[[[4.9476959,47.1638609],[4.9479773,47.1638651],[4.9479568,47.1641078],[4.9476681,47.1641767],[4.947681,47.1640177],[4.9476959,47.1638609]]]},"properties":{"id":"21714000AN0300","reference":"AN 0300","commune":"21714","cadastreAreaM2":669,"geometryAreaM2":664.6889,"bounds":[4.9476681,47.1638609,4.9479773,47.1641767],"labelPoint":[4.947818975106098,47.16406275],"overlaps":[{"parentFeatureId":"inao-denom-1083","name":"Richebourg","areaM2":664.6798,"parcelPercent":99.9986}],"recordedRights":[],"domaineLinks":[],"recordMatch":"unknown","recordAreasM2":[]}},{"type":"Feature","id":"21714000AN0301","geometry":{"type":"Polygon","coordinates":[[[4.9474554,47.1651372],[4.947428,47.1651352],[4.9475102,47.1642248],[4.9475453,47.1642166],[4.9475266,47.1643893],[4.947492,47.1647404],[4.9474786,47.164897],[4.9474554,47.1651372]]]},"properties":{"id":"21714000AN0301","reference":"AN 0301","commune":"21714","cadastreAreaM2":227,"geometryAreaM2":229.4251,"bounds":[4.947428,47.1642166,4.9475453,47.1651372],"labelPoint":[4.947494398445738,47.164564850000005],"overlaps":[{"parentFeatureId":"inao-denom-1083","name":"Richebourg","areaM2":229.4194,"parcelPercent":99.9975}],"recordedRights":[],"domaineLinks":[],"recordMatch":"unknown","recordAreasM2":[]}},{"type":"Feature","id":"21714000AN0302","geometry":{"type":"Polygon","coordinates":[[[4.9474155,47.1642472],[4.9475102,47.1642248],[4.947428,47.1651352],[4.9473391,47.1651287],[4.947345,47.1650287],[4.947401,47.1644214],[4.9474155,47.1642472]]]},"properties":{"id":"21714000AN0302","reference":"AN 0302","commune":"21714","cadastreAreaM2":683,"geometryAreaM2":693.0432,"bounds":[4.9473391,47.1642248,4.9475102,47.1651352],"labelPoint":[4.947419016218146,47.16472505],"overlaps":[{"parentFeatureId":"inao-denom-1083","name":"Richebourg","areaM2":693.0143,"parcelPercent":99.9958}],"recordedRights":[],"domaineLinks":[],"recordMatch":"unknown","recordAreasM2":[]}},{"type":"Feature","id":"21714000AN0303","geometry":{"type":"Polygon","coordinates":[[[4.9475612,47.1638581],[4.9475652,47.1638582],[4.9475792,47.1638585],[4.9475457,47.1642058],[4.947528,47.16421],[4.9475322,47.1641521],[4.9475389,47.1640915],[4.9475393,47.164087],[4.9475504,47.1639709],[4.9475612,47.1638581]]]},"properties":{"id":"21714000AN0303","reference":"AN 0303","commune":"21714","cadastreAreaM2":52,"geometryAreaM2":52.9889,"bounds":[4.947528,47.1638581,4.9475792,47.16421],"labelPoint":[4.947553804333429,47.16402895],"overlaps":[{"parentFeatureId":"inao-denom-1083","name":"Richebourg","areaM2":52.9889,"parcelPercent":100.0}],"recordedRights":[],"domaineLinks":[],"recordMatch":"unknown","recordAreasM2":[]}},{"type":"Feature","id":"21714000AN0304","geometry":{"type":"Polygon","coordinates":[[[4.9475111,47.1642141],[4.9475169,47.1641515],[4.9475322,47.1641521],[4.947528,47.16421],[4.9475111,47.1642141]]]},"properties":{"id":"21714000AN0304","reference":"AN 0304","commune":"21714","cadastreAreaM2":8,"geometryAreaM2":8.0887,"bounds":[4.9475111,47.1641515,4.9475322,47.1642141],"labelPoint":[4.947522131070288,47.164181049999996],"overlaps":[{"parentFeatureId":"inao-denom-1083","name":"Richebourg","areaM2":8.0885,"parcelPercent":99.9973}],"recordedRights":[],"domaineLinks":[],"recordMatch":"unknown","recordAreasM2":[]}},{"type":"Feature","id":"21714000AN0305","geometry":{"type":"Polygon","coordinates":[[[4.9475169,47.1641515],[4.9475227,47.1640864],[4.9475393,47.164087],[4.9475389,47.1640915],[4.9475322,47.1641521],[4.9475169,47.1641515]]]},"properties":{"id":"21714000AN0305","reference":"AN 0305","commune":"21714","cadastreAreaM2":9,"geometryAreaM2":8.7947,"bounds":[4.9475169,47.1640864,4.9475393,47.1641521],"labelPoint":[4.947527577989689,47.1641215],"overlaps":[{"parentFeatureId":"inao-denom-1083","name":"Richebourg","areaM2":8.7947,"parcelPercent":100.0}],"recordedRights":[],"domaineLinks":[],"recordMatch":"unknown","recordAreasM2":[]}},{"type":"Feature","id":"21714000AN0306","geometry":{"type":"Polygon","coordinates":[[[4.9475227,47.1640864],[4.9475333,47.1639701],[4.9475504,47.1639709],[4.9475393,47.164087],[4.9475227,47.1640864]]]},"properties":{"id":"21714000AN0306","reference":"AN 0306","commune":"21714","cadastreAreaM2":16,"geometryAreaM2":16.5395,"bounds":[4.9475227,47.1639701,4.9475504,47.164087],"labelPoint":[4.947536421112366,47.164028650000006],"overlaps":[{"parentFeatureId":"inao-denom-1083","name":"Richebourg","areaM2":16.5395,"parcelPercent":100.0}],"recordedRights":[],"domaineLinks":[],"recordMatch":"unknown","recordAreasM2":[]}},{"type":"Feature","id":"21714000AN0307","geometry":{"type":"Polygon","coordinates":[[[4.9475436,47.1638576],[4.9475612,47.1638581],[4.9475504,47.1639709],[4.9475333,47.1639701],[4.9475436,47.1638576]]]},"properties":{"id":"21714000AN0307","reference":"AN 0307","commune":"21714","cadastreAreaM2":16,"geometryAreaM2":16.5039,"bounds":[4.9475333,47.1638576,4.9475612,47.1639709],"labelPoint":[4.947547132704492,47.1639141],"overlaps":[{"parentFeatureId":"inao-denom-1083","name":"Richebourg","areaM2":16.5039,"parcelPercent":100.0}],"recordedRights":[],"domaineLinks":[],"recordMatch":"unknown","recordAreasM2":[]}},{"type":"Feature","id":"21714000AN0308","geometry":{"type":"Polygon","coordinates":[[[4.9474567,47.1638557],[4.9475436,47.1638576],[4.9475333,47.1639701],[4.9475227,47.1640864],[4.9475169,47.1641515],[4.9475111,47.1642141],[4.9474188,47.1642361],[4.9474567,47.1638557]]]},"properties":{"id":"21714000AN0308","reference":"AN 0308","commune":"21714","cadastreAreaM2":269,"geometryAreaM2":274.7916,"bounds":[4.9474188,47.1638557,4.9475436,47.1642361],"labelPoint":[4.947483754252103,47.16402825],"overlaps":[{"parentFeatureId":"inao-denom-1083","name":"Richebourg","areaM2":274.7785,"parcelPercent":99.9952}],"recordedRights":[],"domaineLinks":[],"recordMatch":"unknown","recordAreasM2":[]}},{"type":"Feature","id":"21714000AN0309","geometry":{"type":"Polygon","coordinates":[[[4.9464425,47.1642644],[4.9465059,47.1642698],[4.9464331,47.1650871],[4.9463739,47.1650849],[4.9463852,47.1649301],[4.9464425,47.1642644]]]},"properties":{"id":"21714000AN0309","reference":"AN 0309","commune":"21714","cadastreAreaM2":437,"geometryAreaM2":430.3278,"bounds":[4.9463739,47.1642644,4.9465059,47.1650871],"labelPoint":[4.946445054944855,47.164599949999996],"overlaps":[{"parentFeatureId":"inao-denom-1083","name":"Richebourg","areaM2":430.3084,"parcelPercent":99.9955}],"recordedRights":[],"domaineLinks":[],"recordMatch":"unknown","recordAreasM2":[]}},{"type":"Feature","id":"21714000AN0310","geometry":{"type":"Polygon","coordinates":[[[4.9465495,47.1642736],[4.9464761,47.1650887],[4.9464331,47.1650871],[4.9465059,47.1642698],[4.9465495,47.1642736]]]},"properties":{"id":"21714000AN0310","reference":"AN 0310","commune":"21714","cadastreAreaM2":304,"geometryAreaM2":299.042,"bounds":[4.9464331,47.1642698,4.9465495,47.1650887],"labelPoint":[4.94649110140003,47.16468035],"overlaps":[{"parentFeatureId":"inao-denom-1083","name":"Richebourg","areaM2":299.0323,"parcelPercent":99.9967}],"recordedRights":[],"domaineLinks":[],"recordMatch":"unknown","recordAreasM2":[]}},{"type":"Feature","id":"21714000AN0311","geometry":{"type":"Polygon","coordinates":[[[4.9465495,47.1642736],[4.9465921,47.1642773],[4.9465195,47.1650903],[4.9464761,47.1650887],[4.9465495,47.1642736]]]},"properties":{"id":"21714000AN0311","reference":"AN 0311","commune":"21714","cadastreAreaM2":299,"geometryAreaM2":296.1707,"bounds":[4.9464761,47.1642736,4.9465921,47.1650903],"labelPoint":[4.94653425242303,47.164683],"overlaps":[{"parentFeatureId":"inao-denom-1083","name":"Richebourg","areaM2":296.1707,"parcelPercent":100.0}],"recordedRights":[],"domaineLinks":[],"recordMatch":"unknown","recordAreasM2":[]}},{"type":"Feature","id":"21714000AN0312","geometry":{"type":"Polygon","coordinates":[[[4.9465919,47.1650931],[4.9465195,47.1650903],[4.9465921,47.1642773],[4.9466634,47.1642834],[4.9465919,47.1650931]]]},"properties":{"id":"21714000AN0312","reference":"AN 0312","commune":"21714","cadastreAreaM2":501,"geometryAreaM2":493.2262,"bounds":[4.9465195,47.1642773,4.9466634,47.1650931],"labelPoint":[4.946591650632206,47.16468685],"overlaps":[{"parentFeatureId":"inao-denom-1083","name":"Richebourg","areaM2":493.2193,"parcelPercent":99.9986}],"recordedRights":[],"domaineLinks":[],"recordMatch":"unknown","recordAreasM2":[]}},{"type":"Feature","id":"21714000AN0313","geometry":{"type":"Polygon","coordinates":[[[4.9466997,47.1642865],[4.9466725,47.1645996],[4.9466607,47.1647605],[4.9466469,47.1648975],[4.946635,47.1650343],[4.9466305,47.1650945],[4.9465919,47.1650931],[4.9466634,47.1642834],[4.9466997,47.1642865]]]},"properties":{"id":"21714000AN0313","reference":"AN 0313","commune":"21714","cadastreAreaM2":259,"geometryAreaM2":256.3628,"bounds":[4.9465919,47.1642834,4.9466997,47.1650945],"labelPoint":[4.946647487047672,47.16468005],"overlaps":[{"parentFeatureId":"inao-denom-1083","name":"Richebourg","areaM2":256.3505,"parcelPercent":99.9952}],"recordedRights":[],"domaineLinks":[],"recordMatch":"unknown","recordAreasM2":[]}},{"type":"Feature","id":"21714000AN0314","geometry":{"type":"Polygon","coordinates":[[[4.9469381,47.1651066],[4.9468978,47.1651051],[4.9469441,47.1645944],[4.9469705,47.1643069],[4.947005,47.164309],[4.946991,47.1644708],[4.9469793,47.1646314],[4.9469705,47.1647124],[4.9469589,47.1648747],[4.9469381,47.1651066]]]},"properties":{"id":"21714000AN0314","reference":"AN 0314","commune":"21714","cadastreAreaM2":254,"geometryAreaM2":255.2184,"bounds":[4.9468978,47.1643069,4.947005,47.1651066],"labelPoint":[4.946955986929704,47.1646719],"overlaps":[{"parentFeatureId":"inao-denom-1083","name":"Richebourg","areaM2":255.2035,"parcelPercent":99.9942}],"recordedRights":[],"domaineLinks":[],"recordMatch":"unknown","recordAreasM2":[]}},{"type":"Feature","id":"21714000AN0315","geometry":{"type":"Polygon","coordinates":[[[4.946884,47.1651045],[4.9469291,47.1645938],[4.9469441,47.1645944],[4.9468978,47.1651051],[4.946884,47.1651045]]]},"properties":{"id":"21714000AN0315","reference":"AN 0315","commune":"21714","cadastreAreaM2":62,"geometryAreaM2":62.1116,"bounds":[4.946884,47.1645938,4.9469441,47.1651051],"labelPoint":[4.946913750352458,47.16484945],"overlaps":[{"parentFeatureId":"inao-denom-1083","name":"Richebourg","areaM2":62.1071,"parcelPercent":99.9929}],"recordedRights":[],"domaineLinks":[],"recordMatch":"unknown","recordAreasM2":[]}},{"type":"Feature","id":"21714000AN0316","geometry":{"type":"Polygon","coordinates":[[[4.9468343,47.1651025],[4.9469019,47.164303],[4.9469705,47.1643069],[4.9469441,47.1645944],[4.9469291,47.1645938],[4.946884,47.1651045],[4.9468343,47.1651025]]]},"properties":{"id":"21714000AN0316","reference":"AN 0316","commune":"21714","cadastreAreaM2":382,"geometryAreaM2":383.06,"bounds":[4.9468343,47.164303,4.9469705,47.1651045],"labelPoint":[4.94688119623376,47.16484845],"overlaps":[{"parentFeatureId":"inao-denom-1083","name":"Richebourg","areaM2":383.0266,"parcelPercent":99.9913}],"recordedRights":[],"domaineLinks":[],"recordMatch":"unknown","recordAreasM2":[]}},{"type":"Feature","id":"21714000AN0317","geometry":{"type":"Polygon","coordinates":[[[4.9467014,47.1642867],[4.9466624,47.1647606],[4.9466322,47.1650946],[4.9466305,47.1650945],[4.946635,47.1650343],[4.9466469,47.1648975],[4.9466607,47.1647605],[4.9466725,47.1645996],[4.9466997,47.1642865],[4.9467014,47.1642867]]]},"properties":{"id":"21714000AN0317","reference":"AN 0317","commune":"21714","cadastreAreaM2":9,"geometryAreaM2":16.9102,"bounds":[4.9466305,47.1642865,4.9467014,47.1650946],"labelPoint":[4.946667814465077,47.16468005],"overlaps":[{"parentFeatureId":"inao-denom-1083","name":"Richebourg","areaM2":16.9099,"parcelPercent":99.9981}],"recordedRights":[],"domaineLinks":[],"recordMatch":"unknown","recordAreasM2":[]}},{"type":"Feature","id":"21714000AN0318","geometry":{"type":"Polygon","coordinates":[[[4.9467014,47.1642867],[4.9467943,47.1642952],[4.9468892,47.1643024],[4.9469019,47.164303],[4.9468343,47.1651025],[4.9466322,47.1650946],[4.9466624,47.1647606],[4.9467014,47.1642867]]]},"properties":{"id":"21714000AN0318","reference":"AN 0318","commune":"21714","cadastreAreaM2":1365,"geometryAreaM2":1361.9514,"bounds":[4.9466322,47.1642867,4.9469019,47.1651025],"labelPoint":[4.946781891798912,47.1645318],"overlaps":[{"parentFeatureId":"inao-denom-1083","name":"Richebourg","areaM2":1361.9138,"parcelPercent":99.9972}],"recordedRights":[],"domaineLinks":[],"recordMatch":"unknown","recordAreasM2":[]}}]}
