{"type":"FeatureCollection","features":[{"type":"Feature","id":"inao-denom-546","properties":{"id":"inao-denom-546","name":"Clos de Vougeot","tier":"grand_cru","kind":"vineyard","appellationId":162,"denominationId":546,"sourceName":"Clos de Vougeot ou Clos Vougeot","communes":["21716"],"areaHa":51.12},"geometry":{"type":"Polygon","coordinates":[[[4.963279126890941,47.174852047663975],[4.963278046990165,47.174822437465345],[4.963272428855736,47.17479187758145],[4.963257850318148,47.174720593101476],[4.963217742689446,47.174525094631385],[4.963197695583706,47.17442734527384],[4.963179063496775,47.174368395177865],[4.963122145208049,47.17424572204522],[4.963090449039297,47.17415736493387],[4.963060406627105,47.17407306832732],[4.963013261091138,47.173930813296856],[4.962989732264676,47.173860707167],[4.962947745091278,47.17373676314393],[4.9629326329329295,47.17365118671484],[4.962912139705009,47.1735411791863],[4.962889894563596,47.17342405088352],[4.962860639048024,47.17327945718283],[4.962830128604379,47.1731410085747],[4.962828288935829,47.17313184501538],[4.962825941034103,47.17310838012503],[4.962826538904613,47.17308384765543],[4.962828117724614,47.17288048273628],[4.9627990093508805,47.17278084261907],[4.96278704072393,47.17274017797518],[4.962748050586439,47.17261617403335],[4.962704610937026,47.17249328115688],[4.962677714708883,47.17241301063813],[4.962642071685775,47.17225727709773],[4.962600960688247,47.17207507862217],[4.962599208773583,47.172067957848085],[4.96258876892828,47.17202828489813],[4.962585028140435,47.172007905523984],[4.96257987076759,47.17198960344852],[4.9625659884199855,47.171937732185945],[4.96249001727833,47.1716212382108],[4.962479391576522,47.1715764622026],[4.9624707914676955,47.171545952805054],[4.9624460599415,47.17144316745683],[4.96240911319827,47.171292571111344],[4.962407124720743,47.171279321505004],[4.962386354003431,47.17107940624867],[4.962379223810282,47.17100697770238],[4.962370663542121,47.17093661767452],[4.962376523706347,47.17068617962978],[4.962378405517539,47.17061462495426],[4.962380321780029,47.17058495491647],[4.962380808284737,47.170557362399684],[4.962384752997902,47.17050110034893],[4.962388436893725,47.17043768323505],[4.9623920837098705,47.17037324911073],[4.9623944493807475,47.17031496954187],[4.962397311807804,47.1702699558634],[4.962399526256305,47.17024846689272],[4.962399116834491,47.170237234794904],[4.962400086890223,47.170222908390095],[4.962403010908195,47.170179946951556],[4.962407253123612,47.17013184796351],[4.962408124831572,47.17011446130754],[4.962405987457369,47.17009712565957],[4.962383151698707,47.169922785323884],[4.962364468343226,47.16973917982754],[4.962363389047943,47.16970956956362],[4.962373362505784,47.16965422293786],[4.962407323444076,47.16947585787381],[4.9624160901701915,47.16942870881723],[4.962437118751812,47.1693067581607],[4.9624396677693445,47.169294449264605],[4.962442142643324,47.16928010634997],[4.962455672372849,47.169199150410286],[4.962470693705694,47.16911817818551],[4.962483737241697,47.169064823770576],[4.962536294172197,47.168862638636156],[4.962602933901085,47.168676559949844],[4.9626169104221125,47.1686078710866],[4.962635314489676,47.16849617724133],[4.962641569000284,47.16846235406413],[4.962648583554177,47.16840808418885],[4.962653271945675,47.16837223427423],[4.962659526430607,47.16833841109451],[4.962777993448571,47.16764260739939],[4.962742057681628,47.167643216698075],[4.96231673225001,47.16764838305251],[4.961845811004721,47.16767679867241],[4.961641009523976,47.167689464088674],[4.9614159819792585,47.16772291465929],[4.961133874996454,47.16775221658554],[4.961085993163503,47.16775404538568],[4.960677434359664,47.16776709878455],[4.960523361102842,47.16777379680989],[4.960257723439724,47.16780281766528],[4.960250264801938,47.167803970609334],[4.960066754118131,47.16782546745632],[4.959883145091741,47.16784390375703],[4.959717459968566,47.16786100969166],[4.959509983098077,47.167882920371866],[4.958716990365847,47.16799544771507],[4.958097652291259,47.168063147160964],[4.957978431166653,47.1680804912892],[4.957911343191979,47.168089803094894],[4.9578740881598184,47.168095539384026],[4.957821941724722,47.1681035717901],[4.95776979527407,47.16811160417269],[4.957670621005762,47.168144963177006],[4.957608775694539,47.16817461992673],[4.957563164474932,47.168197869286736],[4.957545908502163,47.16821757722993],[4.9575350762592265,47.168249433211635],[4.957530050035225,47.16827608481965],[4.957535508028865,47.16842619746267],[4.957540959765718,47.16861717775785],[4.9575278193470576,47.168626594708336],[4.957377579875751,47.16865672836502],[4.957191032030575,47.16867724529042],[4.956847709212025,47.1687126867814],[4.956505815875898,47.1687460498037],[4.956144368806607,47.1687777069517],[4.955772813303263,47.1688197461201],[4.955667088092107,47.16883787745139],[4.955577624124031,47.168849610163825],[4.955561339066257,47.1688549914515],[4.955536697144108,47.16887788575459],[4.9555979770188285,47.16908018856889],[4.955623814650985,47.16917273516252],[4.955635716387891,47.16921136635522],[4.955616785497105,47.1692678812474],[4.9556004556147615,47.16931311317843],[4.955581784550666,47.16937678314266],[4.955560287694959,47.169527351060914],[4.955544901405813,47.16964001014262],[4.955547163973614,47.16970229983251],[4.955554729736501,47.16978697796972],[4.955557013312612,47.16980839979115],[4.955623099016612,47.16997792194954],[4.955636026064702,47.17004513766553],[4.955647127999809,47.17010318947171],[4.955658044586638,47.170156138220115],[4.955667605077222,47.17021319842722],[4.955682370919038,47.17028958681506],[4.9556990731261354,47.170378199136785],[4.955706177856799,47.170408734244525],[4.95571043511959,47.17044340600647],[4.955708589076695,47.17047510995717],[4.95569432310564,47.17057752871561],[4.955683704570076,47.17065639019105],[4.955675161772772,47.17066879115251],[4.955645319509231,47.17071323368883],[4.955536669794015,47.170857096634606],[4.955493651742739,47.17095182391458],[4.955460384514319,47.171025961731836],[4.955415191813828,47.171184080216996],[4.95539674217259,47.17125387017123],[4.9553836673429394,47.17130620651028],[4.9553787509132485,47.17133591802657],[4.955339165431249,47.17148372037481],[4.955328397789439,47.17155849574829],[4.955350708084497,47.17176043006574],[4.955360223652354,47.17185734086457],[4.955366875541622,47.17191649446023],[4.955350309159552,47.171955606471165],[4.95524613521916,47.17201662283709],[4.955114001270369,47.17209140357231],[4.955096396238187,47.17210192224996],[4.95509347443141,47.17210401586614],[4.955072923520281,47.172115601922854],[4.954955570287095,47.17218501767109],[4.954839782670626,47.17225646013694],[4.954782714907237,47.17229420264428],[4.95474909623461,47.17231724828823],[4.954741798416822,47.17232248669486],[4.954715724133622,47.17234744921902],[4.954692733222986,47.172374403950634],[4.954674192465802,47.17240025690198],[4.954594112039444,47.17250583086089],[4.954512502958935,47.17261041292842],[4.9545081506610655,47.172614574951915],[4.954228576525656,47.17292072117095],[4.954095014716174,47.17308033055529],[4.9540781131760125,47.17311024427295],[4.9540606842368105,47.173166742432485],[4.954054423789604,47.173200565086375],[4.954120432485749,47.17349168285935],[4.954132506139325,47.17353541741823],[4.954138563596318,47.173578226882924],[4.954140833571182,47.173599648924636],[4.9541315681600375,47.1736743897308],[4.953585584270616,47.1736182142681],[4.953478848549811,47.173608776287296],[4.953492528034401,47.17369641313712],[4.9535243027046345,47.17391148011781],[4.9535319994521,47.1739583504836],[4.953574430141733,47.174219211224894],[4.953596312590447,47.17436801976263],[4.953621160226421,47.17459853109253],[4.953650226798586,47.17486267916726],[4.953659734284889,47.174876828632804],[4.953701719043791,47.17491903184332],[4.9539066641358644,47.17511583981083],[4.953925308560688,47.17513392359885],[4.954178270386008,47.17537385905456],[4.954266668599913,47.1754561550772],[4.954397556744003,47.175553061323505],[4.954502218750079,47.17562894981824],[4.954496967802581,47.17564947216474],[4.954503404944472,47.17566162011759],[4.95451103720389,47.17566557981675],[4.954523170366029,47.17566946353369],[4.954535192424412,47.175670287221344],[4.954547089851079,47.17566804210255],[4.954652657746254,47.17581033146385],[4.955014607391296,47.17628649710841],[4.955082448088817,47.17629761718827],[4.955228720616727,47.17632273127225],[4.955373600043772,47.176350939610316],[4.955523017854465,47.176380097755036],[4.955790423434185,47.17643995302642],[4.955793419677221,47.17643990241333],[4.955816070308958,47.17644462596735],[4.955840114484813,47.17644626407243],[4.955864071232063,47.176445859378276],[4.955882048691748,47.17644555568717],[4.955917916178404,47.17644290550239],[4.955953709427383,47.176438212289305],[4.956068499230528,47.17642197212772],[4.956187529911287,47.17639850074612],[4.9562304731706455,47.17638449192362],[4.9561677102672155,47.17634774683448],[4.956189531348088,47.17633000635038],[4.9562307975863815,47.176310919684816],[4.956280977924982,47.17628962911036],[4.956291309978634,47.176285374997214],[4.9563440140715835,47.17633352897548],[4.956357750245675,47.1763404473225],[4.956375950417469,47.176346272605684],[4.956397059380647,47.176350004463394],[4.956425628250981,47.17635258362372],[4.956464714646575,47.17635601169078],[4.956505144056529,47.176355328506645],[4.956579355604838,47.176335684988466],[4.956923718786437,47.176245050301695],[4.957268229703162,47.17615850962098],[4.957544706720058,47.17609661381921],[4.958139407027908,47.175967007987964],[4.958395057236252,47.17590955089888],[4.958533220206003,47.175876558716716],[4.958652137266626,47.1758500247731],[4.958788869564618,47.17581910075629],[4.9588958891000186,47.17579481211629],[4.958953886537171,47.175782591828494],[4.959199686765079,47.175742671413445],[4.959400816958307,47.175710656912706],[4.959452933178601,47.17570159781066],[4.959518488652138,47.17569129359708],[4.9598441311178725,47.17562140963462],[4.959894705453651,47.17561135879651],[4.960599879322314,47.175470675242025],[4.961055086609809,47.17537917757801],[4.961903905938494,47.1752329818878],[4.963029372281564,47.17502998308159],[4.96321039630045,47.1749809399277],[4.963248997659844,47.174971081617976],[4.963259641765293,47.17493412214796],[4.963269302420587,47.17491148028722],[4.963275705969548,47.174881734184375],[4.963279126890941,47.174852047663975]]]}},{"type":"Feature","id":"inao-denom-1278","properties":{"id":"inao-denom-1278","name":"Vougeot","tier":"village","kind":"appellation","appellationId":242,"denominationId":1278,"sourceName":"Vougeot","communes":["21716"],"areaHa":67.85},"geometry":{"type":"MultiPolygon","coordinates":[[[[4.963278046990165,47.174822437465345],[4.963272428855736,47.17479187758145],[4.963257850318148,47.174720593101476],[4.963217742689446,47.174525094631385],[4.963197695583706,47.17442734527384],[4.963179063496775,47.174368395177865],[4.963122145208049,47.17424572204522],[4.963090449039297,47.17415736493387],[4.963060406627105,47.17407306832732],[4.963013261091138,47.173930813296856],[4.962989732264676,47.173860707167],[4.962947745091278,47.17373676314393],[4.9629326329329295,47.17365118671484],[4.962912139705009,47.1735411791863],[4.962889894563596,47.17342405088352],[4.962860639048024,47.17327945718283],[4.962830128604379,47.1731410085747],[4.962828288935829,47.17313184501538],[4.962825941034103,47.17310838012503],[4.962826538904613,47.17308384765543],[4.962828117724614,47.17288048273628],[4.9627990093508805,47.17278084261907],[4.96278704072393,47.17274017797518],[4.962748050586439,47.17261617403335],[4.962704610937026,47.17249328115688],[4.962677714708883,47.17241301063813],[4.962642071685775,47.17225727709773],[4.962600960688247,47.17207507862217],[4.962599208773583,47.172067957848085],[4.96258876892828,47.17202828489813],[4.962585028140435,47.172007905523984],[4.96257987076759,47.17198960344852],[4.9625659884199855,47.171937732185945],[4.96249001727833,47.1716212382108],[4.962479391576522,47.1715764622026],[4.9624707914676955,47.171545952805054],[4.9624460599415,47.17144316745683],[4.96240911319827,47.171292571111344],[4.962407124720743,47.171279321505004],[4.962386354003431,47.17107940624867],[4.962379223810282,47.17100697770238],[4.962370663542121,47.17093661767452],[4.962376523706347,47.17068617962978],[4.962378405517539,47.17061462495426],[4.962380321780029,47.17058495491647],[4.962380808284737,47.170557362399684],[4.962384752997902,47.17050110034893],[4.962388436893725,47.17043768323505],[4.9623920837098705,47.17037324911073],[4.9623944493807475,47.17031496954187],[4.962397311807804,47.1702699558634],[4.962399526256305,47.17024846689272],[4.962399116834491,47.170237234794904],[4.962400086890223,47.170222908390095],[4.962403010908195,47.170179946951556],[4.962407253123612,47.17013184796351],[4.962408124831572,47.17011446130754],[4.962405987457369,47.17009712565957],[4.962383151698707,47.169922785323884],[4.962364468343226,47.16973917982754],[4.962363389047943,47.16970956956362],[4.962373362505784,47.16965422293786],[4.962407323444076,47.16947585787381],[4.9624160901701915,47.16942870881723],[4.962437118751812,47.1693067581607],[4.9624396677693445,47.169294449264605],[4.962442142643324,47.16928010634997],[4.962455672372849,47.169199150410286],[4.962470693705694,47.16911817818551],[4.962483737241697,47.169064823770576],[4.962536294172197,47.168862638636156],[4.962602933901085,47.168676559949844],[4.9626169104221125,47.1686078710866],[4.962635314489676,47.16849617724133],[4.962641569000284,47.16846235406413],[4.962648583554177,47.16840808418885],[4.962653271945675,47.16837223427423],[4.962659526430607,47.16833841109451],[4.962777993448571,47.16764260739939],[4.962742057681628,47.167643216698075],[4.96231673225001,47.16764838305251],[4.961845811004721,47.16767679867241],[4.961641009523976,47.167689464088674],[4.9614159819792585,47.16772291465929],[4.961133874996454,47.16775221658554],[4.961085993163503,47.16775404538568],[4.960677434359664,47.16776709878455],[4.960523361102842,47.16777379680989],[4.960257723439724,47.16780281766528],[4.960250264801938,47.167803970609334],[4.960066754118131,47.16782546745632],[4.959883145091741,47.16784390375703],[4.959717459968566,47.16786100969166],[4.959509983098077,47.167882920371866],[4.958716990365847,47.16799544771507],[4.958097652291259,47.168063147160964],[4.957978431166653,47.1680804912892],[4.957911343191979,47.168089803094894],[4.9578740881598184,47.168095539384026],[4.957821941724722,47.1681035717901],[4.95776979527407,47.16811160417269],[4.957670621005762,47.168144963177006],[4.957608775694539,47.16817461992673],[4.957563164474932,47.168197869286736],[4.957545908502163,47.16821757722993],[4.9575350762592265,47.168249433211635],[4.957530050035225,47.16827608481965],[4.957535508028865,47.16842619746267],[4.957540959765718,47.16861717775785],[4.9575278193470576,47.168626594708336],[4.957377579875751,47.16865672836502],[4.957191032030575,47.16867724529042],[4.956847709212025,47.1687126867814],[4.956505815875898,47.1687460498037],[4.956144368806607,47.1687777069517],[4.955772813303263,47.1688197461201],[4.955667088092107,47.16883787745139],[4.955577624124031,47.168849610163825],[4.955561339066257,47.1688549914515],[4.955536697144108,47.16887788575459],[4.9555979770188285,47.16908018856889],[4.955623814650985,47.16917273516252],[4.955635716387891,47.16921136635522],[4.955616785497105,47.1692678812474],[4.9556004556147615,47.16931311317843],[4.955581784550666,47.16937678314266],[4.955560287694959,47.169527351060914],[4.955544901405813,47.16964001014262],[4.955547163973614,47.16970229983251],[4.955554729736501,47.16978697796972],[4.955557013312612,47.16980839979115],[4.955623099016612,47.16997792194954],[4.955636026064702,47.17004513766553],[4.955647127999809,47.17010318947171],[4.955658044586638,47.170156138220115],[4.955667605077222,47.17021319842722],[4.955682370919038,47.17028958681506],[4.9556990731261354,47.170378199136785],[4.955706177856799,47.170408734244525],[4.95571043511959,47.17044340600647],[4.955708589076695,47.17047510995717],[4.95569432310564,47.17057752871561],[4.955683704570076,47.17065639019105],[4.955675161772772,47.17066879115251],[4.955645319509231,47.17071323368883],[4.955536669794015,47.170857096634606],[4.955493651742739,47.17095182391458],[4.955460384514319,47.171025961731836],[4.955415191813828,47.171184080216996],[4.95539674217259,47.17125387017123],[4.9553836673429394,47.17130620651028],[4.9553787509132485,47.17133591802657],[4.955339165431249,47.17148372037481],[4.955328397789439,47.17155849574829],[4.955350708084497,47.17176043006574],[4.955360223652354,47.17185734086457],[4.955366875541622,47.17191649446023],[4.955350309159552,47.171955606471165],[4.95524613521916,47.17201662283709],[4.955114001270369,47.17209140357231],[4.955096396238187,47.17210192224996],[4.95509347443141,47.17210401586614],[4.955072923520281,47.172115601922854],[4.954955570287095,47.17218501767109],[4.954839782670626,47.17225646013694],[4.954782714907237,47.17229420264428],[4.95474909623461,47.17231724828823],[4.954741798416822,47.17232248669486],[4.954715724133622,47.17234744921902],[4.954692733222986,47.172374403950634],[4.954674192465802,47.17240025690198],[4.954594112039444,47.17250583086089],[4.954512502958935,47.17261041292842],[4.9545081506610655,47.172614574951915],[4.954228576525656,47.17292072117095],[4.954095014716174,47.17308033055529],[4.9540781131760125,47.17311024427295],[4.9540606842368105,47.173166742432485],[4.954054423789604,47.173200565086375],[4.954120432485749,47.17349168285935],[4.954132506139325,47.17353541741823],[4.954138563596318,47.173578226882924],[4.954140833571182,47.173599648924636],[4.9541315681600375,47.1736743897308],[4.953585584270616,47.1736182142681],[4.953478848549811,47.173608776287296],[4.953492528034401,47.17369641313712],[4.9535243027046345,47.17391148011781],[4.9535319994521,47.1739583504836],[4.953574430141733,47.174219211224894],[4.953596312590447,47.17436801976263],[4.953621160226421,47.17459853109253],[4.953650226798586,47.17486267916726],[4.953659734284889,47.174876828632804],[4.953701719043791,47.17491903184332],[4.9539066641358644,47.17511583981083],[4.953925308560688,47.17513392359885],[4.954178270386008,47.17537385905456],[4.954266668599913,47.1754561550772],[4.954397556744003,47.175553061323505],[4.954502218750079,47.17562894981824],[4.954496967802581,47.17564947216474],[4.954503404944472,47.17566162011759],[4.95451103720389,47.17566557981675],[4.954523170366029,47.17566946353369],[4.954535192424412,47.175670287221344],[4.954547089851079,47.17566804210255],[4.954652657746254,47.17581033146385],[4.955014607391296,47.17628649710841],[4.955082448088817,47.17629761718827],[4.955228720616727,47.17632273127225],[4.955373600043772,47.176350939610316],[4.955523017854465,47.176380097755036],[4.955790423434185,47.17643995302642],[4.955793419677221,47.17643990241333],[4.955816070308958,47.17644462596735],[4.955840114484813,47.17644626407243],[4.955864071232063,47.176445859378276],[4.955882048691748,47.17644555568717],[4.955917916178404,47.17644290550239],[4.955953709427383,47.176438212289305],[4.956068499230528,47.17642197212772],[4.956187529911287,47.17639850074612],[4.9562304731706455,47.17638449192362],[4.9561677102672155,47.17634774683448],[4.956189531348088,47.17633000635038],[4.9562307975863815,47.176310919684816],[4.956280977924982,47.17628962911036],[4.956291309978634,47.176285374997214],[4.9563440140715835,47.17633352897548],[4.956357750245675,47.1763404473225],[4.956375950417469,47.176346272605684],[4.956397059380647,47.176350004463394],[4.956425628250981,47.17635258362372],[4.956464714646575,47.17635601169078],[4.956505144056529,47.176355328506645],[4.956579355604838,47.176335684988466],[4.956923718786437,47.176245050301695],[4.957268229703162,47.17615850962098],[4.957544706720058,47.17609661381921],[4.958139407027908,47.175967007987964],[4.958395057236252,47.17590955089888],[4.958533220206003,47.175876558716716],[4.958652137266626,47.1758500247731],[4.958788869564618,47.17581910075629],[4.9588958891000186,47.17579481211629],[4.958953886537171,47.175782591828494],[4.959199686765079,47.175742671413445],[4.959400816958307,47.175710656912706],[4.959452933178601,47.17570159781066],[4.959518488652138,47.17569129359708],[4.9598441311178725,47.17562140963462],[4.959894705453651,47.17561135879651],[4.960599879322314,47.175470675242025],[4.961055086609809,47.17537917757801],[4.961903905938494,47.1752329818878],[4.963029372281564,47.17502998308159],[4.96321039630045,47.1749809399277],[4.963248997659844,47.174971081617976],[4.963259641765293,47.17493412214796],[4.963269302420587,47.17491148028722],[4.963275705969548,47.174881734184375],[4.963279126890941,47.174852047663975],[4.963278046990165,47.174822437465345]]],[[[4.9627646157220076,47.17553617505367],[4.962738635649245,47.17548143803387],[4.962714902850991,47.175487973191025],[4.962673659589604,47.17538445028083],[4.962737648081399,47.175372126513714],[4.962681737216372,47.17523615283703],[4.962614877465877,47.17525158716052],[4.962600358840335,47.17522322240764],[4.962463468086792,47.17525006512757],[4.9624309512277796,47.1751801202758],[4.962350565047692,47.17519476608309],[4.9618771981748715,47.175281461434885],[4.961403954799865,47.17537122364701],[4.961293680698434,47.1753884193133],[4.961021117101685,47.17543390373015],[4.960747123094969,47.17548146500203],[4.960433294432501,47.17554603631427],[4.960306895372057,47.175572707803326],[4.960103165824906,47.17561600691087],[4.960030312475472,47.17563154118906],[4.9597987704709805,47.17569268241651],[4.9596235343865125,47.1757365159848],[4.9591852955663605,47.175800136594795],[4.958674880943073,47.17589868456551],[4.957836590761397,47.17608758989426],[4.957253873309819,47.17621699156151],[4.956996803180684,47.17627651435186],[4.956674706091024,47.17636165778022],[4.9568455608738775,47.17644460263768],[4.957236664126504,47.17669139149921],[4.957464274780183,47.176769287475004],[4.9577353253189,47.17684644850221],[4.958225836129079,47.17706601330763],[4.958387260731722,47.177136849805194],[4.958446188687104,47.177150162966335],[4.958557977460967,47.177174838552865],[4.958671122401723,47.17719540254616],[4.95894748704844,47.17725407243866],[4.959189600839124,47.177318436437695],[4.959522605234556,47.17740987254518],[4.959537772466894,47.17741472203157],[4.95960887196031,47.17743293479436],[4.9596828802208925,47.1774490540091],[4.959803659072493,47.177473576248836],[4.959936348839479,47.177495852468006],[4.9604278465804965,47.177577452528105],[4.960522829076613,47.177593207072164],[4.9605905611044845,47.177601263899746],[4.960674728523002,47.177608006727255],[4.960926660341467,47.177612934968224],[4.960986610587684,47.177612946264546],[4.961072770064339,47.177592070879115],[4.961086172393826,47.17758979960348],[4.9612332022368015,47.17755359217448],[4.961514818807255,47.1774681042697],[4.961484537184287,47.17741854607028],[4.961441613993822,47.17735081255958],[4.961472733584303,47.17734109063688],[4.9615068362513055,47.17733131816848],[4.96157060397851,47.17731286601642],[4.961696671950647,47.17727701310777],[4.961701470462098,47.177285099898405],[4.961777061417487,47.177262367765856],[4.961940129272584,47.177213622021306],[4.961962185391333,47.17720200926989],[4.961920232080279,47.177119949566986],[4.962029938328467,47.177087444443224],[4.961992584666834,47.17700837773233],[4.96198457934803,47.176994203463885],[4.961971738440256,47.176970925408234],[4.9620148798485895,47.17696201725237],[4.962116006010358,47.176940887437986],[4.962088310985283,47.17688004653907],[4.9621001844936865,47.17687678341519],[4.962232578574912,47.17685001742262],[4.96228169916233,47.17684100783107],[4.962290613464884,47.176838812474955],[4.962300123570789,47.176852961220504],[4.962387884405815,47.176835119590955],[4.962402754144777,47.17683180565224],[4.962420418320378,47.17686420565363],[4.962462092244234,47.17685634884135],[4.962521581217176,47.1768440924906],[4.962485657575145,47.17676296641339],[4.962454519085433,47.17668991830748],[4.962473839479336,47.17668551128665],[4.962442865778427,47.17657568143902],[4.962399872447461,47.17642416116806],[4.96235842147439,47.17627364137582],[4.962348167018232,47.17623907149984],[4.962285997675686,47.17601329164738],[4.962601182244329,47.175944594792476],[4.962690395922933,47.17592571063819],[4.962776663941549,47.175907902991746],[4.96278853686569,47.17590463079605],[4.962652142383075,47.17573937538955],[4.9625751810707746,47.17564258175236],[4.962792074143585,47.17559088700503],[4.9627646157220076,47.17553617505367]]],[[[4.9600421049943995,47.177560478576126],[4.959678908350168,47.17750429859067],[4.959121493165538,47.17734104924476],[4.959033660898879,47.177315968854],[4.958933708067017,47.17728700492193],[4.95838732941339,47.17717976034992],[4.957753618102797,47.17689621034854],[4.957357042997751,47.176787445511906],[4.957240197954787,47.17674753572928],[4.9570333823210655,47.17662330521958],[4.956830981142587,47.176496955469815],[4.956788193341114,47.17647418300779],[4.956748661253022,47.17645849695016],[4.956707749224165,47.17644590511088],[4.95666840299697,47.17643533106749],[4.956606665833093,47.176427179674306],[4.956546494465453,47.176421046060234],[4.956484942808524,47.17641799764412],[4.956423515899323,47.17641801799764],[4.9557774589056205,47.17649534933388],[4.955493158773524,47.176424531379766],[4.955405552332112,47.176405577281194],[4.955253151800518,47.17637647836154],[4.955029901232384,47.176336309988365],[4.954974972743823,47.17635052073432],[4.954920006521252,47.17648734329923],[4.955067993510597,47.1766421993008],[4.955162811847033,47.177024794938795],[4.955212328778378,47.17715065848733],[4.955268251666626,47.177204891392584],[4.955333373653586,47.17751236835867],[4.955362025815956,47.177599761075065],[4.955393623913772,47.177686077393346],[4.955428194685522,47.17777132586549],[4.955452515236747,47.177822003858715],[4.9554706205342445,47.17786665400633],[4.955493176803864,47.17791021134582],[4.955515486704526,47.17794662240024],[4.955545762803086,47.177996173150405],[4.955580527183392,47.178045657092],[4.955613564189523,47.17808903738953],[4.9556528294715285,47.17813843628339],[4.9557150510951375,47.178159872283956],[4.955805971500868,47.17835247009774],[4.955932899295607,47.17834011365963],[4.95599461788911,47.17838913314001],[4.956054643239137,47.178391190005144],[4.956107133830388,47.17839234749607],[4.956225665921197,47.17839646872508],[4.956392780744604,47.17849991116609],[4.956456079303041,47.17855095698712],[4.956476217027144,47.17856900613736],[4.956514090220171,47.178621499179954],[4.956577314775687,47.17867050191727],[4.956710617136202,47.1787510106786],[4.956834819527211,47.17882861118233],[4.956908662996157,47.17879875239744],[4.957012926487553,47.178863406449466],[4.957125757782536,47.178916676607045],[4.95721672352383,47.17894579403183],[4.95724391381365,47.178951467222845],[4.957272484104986,47.178954046171754],[4.957284456431259,47.1789538437889],[4.95736365517597,47.17894739879176],[4.957405219847535,47.17893647478389],[4.9574466973353815,47.17892351696991],[4.9574481648144,47.178922465523215],[4.957658228958291,47.17884739160176],[4.95763099699612,47.17879880754312],[4.957908947428709,47.17869499220169],[4.9579597733324245,47.17877383228075],[4.958029728267356,47.17871951628],[4.958083618240607,47.178676710900724],[4.958121963561318,47.17865971726452],[4.958241574189378,47.17861068516682],[4.958585880609666,47.17847714409188],[4.958765391355227,47.178427107174244],[4.958832770940163,47.1784668346982],[4.959268294648385,47.17832765076082],[4.959246948753518,47.17831779961184],[4.959213333249468,47.178299978987866],[4.959182676766647,47.17828108164638],[4.95900299029715,47.17816150167353],[4.958812341322845,47.1780288326329],[4.958804745748096,47.17802589922785],[4.958785053181501,47.178020099563646],[4.958763967533562,47.178017394373995],[4.9586980747149685,47.17801850908756],[4.958630825478006,47.17802372624696],[4.958466934851287,47.17805000315929],[4.9583880850740805,47.17806563775447],[4.9582825285632,47.1780888834469],[4.958267708748993,47.178093222639],[4.958215985423356,47.17811351350213],[4.958167382910534,47.17813681346599],[4.958144093977221,47.178155596766466],[4.958138286939427,47.178160801150234],[4.958090353208948,47.178202488211184],[4.958040839990491,47.178242148684376],[4.958010128153935,47.17826311076116],[4.957967629410459,47.1782893693204],[4.957923514549405,47.178312593287856],[4.957757777591228,47.178370573085694],[4.957722317418861,47.1783844559184],[4.957716486527193,47.178388643050155],[4.957669561044051,47.17841702961917],[4.95762570583739,47.178447399522916],[4.957433396971458,47.17859881089095],[4.957356402695123,47.17866550214377],[4.957311625452981,47.17862948023726],[4.957492432107566,47.17849154679691],[4.9576487912531375,47.178381610551334],[4.957717835648692,47.17834366429015],[4.95777105095629,47.17832334843072],[4.957920574396117,47.17827279322784],[4.957956034443818,47.17825891033383],[4.957986845061021,47.17824102651644],[4.958129465609116,47.17812417146237],[4.958191173419838,47.17809042851628],[4.958282770135127,47.178054135751275],[4.958457067411731,47.178025647810394],[4.958544943097393,47.178010878122635],[4.9586478003696,47.17799585493434],[4.958750755734594,47.17798389189918],[4.958753752060766,47.177983841209546],[4.958777760005411,47.177984461696674],[4.958801866103709,47.177988142423374],[4.95882455465958,47.17799388239322],[4.958845863666984,47.178002725614284],[4.958865778946689,47.178014645310434],[4.9588812304802,47.17802766716138],[4.960043819717994,47.17756658236738],[4.9600467042693515,47.177563462623716],[4.960045138327407,47.17756144485986],[4.9600421049943995,47.177560478576126]],[[4.95666654591935,47.17745612926412],[4.956117061025344,47.17755226391019],[4.956135724916174,47.177405832773594],[4.95648133773853,47.177390798466476],[4.956513999959659,47.17738206945748],[4.956540470901432,47.17736833888715],[4.956565376351374,47.17735259949969],[4.956578481774939,47.17734215668118],[4.956604321633712,47.1773110649592],[4.9566153790317005,47.17728533822116],[4.956623439804113,47.17725965311638],[4.956626962572601,47.17723302706636],[4.956626888311818,47.17723098405023],[4.956631359025583,47.177189014449716],[4.956627569558951,47.17696121879704],[4.9568217786046445,47.17694465338805],[4.956786535395778,47.177005541522675],[4.956840648673186,47.17717526508292],[4.95673064609549,47.17732324004045],[4.95666654591935,47.17745612926412]]],[[[4.963150805686871,47.17778471571149],[4.963174852367865,47.177745475772326],[4.963160180500177,47.177548519549404],[4.963133356488212,47.17722405168561],[4.962615055157247,47.177311511576335],[4.962650778019364,47.177428411316086],[4.962693586793778,47.177574828406705],[4.962714046061833,47.17764294227913],[4.962562106400195,47.17766799581541],[4.962540179643214,47.1776009244285],[4.962494314015968,47.17745252383325],[4.962495876293168,47.17733090353182],[4.961974638198878,47.17742046357525],[4.96190012927931,47.177431938492454],[4.961816780692386,47.177447660694206],[4.961561126832428,47.177505125303846],[4.961518295572541,47.17752219611627],[4.961592356466375,47.1776629689155],[4.961642389162908,47.177761237021485],[4.961668331830818,47.17781494823402],[4.961757342881546,47.17803721156686],[4.9617705191719175,47.17806968769187],[4.961839036018875,47.17805830539991],[4.9618572585469245,47.178106023563146],[4.961787250077569,47.17811743113795],[4.961798884246331,47.17814890674855],[4.961820735843776,47.17821393524994],[4.961828719000076,47.178350712283994],[4.961415851964174,47.17865914278936],[4.961308745875472,47.17863949676008],[4.961141340836493,47.17861065961548],[4.961124975381117,47.178654866160784],[4.961216368780375,47.17865434478349],[4.961248009903672,47.17865891501059],[4.9613435900817295,47.17869101297146],[4.961644363746792,47.1788432726432],[4.962027639728225,47.179039098565816],[4.962074932958722,47.17906179279478],[4.962100619027376,47.179067490344906],[4.962127685149257,47.17907010259591],[4.962186020351195,47.17906706975482],[4.962345597122906,47.17904596690289],[4.962364955447665,47.179042576909644],[4.962382747697511,47.17903716918203],[4.962556750186834,47.1789596265354],[4.9630658497796025,47.178742552365236],[4.9631484552314715,47.17870640816416],[4.963296522118958,47.17861602081578],[4.963338310770655,47.17857035620177],[4.963369320645973,47.17851669724901],[4.963370192179006,47.17849931064057],[4.9632582813515995,47.17810169217664],[4.963240841438039,47.1780345448358],[4.96323841895822,47.178009045985824],[4.963245009339149,47.17798441194765],[4.963278195961665,47.17790823807667],[4.963345758977936,47.17782943700189],[4.9634057109740475,47.17778857052606],[4.963395217285999,47.17778874847268],[4.963150805686871,47.17778471571149]]],[[[4.961260037641759,47.17763181963726],[4.9612390635120995,47.177632174917136],[4.961100464308082,47.1776529120046],[4.960962000649494,47.177677735175585],[4.960865248716219,47.177695718952144],[4.960497363386292,47.17763451473186],[4.960084151438585,47.17756282869004],[4.959519737489509,47.17778389689722],[4.958955443466673,47.17800802213291],[4.9588874831902165,47.17803471182448],[4.958935244450704,47.1780706916588],[4.95899225484071,47.17811366543454],[4.959181189911106,47.1782402303723],[4.959190402009533,47.178246207310856],[4.959236300282545,47.178271997188524],[4.959285144725154,47.178296719560926],[4.959335395473064,47.178318347204716],[4.959388555039873,47.17833788133034],[4.959455414712724,47.17836331639899],[4.959578616601738,47.17841334679052],[4.959599962595172,47.17842319787801],[4.959625982626482,47.1784380850382],[4.959647538569854,47.178454065380066],[4.959667714680379,47.17847313998265],[4.959682753286715,47.17851580616088],[4.959724030222147,47.17862034702077],[4.959725633209166,47.17862338179466],[4.959731997833497,47.17863349543023],[4.959742813048917,47.17864250709774],[4.959911426977265,47.178745919205646],[4.96007222261253,47.17884026870497],[4.960094986385275,47.178848060436835],[4.960345342115954,47.17876821093943],[4.960483869744934,47.17874542275187],[4.960620807743787,47.17871960841359],[4.960704084231535,47.17870184406774],[4.960784364628947,47.17868413940421],[4.960863028393367,47.17866339115032],[4.960940089041018,47.178639608085795],[4.960980087069167,47.17862667404268],[4.961003747032776,47.17861809623651],[4.961025803928864,47.17860648366959],[4.961044790027113,47.178592878835126],[4.9610607053277445,47.17857728173466],[4.961072058253545,47.178559717632425],[4.961076322893326,47.17855351258285],[4.961088981470659,47.17853082018501],[4.961097114727475,47.17850717779321],[4.961099739247105,47.178496920981466],[4.9611282586165855,47.17837484421337],[4.961154654435505,47.1783590695811],[4.961188158379445,47.17825019163322],[4.961269765561247,47.17798109956606],[4.96129536827439,47.17765574344418],[4.9612845156143175,47.17764570591185],[4.961272245843483,47.17763773665697],[4.961260037641759,47.17763181963726]]]]}},{"type":"Feature","id":"inao-denom-1279","properties":{"id":"inao-denom-1279","name":"Clos de la Perrière","tier":"premier_cru","kind":"vineyard","appellationId":242,"denominationId":1279,"sourceName":"Vougeot premier cru Clos de la Perrière","communes":["21716"],"areaHa":2.14},"geometry":{"type":"Polygon","coordinates":[[[4.956637370430461,47.178426299977296],[4.956393052339864,47.17809528518444],[4.956349726796408,47.17801631771764],[4.9563061654316165,47.1779312214079],[4.956117061025344,47.17755226391019],[4.956135724916174,47.177405832773594],[4.95648133773853,47.177390798466476],[4.956513999959659,47.17738206945748],[4.956540470901432,47.17736833888715],[4.956565376351374,47.17735259949969],[4.956578481774939,47.17734215668118],[4.956604321633712,47.1773110649592],[4.9566153790317005,47.17728533822116],[4.956623439804113,47.17725965311638],[4.956626962572601,47.17723302706636],[4.956626888311818,47.17723098405023],[4.956631359025583,47.177189014449716],[4.956627569558951,47.17696121879704],[4.9568217786046445,47.17694465338805],[4.956926772791607,47.17678246206119],[4.9570333823210655,47.17662330521958],[4.956830981142587,47.176496955469815],[4.956788193341114,47.17647418300779],[4.956748661253022,47.17645849695016],[4.956707749224165,47.17644590511088],[4.95666840299697,47.17643533106749],[4.956606665833093,47.176427179674306],[4.956546494465453,47.176421046060234],[4.956484942808524,47.17641799764412],[4.956423515899323,47.17641801799764],[4.9557774589056205,47.17649534933388],[4.955493158773524,47.176424531379766],[4.955405552332112,47.176405577281194],[4.955253151800518,47.17637647836154],[4.955029901232384,47.176336309988365],[4.954974972743823,47.17635052073432],[4.954920006521252,47.17648734329923],[4.955067993510597,47.1766421993008],[4.955162811847033,47.177024794938795],[4.955212328778378,47.17715065848733],[4.955268251666626,47.177204891392584],[4.955333373653586,47.17751236835867],[4.955362025815956,47.177599761075065],[4.955393623913772,47.177686077393346],[4.955428194685522,47.17777132586549],[4.955452515236747,47.177822003858715],[4.9554706205342445,47.17786665400633],[4.955493176803864,47.17791021134582],[4.955515486704526,47.17794662240024],[4.955545762803086,47.177996173150405],[4.955580527183392,47.178045657092],[4.955613564189523,47.17808903738953],[4.9556528294715285,47.17813843628339],[4.9557150510951375,47.178159872283956],[4.955805971500868,47.17835247009774],[4.955932899295607,47.17834011365963],[4.95599461788911,47.17838913314001],[4.956054643239137,47.178391190005144],[4.956107133830388,47.17839234749607],[4.956225665921197,47.17839646872508],[4.956392780744604,47.17849991116609],[4.956456079303041,47.17855095698712],[4.956476217027144,47.17856900613736],[4.956514090220171,47.178621499179954],[4.956577314775687,47.17867050191727],[4.956710617136202,47.1787510106786],[4.956834819527211,47.17882861118233],[4.956908662996157,47.17879875239744],[4.957012926487553,47.178863406449466],[4.957125757782536,47.178916676607045],[4.95721672352383,47.17894579403183],[4.95724391381365,47.178951467222845],[4.957272484104986,47.178954046171754],[4.957284456431259,47.1789538437889],[4.95736365517597,47.17894739879176],[4.957405219847535,47.17893647478389],[4.9574466973353815,47.17892351696991],[4.9574481648144,47.178922465523215],[4.957658228958291,47.17884739160176],[4.95763099699612,47.17879880754312],[4.957408333892627,47.17889861664801],[4.957277386985359,47.17892433488324],[4.957158147797208,47.17890080159366],[4.957004632117297,47.17880020128417],[4.957090949901619,47.17874253839501],[4.956982663843318,47.17864934162384],[4.956905331081937,47.17858321475841],[4.956637370430461,47.178426299977296]]]}},{"type":"Feature","id":"inao-denom-1280","properties":{"id":"inao-denom-1280","name":"Le Clos Blanc","tier":"premier_cru","kind":"vineyard","appellationId":242,"denominationId":1280,"sourceName":"Vougeot premier cru Le Clos Blanc","communes":["21716"],"areaHa":2.32},"geometry":{"type":"Polygon","coordinates":[[[4.959189600839124,47.177318436437695],[4.958884230679783,47.1767922725012],[4.959963025869747,47.17654104941478],[4.960166597042389,47.17649366476343],[4.960001985151461,47.17612963492605],[4.959832887455778,47.175765671769625],[4.9597987704709805,47.17569268241651],[4.9596235343865125,47.1757365159848],[4.9591852955663605,47.175800136594795],[4.958674880943073,47.17589868456551],[4.957836590761397,47.17608758989426],[4.957253873309819,47.17621699156151],[4.956996803180684,47.17627651435186],[4.956674706091024,47.17636165778022],[4.9568455608738775,47.17644460263768],[4.957236664126504,47.17669139149921],[4.957464274780183,47.176769287475004],[4.9577353253189,47.17684644850221],[4.958225836129079,47.17706601330763],[4.958387260731722,47.177136849805194],[4.958446188687104,47.177150162966335],[4.958557977460967,47.177174838552865],[4.958671122401723,47.17719540254616],[4.95894748704844,47.17725407243866],[4.959189600839124,47.177318436437695]]]}},{"type":"Feature","id":"inao-denom-1281","properties":{"id":"inao-denom-1281","name":"Les Crâs","tier":"premier_cru","kind":"vineyard","appellationId":242,"denominationId":1281,"sourceName":"Vougeot premier cru Les Crâs","communes":["21716"],"areaHa":3.81},"geometry":{"type":"Polygon","coordinates":[[[4.962096592477226,47.176531478885025],[4.962000010877517,47.176307299719944],[4.961861700010522,47.17633621000599],[4.961853570104083,47.17631897592836],[4.961765478811004,47.176122245920645],[4.961630350126449,47.17586806445844],[4.961646152942001,47.17584940724057],[4.961634891275726,47.17582813765734],[4.961403954799865,47.17537122364701],[4.961293680698434,47.1753884193133],[4.961021117101685,47.17543390373015],[4.960747123094969,47.17548146500203],[4.960433294432501,47.17554603631427],[4.960306895372057,47.175572707803326],[4.960103165824906,47.17561600691087],[4.960030312475472,47.17563154118906],[4.9597987704709805,47.17569268241651],[4.959832887455778,47.175765671769625],[4.960001985151461,47.17612963492605],[4.960166597042389,47.17649366476343],[4.959963025869747,47.17654104941478],[4.958884230679783,47.1767922725012],[4.959189600839124,47.177318436437695],[4.959522605234556,47.17740987254518],[4.959537772466894,47.17741472203157],[4.95960887196031,47.17743293479436],[4.9596828802208925,47.1774490540091],[4.959803659072493,47.177473576248836],[4.959936348839479,47.177495852468006],[4.9604278465804965,47.177577452528105],[4.960522829076613,47.177593207072164],[4.9605905611044845,47.177601263899746],[4.960674728523002,47.177608006727255],[4.960926660341467,47.177612934968224],[4.960986610587684,47.177612946264546],[4.961072770064339,47.177592070879115],[4.961086172393826,47.17758979960348],[4.9612332022368015,47.17755359217448],[4.961514818807255,47.1774681042697],[4.961484537184287,47.17741854607028],[4.961441613993822,47.17735081255958],[4.961472733584303,47.17734109063688],[4.9615068362513055,47.17733131816848],[4.96157060397851,47.17731286601642],[4.961696671950647,47.17727701310777],[4.961701470462098,47.177285099898405],[4.961777061417487,47.177262367765856],[4.961940129272584,47.177213622021306],[4.961962185391333,47.17720200926989],[4.961920232080279,47.177119949566986],[4.962029938328467,47.177087444443224],[4.961992584666834,47.17700837773233],[4.96198457934803,47.176994203463885],[4.961971738440256,47.176970925408234],[4.9620148798485895,47.17696201725237],[4.962116006010358,47.176940887437986],[4.962088310985283,47.17688004653907],[4.9621001844936865,47.17687678341519],[4.962232578574912,47.17685001742262],[4.962163839726054,47.17669076531715],[4.962154031805631,47.17666844450748],[4.962096592477226,47.176531478885025]]]}},{"type":"Feature","id":"inao-denom-1282","properties":{"id":"inao-denom-1282","name":"Les Petits Vougeots","tier":"premier_cru","kind":"vineyard","appellationId":242,"denominationId":1282,"sourceName":"Vougeot premier cru Les Petits Vougeots","communes":["21716"],"areaHa":5.18},"geometry":{"type":"MultiPolygon","coordinates":[[[[4.956349726796408,47.17801631771764],[4.956393052339864,47.17809528518444],[4.956637370430461,47.178426299977296],[4.956905331081937,47.17858321475841],[4.956982663843318,47.17864934162384],[4.957090949901619,47.17874253839501],[4.957004632117297,47.17880020128417],[4.957158147797208,47.17890080159366],[4.957277386985359,47.17892433488324],[4.957408333892627,47.17889861664801],[4.95763099699612,47.17879880754312],[4.957908947428709,47.17869499220169],[4.9579597733324245,47.17877383228075],[4.958029728267356,47.17871951628],[4.958083618240607,47.178676710900724],[4.958121963561318,47.17865971726452],[4.958241574189378,47.17861068516682],[4.958585880609666,47.17847714409188],[4.958765391355227,47.178427107174244],[4.958832770940163,47.1784668346982],[4.959268294648385,47.17832765076082],[4.959246948753518,47.17831779961184],[4.959213333249468,47.178299978987866],[4.959182676766647,47.17828108164638],[4.95900299029715,47.17816150167353],[4.958812341322845,47.1780288326329],[4.958804745748096,47.17802589922785],[4.958785053181501,47.178020099563646],[4.958763967533562,47.178017394373995],[4.9586980747149685,47.17801850908756],[4.958630825478006,47.17802372624696],[4.958466934851287,47.17805000315929],[4.9583880850740805,47.17806563775447],[4.9582825285632,47.1780888834469],[4.958267708748993,47.178093222639],[4.958215985423356,47.17811351350213],[4.958167382910534,47.17813681346599],[4.958144093977221,47.178155596766466],[4.958138286939427,47.178160801150234],[4.958090353208948,47.178202488211184],[4.958040839990491,47.178242148684376],[4.958010128153935,47.17826311076116],[4.957967629410459,47.1782893693204],[4.957923514549405,47.178312593287856],[4.957757777591228,47.178370573085694],[4.957722317418861,47.1783844559184],[4.957716486527193,47.178388643050155],[4.957669561044051,47.17841702961917],[4.95762570583739,47.178447399522916],[4.957433396971458,47.17859881089095],[4.957356402695123,47.17866550214377],[4.957311625452981,47.17862948023726],[4.957492432107566,47.17849154679691],[4.9576487912531375,47.178381610551334],[4.957717835648692,47.17834366429015],[4.95777105095629,47.17832334843072],[4.957920574396117,47.17827279322784],[4.957956034443818,47.17825891033383],[4.957986845061021,47.17824102651644],[4.958129465609116,47.17812417146237],[4.958191173419838,47.17809042851628],[4.958282770135127,47.178054135751275],[4.958457067411731,47.178025647810394],[4.958544943097393,47.178010878122635],[4.9586478003696,47.17799585493434],[4.958750755734594,47.17798389189918],[4.958753752060766,47.177983841209546],[4.958777760005411,47.177984461696674],[4.958801866103709,47.177988142423374],[4.95882455465958,47.17799388239322],[4.958845863666984,47.178002725614284],[4.958865778946689,47.178014645310434],[4.9588812304802,47.17802766716138],[4.960043819717994,47.17756658236738],[4.9600467042693515,47.177563462623716],[4.960045138327407,47.17756144485986],[4.9600421049943995,47.177560478576126],[4.959678908350168,47.17750429859067],[4.959121493165538,47.17734104924476],[4.959033660898879,47.177315968854],[4.958933708067017,47.17728700492193],[4.95838732941339,47.17717976034992],[4.957753618102797,47.17689621034854],[4.957357042997751,47.176787445511906],[4.957240197954787,47.17674753572928],[4.9570333823210655,47.17662330521958],[4.956926772791607,47.17678246206119],[4.9568217786046445,47.17694465338805],[4.956786535395778,47.177005541522675],[4.956840648673186,47.17717526508292],[4.95673064609549,47.17732324004045],[4.95666654591935,47.17745612926412],[4.956117061025344,47.17755226391019],[4.9563061654316165,47.1779312214079],[4.956349726796408,47.17801631771764]]],[[[4.960898881414842,47.177796309371985],[4.960883879421185,47.17775466934665],[4.960865248716219,47.177695718952144],[4.960497363386292,47.17763451473186],[4.960084151438585,47.17756282869004],[4.959519737489509,47.17778389689722],[4.958955443466673,47.17800802213291],[4.9588874831902165,47.17803471182448],[4.958935244450704,47.1780706916588],[4.95899225484071,47.17811366543454],[4.959181189911106,47.1782402303723],[4.959190402009533,47.178246207310856],[4.959236300282545,47.178271997188524],[4.959285144725154,47.178296719560926],[4.959335395473064,47.178318347204716],[4.959388555039873,47.17833788133034],[4.959455414712724,47.17836331639899],[4.959578616601738,47.17841334679052],[4.959599962595172,47.17842319787801],[4.959625982626482,47.1784380850382],[4.959647538569854,47.178454065380066],[4.959667714680379,47.17847313998265],[4.959682753286715,47.17851580616088],[4.959724030222147,47.17862034702077],[4.959725633209166,47.17862338179466],[4.959731997833497,47.17863349543023],[4.959742813048917,47.17864250709774],[4.960093620714453,47.178604896219355],[4.960133564038188,47.17863180419284],[4.960345342115954,47.17876821093943],[4.960483869744934,47.17874542275187],[4.960620807743787,47.17871960841359],[4.960704084231535,47.17870184406774],[4.960784364628947,47.17868413940421],[4.960863028393367,47.17866339115032],[4.960940089041018,47.178639608085795],[4.960980087069167,47.17862667404268],[4.961003747032776,47.17861809623651],[4.961025803928864,47.17860648366959],[4.961044790027113,47.178592878835126],[4.9610607053277445,47.17857728173466],[4.961072058253545,47.178559717632425],[4.961076322893326,47.17855351258285],[4.961088981470659,47.17853082018501],[4.961097114727475,47.17850717779321],[4.961099739247105,47.178496920981466],[4.9611282586165855,47.17837484421337],[4.961053920351776,47.17814415485342],[4.961011748387631,47.17801510729633],[4.960947235181787,47.17788949100194],[4.960898881414842,47.177796309371985]]]]}},{"type":"Feature","id":"inao-denom-1283","properties":{"id":"inao-denom-1283","name":"Vougeot Premier Cru","tier":"premier_cru","kind":"appellation","appellationId":242,"denominationId":1283,"sourceName":"Vougeot premier cru","communes":["21716"],"areaHa":64.56},"geometry":{"type":"MultiPolygon","coordinates":[[[[4.963278046990165,47.174822437465345],[4.963272428855736,47.17479187758145],[4.963257850318148,47.174720593101476],[4.963217742689446,47.174525094631385],[4.963197695583706,47.17442734527384],[4.963179063496775,47.174368395177865],[4.963122145208049,47.17424572204522],[4.963090449039297,47.17415736493387],[4.963060406627105,47.17407306832732],[4.963013261091138,47.173930813296856],[4.962989732264676,47.173860707167],[4.962947745091278,47.17373676314393],[4.9629326329329295,47.17365118671484],[4.962912139705009,47.1735411791863],[4.962889894563596,47.17342405088352],[4.962860639048024,47.17327945718283],[4.962830128604379,47.1731410085747],[4.962828288935829,47.17313184501538],[4.962825941034103,47.17310838012503],[4.962826538904613,47.17308384765543],[4.962828117724614,47.17288048273628],[4.9627990093508805,47.17278084261907],[4.96278704072393,47.17274017797518],[4.962748050586439,47.17261617403335],[4.962704610937026,47.17249328115688],[4.962677714708883,47.17241301063813],[4.962642071685775,47.17225727709773],[4.962600960688247,47.17207507862217],[4.962599208773583,47.172067957848085],[4.96258876892828,47.17202828489813],[4.962585028140435,47.172007905523984],[4.96257987076759,47.17198960344852],[4.9625659884199855,47.171937732185945],[4.96249001727833,47.1716212382108],[4.962479391576522,47.1715764622026],[4.9624707914676955,47.171545952805054],[4.9624460599415,47.17144316745683],[4.96240911319827,47.171292571111344],[4.962407124720743,47.171279321505004],[4.962386354003431,47.17107940624867],[4.962379223810282,47.17100697770238],[4.962370663542121,47.17093661767452],[4.962376523706347,47.17068617962978],[4.962378405517539,47.17061462495426],[4.962380321780029,47.17058495491647],[4.962380808284737,47.170557362399684],[4.962384752997902,47.17050110034893],[4.962388436893725,47.17043768323505],[4.9623920837098705,47.17037324911073],[4.9623944493807475,47.17031496954187],[4.962397311807804,47.1702699558634],[4.962399526256305,47.17024846689272],[4.962399116834491,47.170237234794904],[4.962400086890223,47.170222908390095],[4.962403010908195,47.170179946951556],[4.962407253123612,47.17013184796351],[4.962408124831572,47.17011446130754],[4.962405987457369,47.17009712565957],[4.962383151698707,47.169922785323884],[4.962364468343226,47.16973917982754],[4.962363389047943,47.16970956956362],[4.962373362505784,47.16965422293786],[4.962407323444076,47.16947585787381],[4.9624160901701915,47.16942870881723],[4.962437118751812,47.1693067581607],[4.9624396677693445,47.169294449264605],[4.962442142643324,47.16928010634997],[4.962455672372849,47.169199150410286],[4.962470693705694,47.16911817818551],[4.962483737241697,47.169064823770576],[4.962536294172197,47.168862638636156],[4.962602933901085,47.168676559949844],[4.9626169104221125,47.1686078710866],[4.962635314489676,47.16849617724133],[4.962641569000284,47.16846235406413],[4.962648583554177,47.16840808418885],[4.962653271945675,47.16837223427423],[4.962659526430607,47.16833841109451],[4.962777993448571,47.16764260739939],[4.962742057681628,47.167643216698075],[4.96231673225001,47.16764838305251],[4.961845811004721,47.16767679867241],[4.961641009523976,47.167689464088674],[4.9614159819792585,47.16772291465929],[4.961133874996454,47.16775221658554],[4.961085993163503,47.16775404538568],[4.960677434359664,47.16776709878455],[4.960523361102842,47.16777379680989],[4.960257723439724,47.16780281766528],[4.960250264801938,47.167803970609334],[4.960066754118131,47.16782546745632],[4.959883145091741,47.16784390375703],[4.959717459968566,47.16786100969166],[4.959509983098077,47.167882920371866],[4.958716990365847,47.16799544771507],[4.958097652291259,47.168063147160964],[4.957978431166653,47.1680804912892],[4.957911343191979,47.168089803094894],[4.9578740881598184,47.168095539384026],[4.957821941724722,47.1681035717901],[4.95776979527407,47.16811160417269],[4.957670621005762,47.168144963177006],[4.957608775694539,47.16817461992673],[4.957563164474932,47.168197869286736],[4.957545908502163,47.16821757722993],[4.9575350762592265,47.168249433211635],[4.957530050035225,47.16827608481965],[4.957535508028865,47.16842619746267],[4.957540959765718,47.16861717775785],[4.9575278193470576,47.168626594708336],[4.957377579875751,47.16865672836502],[4.957191032030575,47.16867724529042],[4.956847709212025,47.1687126867814],[4.956505815875898,47.1687460498037],[4.956144368806607,47.1687777069517],[4.955772813303263,47.1688197461201],[4.955667088092107,47.16883787745139],[4.955577624124031,47.168849610163825],[4.955561339066257,47.1688549914515],[4.955536697144108,47.16887788575459],[4.9555979770188285,47.16908018856889],[4.955623814650985,47.16917273516252],[4.955635716387891,47.16921136635522],[4.955616785497105,47.1692678812474],[4.9556004556147615,47.16931311317843],[4.955581784550666,47.16937678314266],[4.955560287694959,47.169527351060914],[4.955544901405813,47.16964001014262],[4.955547163973614,47.16970229983251],[4.955554729736501,47.16978697796972],[4.955557013312612,47.16980839979115],[4.955623099016612,47.16997792194954],[4.955636026064702,47.17004513766553],[4.955647127999809,47.17010318947171],[4.955658044586638,47.170156138220115],[4.955667605077222,47.17021319842722],[4.955682370919038,47.17028958681506],[4.9556990731261354,47.170378199136785],[4.955706177856799,47.170408734244525],[4.95571043511959,47.17044340600647],[4.955708589076695,47.17047510995717],[4.95569432310564,47.17057752871561],[4.955683704570076,47.17065639019105],[4.955675161772772,47.17066879115251],[4.955645319509231,47.17071323368883],[4.955536669794015,47.170857096634606],[4.955493651742739,47.17095182391458],[4.955460384514319,47.171025961731836],[4.955415191813828,47.171184080216996],[4.95539674217259,47.17125387017123],[4.9553836673429394,47.17130620651028],[4.9553787509132485,47.17133591802657],[4.955339165431249,47.17148372037481],[4.955328397789439,47.17155849574829],[4.955350708084497,47.17176043006574],[4.955360223652354,47.17185734086457],[4.955366875541622,47.17191649446023],[4.955350309159552,47.171955606471165],[4.95524613521916,47.17201662283709],[4.955114001270369,47.17209140357231],[4.955096396238187,47.17210192224996],[4.95509347443141,47.17210401586614],[4.955072923520281,47.172115601922854],[4.954955570287095,47.17218501767109],[4.954839782670626,47.17225646013694],[4.954782714907237,47.17229420264428],[4.95474909623461,47.17231724828823],[4.954741798416822,47.17232248669486],[4.954715724133622,47.17234744921902],[4.954692733222986,47.172374403950634],[4.954674192465802,47.17240025690198],[4.954594112039444,47.17250583086089],[4.954512502958935,47.17261041292842],[4.9545081506610655,47.172614574951915],[4.954228576525656,47.17292072117095],[4.954095014716174,47.17308033055529],[4.9540781131760125,47.17311024427295],[4.9540606842368105,47.173166742432485],[4.954054423789604,47.173200565086375],[4.954120432485749,47.17349168285935],[4.954132506139325,47.17353541741823],[4.954138563596318,47.173578226882924],[4.954140833571182,47.173599648924636],[4.9541315681600375,47.1736743897308],[4.953585584270616,47.1736182142681],[4.953478848549811,47.173608776287296],[4.953492528034401,47.17369641313712],[4.9535243027046345,47.17391148011781],[4.9535319994521,47.1739583504836],[4.953574430141733,47.174219211224894],[4.953596312590447,47.17436801976263],[4.953621160226421,47.17459853109253],[4.953650226798586,47.17486267916726],[4.953659734284889,47.174876828632804],[4.953701719043791,47.17491903184332],[4.9539066641358644,47.17511583981083],[4.953925308560688,47.17513392359885],[4.954178270386008,47.17537385905456],[4.954266668599913,47.1754561550772],[4.954397556744003,47.175553061323505],[4.954502218750079,47.17562894981824],[4.954496967802581,47.17564947216474],[4.954503404944472,47.17566162011759],[4.95451103720389,47.17566557981675],[4.954523170366029,47.17566946353369],[4.954535192424412,47.175670287221344],[4.954547089851079,47.17566804210255],[4.954652657746254,47.17581033146385],[4.955014607391296,47.17628649710841],[4.955082448088817,47.17629761718827],[4.955228720616727,47.17632273127225],[4.955373600043772,47.176350939610316],[4.955523017854465,47.176380097755036],[4.955790423434185,47.17643995302642],[4.955793419677221,47.17643990241333],[4.955816070308958,47.17644462596735],[4.955840114484813,47.17644626407243],[4.955864071232063,47.176445859378276],[4.955882048691748,47.17644555568717],[4.955917916178404,47.17644290550239],[4.955953709427383,47.176438212289305],[4.956068499230528,47.17642197212772],[4.956187529911287,47.17639850074612],[4.9562304731706455,47.17638449192362],[4.9561677102672155,47.17634774683448],[4.956189531348088,47.17633000635038],[4.9562307975863815,47.176310919684816],[4.956280977924982,47.17628962911036],[4.956291309978634,47.176285374997214],[4.9563440140715835,47.17633352897548],[4.956357750245675,47.1763404473225],[4.956375950417469,47.176346272605684],[4.956397059380647,47.176350004463394],[4.956425628250981,47.17635258362372],[4.956464714646575,47.17635601169078],[4.956505144056529,47.176355328506645],[4.956579355604838,47.176335684988466],[4.956923718786437,47.176245050301695],[4.957268229703162,47.17615850962098],[4.957544706720058,47.17609661381921],[4.958139407027908,47.175967007987964],[4.958395057236252,47.17590955089888],[4.958533220206003,47.175876558716716],[4.958652137266626,47.1758500247731],[4.958788869564618,47.17581910075629],[4.9588958891000186,47.17579481211629],[4.958953886537171,47.175782591828494],[4.959199686765079,47.175742671413445],[4.959400816958307,47.175710656912706],[4.959452933178601,47.17570159781066],[4.959518488652138,47.17569129359708],[4.9598441311178725,47.17562140963462],[4.959894705453651,47.17561135879651],[4.960599879322314,47.175470675242025],[4.961055086609809,47.17537917757801],[4.961903905938494,47.1752329818878],[4.963029372281564,47.17502998308159],[4.96321039630045,47.1749809399277],[4.963248997659844,47.174971081617976],[4.963259641765293,47.17493412214796],[4.963269302420587,47.17491148028722],[4.963275705969548,47.174881734184375],[4.963279126890941,47.174852047663975],[4.963278046990165,47.174822437465345]]],[[[4.962163839726054,47.17669076531715],[4.962154031805631,47.17666844450748],[4.962096592477226,47.176531478885025],[4.962000010877517,47.176307299719944],[4.961861700010522,47.17633621000599],[4.961853570104083,47.17631897592836],[4.961765478811004,47.176122245920645],[4.961630350126449,47.17586806445844],[4.961646152942001,47.17584940724057],[4.961634891275726,47.17582813765734],[4.961403954799865,47.17537122364701],[4.961293680698434,47.1753884193133],[4.961021117101685,47.17543390373015],[4.960747123094969,47.17548146500203],[4.960433294432501,47.17554603631427],[4.960306895372057,47.175572707803326],[4.960103165824906,47.17561600691087],[4.960030312475472,47.17563154118906],[4.9597987704709805,47.17569268241651],[4.9596235343865125,47.1757365159848],[4.9591852955663605,47.175800136594795],[4.958674880943073,47.17589868456551],[4.957836590761397,47.17608758989426],[4.957253873309819,47.17621699156151],[4.956996803180684,47.17627651435186],[4.956674706091024,47.17636165778022],[4.9568455608738775,47.17644460263768],[4.957236664126504,47.17669139149921],[4.957464274780183,47.176769287475004],[4.9577353253189,47.17684644850221],[4.958225836129079,47.17706601330763],[4.958387260731722,47.177136849805194],[4.958446188687104,47.177150162966335],[4.958557977460967,47.177174838552865],[4.958671122401723,47.17719540254616],[4.95894748704844,47.17725407243866],[4.959189600839124,47.177318436437695],[4.959522605234556,47.17740987254518],[4.959537772466894,47.17741472203157],[4.95960887196031,47.17743293479436],[4.9596828802208925,47.1774490540091],[4.959803659072493,47.177473576248836],[4.959936348839479,47.177495852468006],[4.9604278465804965,47.177577452528105],[4.960522829076613,47.177593207072164],[4.9605905611044845,47.177601263899746],[4.960674728523002,47.177608006727255],[4.960926660341467,47.177612934968224],[4.960986610587684,47.177612946264546],[4.961072770064339,47.177592070879115],[4.961086172393826,47.17758979960348],[4.9612332022368015,47.17755359217448],[4.961514818807255,47.1774681042697],[4.961484537184287,47.17741854607028],[4.961441613993822,47.17735081255958],[4.961472733584303,47.17734109063688],[4.9615068362513055,47.17733131816848],[4.96157060397851,47.17731286601642],[4.961696671950647,47.17727701310777],[4.961701470462098,47.177285099898405],[4.961777061417487,47.177262367765856],[4.961940129272584,47.177213622021306],[4.961962185391333,47.17720200926989],[4.961920232080279,47.177119949566986],[4.962029938328467,47.177087444443224],[4.961992584666834,47.17700837773233],[4.96198457934803,47.176994203463885],[4.961971738440256,47.176970925408234],[4.9620148798485895,47.17696201725237],[4.962116006010358,47.176940887437986],[4.962088310985283,47.17688004653907],[4.9621001844936865,47.17687678341519],[4.962232578574912,47.17685001742262],[4.962163839726054,47.17669076531715]]],[[[4.960045138327407,47.17756144485986],[4.9600421049943995,47.177560478576126],[4.959678908350168,47.17750429859067],[4.959121493165538,47.17734104924476],[4.959033660898879,47.177315968854],[4.958933708067017,47.17728700492193],[4.95838732941339,47.17717976034992],[4.957753618102797,47.17689621034854],[4.957357042997751,47.176787445511906],[4.957240197954787,47.17674753572928],[4.9570333823210655,47.17662330521958],[4.956830981142587,47.176496955469815],[4.956788193341114,47.17647418300779],[4.956748661253022,47.17645849695016],[4.956707749224165,47.17644590511088],[4.95666840299697,47.17643533106749],[4.956606665833093,47.176427179674306],[4.956546494465453,47.176421046060234],[4.956484942808524,47.17641799764412],[4.956423515899323,47.17641801799764],[4.9557774589056205,47.17649534933388],[4.955493158773524,47.176424531379766],[4.955405552332112,47.176405577281194],[4.955253151800518,47.17637647836154],[4.955029901232384,47.176336309988365],[4.954974972743823,47.17635052073432],[4.954920006521252,47.17648734329923],[4.955067993510597,47.1766421993008],[4.955162811847033,47.177024794938795],[4.955212328778378,47.17715065848733],[4.955268251666626,47.177204891392584],[4.955333373653586,47.17751236835867],[4.955362025815956,47.177599761075065],[4.955393623913772,47.177686077393346],[4.955428194685522,47.17777132586549],[4.955452515236747,47.177822003858715],[4.9554706205342445,47.17786665400633],[4.955493176803864,47.17791021134582],[4.955515486704526,47.17794662240024],[4.955545762803086,47.177996173150405],[4.955580527183392,47.178045657092],[4.955613564189523,47.17808903738953],[4.9556528294715285,47.17813843628339],[4.9557150510951375,47.178159872283956],[4.955805971500868,47.17835247009774],[4.955932899295607,47.17834011365963],[4.95599461788911,47.17838913314001],[4.956054643239137,47.178391190005144],[4.956107133830388,47.17839234749607],[4.956225665921197,47.17839646872508],[4.956392780744604,47.17849991116609],[4.956456079303041,47.17855095698712],[4.956476217027144,47.17856900613736],[4.956514090220171,47.178621499179954],[4.956577314775687,47.17867050191727],[4.956710617136202,47.1787510106786],[4.956834819527211,47.17882861118233],[4.956908662996157,47.17879875239744],[4.957012926487553,47.178863406449466],[4.957125757782536,47.178916676607045],[4.95721672352383,47.17894579403183],[4.95724391381365,47.178951467222845],[4.957272484104986,47.178954046171754],[4.957284456431259,47.1789538437889],[4.95736365517597,47.17894739879176],[4.957405219847535,47.17893647478389],[4.9574466973353815,47.17892351696991],[4.9574481648144,47.178922465523215],[4.957658228958291,47.17884739160176],[4.95763099699612,47.17879880754312],[4.957908947428709,47.17869499220169],[4.9579597733324245,47.17877383228075],[4.958029728267356,47.17871951628],[4.958083618240607,47.178676710900724],[4.958121963561318,47.17865971726452],[4.958241574189378,47.17861068516682],[4.958585880609666,47.17847714409188],[4.958765391355227,47.178427107174244],[4.958832770940163,47.1784668346982],[4.959268294648385,47.17832765076082],[4.959246948753518,47.17831779961184],[4.959213333249468,47.178299978987866],[4.959182676766647,47.17828108164638],[4.95900299029715,47.17816150167353],[4.958812341322845,47.1780288326329],[4.958804745748096,47.17802589922785],[4.958785053181501,47.178020099563646],[4.958763967533562,47.178017394373995],[4.9586980747149685,47.17801850908756],[4.958630825478006,47.17802372624696],[4.958466934851287,47.17805000315929],[4.9583880850740805,47.17806563775447],[4.9582825285632,47.1780888834469],[4.958267708748993,47.178093222639],[4.958215985423356,47.17811351350213],[4.958167382910534,47.17813681346599],[4.958144093977221,47.178155596766466],[4.958138286939427,47.178160801150234],[4.958090353208948,47.178202488211184],[4.958040839990491,47.178242148684376],[4.958010128153935,47.17826311076116],[4.957967629410459,47.1782893693204],[4.957923514549405,47.178312593287856],[4.957757777591228,47.178370573085694],[4.957722317418861,47.1783844559184],[4.957716486527193,47.178388643050155],[4.957669561044051,47.17841702961917],[4.95762570583739,47.178447399522916],[4.957433396971458,47.17859881089095],[4.957356402695123,47.17866550214377],[4.957311625452981,47.17862948023726],[4.957492432107566,47.17849154679691],[4.9576487912531375,47.178381610551334],[4.957717835648692,47.17834366429015],[4.95777105095629,47.17832334843072],[4.957920574396117,47.17827279322784],[4.957956034443818,47.17825891033383],[4.957986845061021,47.17824102651644],[4.958129465609116,47.17812417146237],[4.958191173419838,47.17809042851628],[4.958282770135127,47.178054135751275],[4.958457067411731,47.178025647810394],[4.958544943097393,47.178010878122635],[4.9586478003696,47.17799585493434],[4.958750755734594,47.17798389189918],[4.958753752060766,47.177983841209546],[4.958777760005411,47.177984461696674],[4.958801866103709,47.177988142423374],[4.95882455465958,47.17799388239322],[4.958845863666984,47.178002725614284],[4.958865778946689,47.178014645310434],[4.9588812304802,47.17802766716138],[4.960043819717994,47.17756658236738],[4.9600467042693515,47.177563462623716],[4.960045138327407,47.17756144485986]],[[4.95666654591935,47.17745612926412],[4.956117061025344,47.17755226391019],[4.956135724916174,47.177405832773594],[4.95648133773853,47.177390798466476],[4.956513999959659,47.17738206945748],[4.956540470901432,47.17736833888715],[4.956565376351374,47.17735259949969],[4.956578481774939,47.17734215668118],[4.956604321633712,47.1773110649592],[4.9566153790317005,47.17728533822116],[4.956623439804113,47.17725965311638],[4.956626962572601,47.17723302706636],[4.956626888311818,47.17723098405023],[4.956631359025583,47.177189014449716],[4.956627569558951,47.17696121879704],[4.9568217786046445,47.17694465338805],[4.956786535395778,47.177005541522675],[4.956840648673186,47.17717526508292],[4.95673064609549,47.17732324004045],[4.95666654591935,47.17745612926412]]],[[[4.961053920351776,47.17814415485342],[4.961011748387631,47.17801510729633],[4.960947235181787,47.17788949100194],[4.960898881414842,47.177796309371985],[4.960883879421185,47.17775466934665],[4.960865248716219,47.177695718952144],[4.960497363386292,47.17763451473186],[4.960084151438585,47.17756282869004],[4.959519737489509,47.17778389689722],[4.958955443466673,47.17800802213291],[4.9588874831902165,47.17803471182448],[4.958935244450704,47.1780706916588],[4.95899225484071,47.17811366543454],[4.959181189911106,47.1782402303723],[4.959190402009533,47.178246207310856],[4.959236300282545,47.178271997188524],[4.959285144725154,47.178296719560926],[4.959335395473064,47.178318347204716],[4.959388555039873,47.17833788133034],[4.959455414712724,47.17836331639899],[4.959578616601738,47.17841334679052],[4.959599962595172,47.17842319787801],[4.959625982626482,47.1784380850382],[4.959647538569854,47.178454065380066],[4.959667714680379,47.17847313998265],[4.959682753286715,47.17851580616088],[4.959724030222147,47.17862034702077],[4.959725633209166,47.17862338179466],[4.959731997833497,47.17863349543023],[4.959742813048917,47.17864250709774],[4.960093620714453,47.178604896219355],[4.960133564038188,47.17863180419284],[4.960345342115954,47.17876821093943],[4.960483869744934,47.17874542275187],[4.960620807743787,47.17871960841359],[4.960704084231535,47.17870184406774],[4.960784364628947,47.17868413940421],[4.960863028393367,47.17866339115032],[4.960940089041018,47.178639608085795],[4.960980087069167,47.17862667404268],[4.961003747032776,47.17861809623651],[4.961025803928864,47.17860648366959],[4.961044790027113,47.178592878835126],[4.9610607053277445,47.17857728173466],[4.961072058253545,47.178559717632425],[4.961076322893326,47.17855351258285],[4.961088981470659,47.17853082018501],[4.961097114727475,47.17850717779321],[4.961099739247105,47.178496920981466],[4.9611282586165855,47.17837484421337],[4.961053920351776,47.17814415485342]]]]}},{"type":"Feature","id":"commune-21716","properties":{"id":"commune-21716","name":"VOUGEOT","kind":"commune","tier":"commune"},"geometry":{"type":"MultiPolygon","coordinates":[[[[4.962888,47.167591],[4.9627818,47.1683889],[4.9624952,47.1697044],[4.9624608,47.1708916],[4.9626906,47.1719686],[4.9628136,47.1719515],[4.962981,47.1719351],[4.9632743,47.1718774],[4.9635823,47.1718206],[4.9639884,47.1717407],[4.9643368,47.171669],[4.9646635,47.1716125],[4.9646729,47.1716365],[4.9647285,47.1717674],[4.9648499,47.1720504],[4.964873,47.1721063],[4.9649541,47.1720892],[4.9651619,47.1720476],[4.965371,47.1720086],[4.9654626,47.1719925],[4.9658629,47.1719212],[4.9666412,47.171785],[4.966715,47.1719343],[4.9668454,47.1721908],[4.9669798,47.1724465],[4.9674746,47.173411],[4.967566,47.173584],[4.967582,47.1736139],[4.9678831,47.1741918],[4.9678937,47.1742196],[4.9674323,47.1746555],[4.9670653,47.1748522],[4.9670726,47.1748787],[4.96708,47.1749066],[4.9671079,47.174962],[4.966779,47.1750888],[4.9667087,47.1750999],[4.9666214,47.1751111],[4.9665332,47.1751194],[4.9664554,47.1751181],[4.9664175,47.1751277],[4.9662854,47.175186],[4.9662545,47.1752418],[4.9656811,47.175529],[4.9654696,47.1756354],[4.965353,47.1756942],[4.965351,47.1757372],[4.9653588,47.1757421],[4.9652394,47.1758205],[4.9652112,47.1758391],[4.9651845,47.1758567],[4.9651372,47.1758926],[4.9651605,47.1759281],[4.96521,47.1760107],[4.9652312,47.176063],[4.9651174,47.176151],[4.9650532,47.1762145],[4.9650355,47.1762385],[4.9648178,47.1765446],[4.9647491,47.1767173],[4.9647666,47.1768133],[4.9648553,47.1769122],[4.9649709,47.1770412],[4.9651226,47.177244],[4.9651807,47.1773231],[4.9653167,47.1775173],[4.9643584,47.1780113],[4.9639903,47.1781456],[4.9642455,47.1787077],[4.9641077,47.1787462],[4.9636129,47.1789123],[4.9635336,47.1789385],[4.9635027,47.1789002],[4.9634276,47.1788131],[4.9633514,47.1787265],[4.9633268,47.1786651],[4.9631037,47.1787741],[4.9628011,47.1789189],[4.9624962,47.1790613],[4.9621961,47.1791119],[4.96193,47.1790698],[4.96156,47.1788808],[4.9611806,47.1787578],[4.9609035,47.1788051],[4.9607811,47.1787952],[4.9607431,47.1787852],[4.9606206,47.1788028],[4.9605805,47.1788162],[4.9604395,47.1788615],[4.9602967,47.1789043],[4.9602647,47.1789047],[4.9602421,47.1789028],[4.9600322,47.1788242],[4.9598131,47.1787071],[4.9597054,47.1786354],[4.9596563,47.1785348],[4.9596365,47.1784732],[4.959598,47.1784321],[4.9595187,47.1783927],[4.9592959,47.1783085],[4.9592681,47.1783157],[4.958832,47.1784548],[4.9587653,47.1784154],[4.9585856,47.1784647],[4.9582405,47.1785983],[4.9581218,47.1786477],[4.9580836,47.1786648],[4.9580285,47.1787074],[4.9579587,47.1787615],[4.9579089,47.1786831],[4.957631,47.1787867],[4.9576577,47.1788356],[4.9574477,47.1789107],[4.9574457,47.1789115],[4.9574049,47.1789245],[4.9573625,47.1789349],[4.9572847,47.1789417],[4.9572715,47.1789417],[4.9572437,47.1789394],[4.9572165,47.1789342],[4.9571258,47.1789049],[4.9570118,47.1788519],[4.9569076,47.1787867],[4.956834,47.1788165],[4.9567103,47.1787386],[4.9565765,47.178658],[4.9565132,47.1786098],[4.9564761,47.1785571],[4.9564563,47.1785392],[4.9563931,47.1784874],[4.9562248,47.1783846],[4.9561066,47.1783808],[4.9560537,47.1783792],[4.9559949,47.178377],[4.9559331,47.178328],[4.955806,47.1783399],[4.9557146,47.1781483],[4.9556524,47.1781261],[4.9556138,47.1780767],[4.9555797,47.1780332],[4.9555455,47.1779844],[4.9555156,47.1779343],[4.9554934,47.1778986],[4.9554706,47.1778548],[4.9554515,47.1778101],[4.9554281,47.1777592],[4.9553925,47.1776737],[4.9553609,47.1775875],[4.9553333,47.1775006],[4.9552678,47.1771925],[4.955212,47.1771388],[4.9551617,47.1770123],[4.9550683,47.1766305],[4.9549198,47.1764753],[4.9549749,47.1763386],[4.9550299,47.1763246],[4.9549741,47.1762904],[4.9545388,47.1756887],[4.9542646,47.1754758],[4.9536008,47.1748653],[4.9535076,47.1739641],[4.9535317,47.1739462],[4.9535244,47.1738995],[4.9534925,47.1736844],[4.9534783,47.1735964],[4.9535846,47.1736065],[4.9541309,47.1736626],[4.9541396,47.1735874],[4.954138,47.1735665],[4.9541314,47.173523],[4.9541205,47.17348],[4.9540534,47.1731885],[4.9540607,47.1731549],[4.9540772,47.1730982],[4.9540946,47.1730683],[4.9542274,47.1729087],[4.9545076,47.172603],[4.9545115,47.1725982],[4.9545944,47.172494],[4.9546736,47.1723886],[4.9546922,47.1723621],[4.9547154,47.1723355],[4.9547419,47.1723106],[4.9547491,47.1723057],[4.954782,47.1722822],[4.95484,47.1722446],[4.9549546,47.1721732],[4.955072,47.172104],[4.9550927,47.172092],[4.9550966,47.1720896],[4.9551138,47.1720796],[4.955245,47.1720047],[4.9553492,47.1719439],[4.9553662,47.171905],[4.9553598,47.1718453],[4.9553497,47.171749],[4.9553279,47.1715465],[4.9553388,47.1714719],[4.955378,47.171324],[4.9553836,47.1712939],[4.9553958,47.171242],[4.9554148,47.1711722],[4.9554598,47.171014],[4.9554929,47.1709396],[4.9555366,47.1708452],[4.9555211,47.1708367],[4.9556637,47.1706292],[4.9556893,47.1704205],[4.9555941,47.1699337],[4.9555234,47.1697756],[4.9555347,47.1694943],[4.9555952,47.1691401],[4.9555021,47.1688251],[4.9559436,47.1687722],[4.9567482,47.1686913],[4.9575087,47.1685942],[4.9575081,47.1682546],[4.9575394,47.1681636],[4.9577807,47.1680812],[4.9582422,47.1680166],[4.9587956,47.1679589],[4.9596093,47.1678358],[4.9599378,47.1678108],[4.9605418,47.1677432],[4.9611463,47.1677241],[4.9617117,47.1676538],[4.962888,47.167591]]]]}}]}
