{"type":"FeatureCollection","features":[{"type":"Feature","properties":{"tier":"village","appellation":"Barsac","source":"INAO d\u00e9limitation parcellaire des AOC viticoles, 2026-09-28 (data.gouv.fr, Licence Ouverte)"},"geometry":{"type":"MultiPolygon","coordinates":[[[[-0.30657212738063117,44.59827666600669],[-0.30831486163261257,44.59737605898438],[-0.3081045345906444,44.5966864836693],[-0.30938118678968957,44.5960966205992],[-0.310022094992155,44.59664498211628],[-0.3098040412713857,44.5977962920843],[-0.3104113971539432,44.598146527137],[-0.30747121326392274,44.59960806871502],[-0.30657212738063117,44.59827666600669]]],[[[-0.30924131131981064,44.5993472700064],[-0.31104084760055173,44.59858295747066],[-0.3114437554459168,44.59906573249515],[-0.3148962664377375,44.596918869322764],[-0.31735089286839285,44.59974248935714],[-0.3160985934039985,44.600791518762755],[-0.31489541863098874,44.60103586534745],[-0.31602392240788607,44.60235888042994],[-0.31516866754985245,44.60278741035834],[-0.31501646386632526,44.60401479034574],[-0.31369335468596216,44.60420262123849],[-0.31382909255507935,44.60509572258507],[-0.3115372837714123,44.605837352077764],[-0.3097817927035751,44.601793540015755],[-0.30826459668372697,44.60047850434982],[-0.30933700931916425,44.599746538696316],[-0.30924131131981064,44.5993472700064]]],[[[-0.3095460799993327,44.6017871770447],[-0.3122333949008982,44.60834707516766],[-0.31316454851016623,44.6088733879855],[-0.3126632756393934,44.609203787490685],[-0.3116273329962799,44.60920619312224],[-0.3107217406101242,44.608251554396475],[-0.31140797705899886,44.60788119968765],[-0.30946217262671516,44.60505670096516],[-0.3084051427856124,44.601996788823556],[-0.3095460799993327,44.6017871770447]]],[[[-0.31373119758814727,44.6100286576295],[-0.31459797506861215,44.61030892189726],[-0.314876001255812,44.61077038759783],[-0.31383322911383366,44.611081988022136],[-0.31330071541766036,44.61048839970532],[-0.31373119758814727,44.6100286576295]]],[[[-0.31509298428822713,44.61075360476633],[-0.31642402887590254,44.61148928069603],[-0.3165094603475089,44.61224026559556],[-0.31795728995452105,44.613004586855936],[-0.32014512390037225,44.61559552831097],[-0.3190824757554439,44.615988418679926],[-0.3171620411860139,44.61340708918266],[-0.31575694500445783,44.6141091080938],[-0.3138627484310456,44.61122364869657],[-0.31509298428822713,44.61075360476633]]],[[[-0.31495579251536804,44.605074351685445],[-0.31442510108656524,44.60548286266928],[-0.3139978900818059,44.60489684331277],[-0.3147152616944987,44.60470312921787],[-0.31495579251536804,44.605074351685445]]],[[[-0.31463269846218944,44.60616917968666],[-0.3151456470826826,44.605870677648156],[-0.3158644659007376,44.60646055540304],[-0.3146596540929227,44.60680784523831],[-0.31463269846218944,44.60616917968666]]],[[[-0.3146505777324248,44.60718763942979],[-0.3161449508565727,44.60674524730566],[-0.31638440827143344,44.60705288560766],[-0.31476758409139427,44.60792911612756],[-0.3146505777324248,44.60718763942979]]],[[[-0.31490632426877946,44.60542355079447],[-0.3156443300539984,44.604814999399686],[-0.31649782492122736,44.60548814183253],[-0.3155421163345046,44.606062325765414],[-0.31490632426877946,44.60542355079447]]],[[[-0.3159800172644457,44.61025852738281],[-0.31829750887326363,44.609153904044405],[-0.32085173071431783,44.60939720684295],[-0.3212666749956778,44.60880977087653],[-0.32019465576289285,44.60768558478259],[-0.3224115899499501,44.606887457576576],[-0.3287483737196464,44.61575312948556],[-0.3230177920685133,44.61869962695265],[-0.31778329135940364,44.612620197110815],[-0.3188054946247004,44.6121583410751],[-0.3180647478359359,44.61116555530806],[-0.31700272153093934,44.611284849090644],[-0.3159800172644457,44.61025852738281]]],[[[-0.315887692267417,44.59484445672717],[-0.31599149642240776,44.59170759660796],[-0.3151890459108371,44.588385753625865],[-0.3161727374415048,44.58877493378265],[-0.3170281563152418,44.58708600763421],[-0.31603925771629937,44.58660787932966],[-0.31902396632942887,44.58418261832127],[-0.3194680189706275,44.57983192304402],[-0.32171976626888293,44.5778130887365],[-0.32110412777944497,44.57763446028685],[-0.3225000559369601,44.57675476450033],[-0.3307684443338634,44.58003900415821],[-0.3297266001994239,44.58160463936082],[-0.33040692678879413,44.58160286371778],[-0.3312717693762661,44.58031296611687],[-0.34025863383301935,44.58263082089959],[-0.34201297654791446,44.58359601860977],[-0.34047887373148644,44.58436958820994],[-0.3405029390140831,44.58478226351448],[-0.3426201973133815,44.583789837355276],[-0.3509269996995782,44.58877060969008],[-0.3504372223087205,44.58931340116267],[-0.3521145645677758,44.59009670191163],[-0.35135010043131587,44.59374496335174],[-0.3515739074745018,44.5956454505818],[-0.3508812531113214,44.596378577322874],[-0.3499622846228113,44.595818150744485],[-0.34893665775200333,44.59695864163315],[-0.34923416824129566,44.59710748643172],[-0.3486639862997317,44.59773551489161],[-0.34949758098585343,44.59814076621926],[-0.34892630074050496,44.59873981515358],[-0.347987740958474,44.59923240563491],[-0.3471835551013732,44.5988595005512],[-0.34643968587278223,44.59947079412332],[-0.3453396111003442,44.598886981207606],[-0.3429078155393724,44.60038383194351],[-0.34159259004064546,44.60206815361475],[-0.3419271005726017,44.602336821602336],[-0.34129974253523754,44.60278335355465],[-0.34161964349271645,44.60301615181435],[-0.3394814936335207,44.60459459434225],[-0.33875554936301483,44.603971379632256],[-0.3393029948644338,44.603638018975296],[-0.3391926286412716,44.603160910380744],[-0.3385578260595696,44.60253656203793],[-0.3376418427324077,44.6024479164687],[-0.337055467588611,44.60296734205387],[-0.33666559805870006,44.602677174893394],[-0.33512278630450953,44.60400426073504],[-0.3358424036465775,44.60444450401585],[-0.3350711909045057,44.605089340724206],[-0.3343874324072602,44.60464125190562],[-0.33407343764185693,44.60491744253676],[-0.33644040391562674,44.606390842212534],[-0.3353322365449095,44.60812028002568],[-0.33219982973021667,44.61047682609235],[-0.3330984954797823,44.610750580125064],[-0.3347315468771706,44.60917949834091],[-0.3352773239026267,44.609366751734065],[-0.33438811059208023,44.61108236035086],[-0.33377404653323106,44.61088391713715],[-0.3332286180852,44.611671231299766],[-0.33253470883478986,44.61178866860601],[-0.3340063731183264,44.613163436248904],[-0.3323721057441575,44.61531797897737],[-0.32982336598043066,44.61610846232308],[-0.3220111469109543,44.605646406979005],[-0.3239585383197355,44.60411613714538],[-0.3214631186658539,44.60306245204073],[-0.32112535138144116,44.603417710307994],[-0.31978795313974306,44.60244990739616],[-0.3153268495713169,44.596256922354144],[-0.315887692267417,44.59484445672717]],[[-0.32461117727930355,44.59432360701191],[-0.32552620200132293,44.59573080090402],[-0.32601003951791685,44.595244892208754],[-0.3269546408690777,44.5953015914408],[-0.3300249750963574,44.59655541402422],[-0.33031789395660716,44.59601252817533],[-0.3258562827084681,44.59428008264635],[-0.32461117727930355,44.59432360701191]],[[-0.3267792093752822,44.600901325455034],[-0.32750589763414595,44.60030925013761],[-0.32570453660787657,44.60034088539854],[-0.3267792093752822,44.600901325455034]],[[-0.33025274165066076,44.58451961083886],[-0.3299852782159683,44.58502496539825],[-0.33040617974083214,44.58460067300656],[-0.33025274165066076,44.58451961083886]],[[-0.3334709780892248,44.588252242697976],[-0.3329670193994118,44.587540125478334],[-0.33189326184404794,44.588406900510435],[-0.3322114095848914,44.58864409897614],[-0.3318063028495327,44.58895826401715],[-0.3322618997962228,44.58924249524629],[-0.3334709780892248,44.588252242697976]]],[[[-0.31647090617067875,44.60368622117931],[-0.31852178281426574,44.60232504408507],[-0.31928258794896885,44.603814596959026],[-0.31728672640958083,44.60431723773715],[-0.31647090617067875,44.60368622117931]]],[[[-0.32328464316346556,44.576347578141956],[-0.3248331372492498,44.57568978113313],[-0.32718292559745016,44.57785232296464],[-0.32328464316346556,44.576347578141956]]],[[[-0.33040209950107435,44.62116345017047],[-0.3282816481612955,44.6230113519214],[-0.3271927552090111,44.622225981412],[-0.3279298023936736,44.62173424302838],[-0.3272295173384931,44.62122019224577],[-0.32903883370249903,44.620036756594004],[-0.33040209950107435,44.62116345017047]]],[[[-0.336777545976908,44.60568107652599],[-0.3375463085448219,44.60499503292734],[-0.3383792221241433,44.60556519454401],[-0.3376546372194617,44.60621765144061],[-0.336777545976908,44.60568107652599]]]]}}]}