{"type":"FeatureCollection","features":[{"type":"Feature","properties":{"tier":"village","appellation":"Margaux","source":"INAO d\u00e9limitation parcellaire des AOC viticoles, 2026-09-28 (data.gouv.fr, Licence Ouverte)"},"geometry":{"type":"MultiPolygon","coordinates":[[[[-0.6240246707945207,45.01778686244897],[-0.625169138307704,45.016670504801915],[-0.6260223702789445,45.01707206414218],[-0.6278394785680805,45.01601507827008],[-0.6295274020133323,45.017617749041506],[-0.6322924044956555,45.0195571189885],[-0.6304968002976813,45.02021621368428],[-0.6298898068801068,45.020533639189125],[-0.626149248408941,45.020039638881876],[-0.6240505721861963,45.018508703690166],[-0.6246722234414519,45.018051127071836],[-0.6240246707945207,45.01778686244897]]],[[[-0.6282573919878539,45.01373676828736],[-0.6297354117492346,45.01382014624863],[-0.6295006059549201,45.012977853304946],[-0.6298801895400952,45.01255707531686],[-0.636141302202434,45.01166109060932],[-0.6360887630037355,45.01102250110538],[-0.636949046320467,45.01077895854897],[-0.6381028919314881,45.010974131684065],[-0.6390151373547449,45.00938011703072],[-0.6384636116385438,45.009140377337204],[-0.6397473158400757,45.007936938792746],[-0.6379625321516683,45.00767876046053],[-0.6389330777449476,45.00675757744567],[-0.6420992941131937,45.00612990236507],[-0.640853188843128,45.00517229983462],[-0.6413209000951531,45.003758749564405],[-0.6433383360482802,45.00299371561722],[-0.6450471479839713,45.00268830854547],[-0.6461673412184767,45.00232593807325],[-0.6464230144822675,45.00644225243035],[-0.6468645892726327,45.00636711529095],[-0.6433996835392526,45.01154581454966],[-0.6428619604103277,45.013041617501074],[-0.6418356677754969,45.012843127060115],[-0.6418441945976714,45.01362448681274],[-0.6408890499016997,45.0140412445303],[-0.6408304665111556,45.01348641567555],[-0.6392626874298453,45.01473342752551],[-0.6389074687509463,45.01657376704478],[-0.6394737578338342,45.01667394836364],[-0.6388968348307954,45.01783111779519],[-0.6405702474228718,45.018482026279834],[-0.640272137865386,45.01957257428402],[-0.6397675199837072,45.01946560124799],[-0.6392247112677966,45.0206650107625],[-0.6396890562639943,45.02102216330683],[-0.6385671511167905,45.021460315241384],[-0.6378863074640482,45.021234982304506],[-0.6376649078234985,45.021567153083296],[-0.6382117236485959,45.021746305373185],[-0.6378430023674202,45.02199793735655],[-0.6337490961098006,45.02026992479263],[-0.630992190370626,45.018543479586995],[-0.6280228164866271,45.0159832312207],[-0.6282573919878539,45.01373676828736]]],[[[-0.6323078629968165,45.01962083426187],[-0.6350322371357439,45.021069584572494],[-0.6369486224158449,45.0218719672951],[-0.6366825676445617,45.022295458819606],[-0.6325720505688487,45.02112673689919],[-0.632690028446083,45.02060111192593],[-0.6299751801897856,45.02055789369777],[-0.6323078629968165,45.01962083426187]]],[[[-0.6322927222771912,45.019557315919975],[-0.6322929737326244,45.01955746995025],[-0.6323046457862089,45.019607293118604],[-0.6322927222771912,45.019557315919975]]],[[[-0.6459954302766951,45.00232174919107],[-0.6442782158058029,45.00276560327897],[-0.6441804306737903,45.00162842038606],[-0.6460988465190727,45.00166461109608],[-0.6459954302766951,45.00232174919107]]],[[[-0.6492333010932878,45.02972376326445],[-0.6491130878989863,45.02846906868482],[-0.650409998239974,45.0287037828438],[-0.6503900683187332,45.02925750181395],[-0.6511724219032081,45.02880576744467],[-0.6524744180962158,45.02919406084712],[-0.6531200462505751,45.03021698612201],[-0.65216453362027,45.03021256787926],[-0.652402429117586,45.0312574418872],[-0.6509873885563439,45.03201269668117],[-0.6484334816001058,45.03035641479833],[-0.6492333010932878,45.02972376326445]]],[[[-0.6497011637037207,45.02659968253637],[-0.6505065892813535,45.026256618517294],[-0.6526233787814246,45.02691967279928],[-0.6524458798795106,45.028266160767636],[-0.649477238402767,45.02772649635883],[-0.6497011637037207,45.02659968253637]]],[[[-0.6535836591995309,45.02349403857645],[-0.6555149727037146,45.02404261557785],[-0.6566535380033778,45.02297162794129],[-0.6597974233797193,45.02187343910806],[-0.6614060520804745,45.02080766646607],[-0.6631655300254655,45.02050386023125],[-0.6664434516103971,45.02105972858991],[-0.6664426975066946,45.02173684861166],[-0.6711691990292162,45.022081509597136],[-0.674686467066325,45.02413108307091],[-0.6760677269672418,45.02414611631202],[-0.6785984533445535,45.02585284139304],[-0.6785159688236116,45.02871053374345],[-0.6800534630754537,45.028403257638914],[-0.6807376996769287,45.02900256452373],[-0.6813686964605306,45.0321714282854],[-0.680758300134252,45.032144569218765],[-0.6789493058783181,45.030435381299874],[-0.6797095477289201,45.03292080414161],[-0.678980923927414,45.033038907492625],[-0.6786677954118809,45.03226110961976],[-0.6773803783590125,45.032394699645586],[-0.6780557139838119,45.03372847659003],[-0.6570466682046644,45.02811801942933],[-0.6545280245067564,45.02724705463081],[-0.6546553326444817,45.02657686828781],[-0.6524104588287032,45.026099497660375],[-0.6526251871499247,45.02542860811482],[-0.6520343567630394,45.0253261405895],[-0.6516807437836354,45.023827994807085],[-0.6535836591995309,45.02349403857645]],[[-0.6631032608201214,45.02272701636498],[-0.6643326787176207,45.02232599196618],[-0.6643117735696654,45.02146715274895],[-0.6623856623242874,45.02169534032299],[-0.6631032608201214,45.02272701636498]]],[[[-0.6524658320651217,45.0028042915051],[-0.6521466809218123,45.00032707652828],[-0.654660136223433,45.00002458346464],[-0.6540213190538725,44.99887924073943],[-0.6578067679115378,44.99801930693734],[-0.6585680029557193,44.999131759857036],[-0.6628226318664864,44.9984923699176],[-0.6548682861943653,45.00410802624347],[-0.6541542931473318,45.004225225633824],[-0.6524658320651217,45.0028042915051]]],[[[-0.6950997357985782,45.042978399373496],[-0.6941457211138133,45.045478204713916],[-0.6929651584074465,45.04585945191751],[-0.6923074602808265,45.04624524559564],[-0.6889484537646489,45.04947842771928],[-0.6875579231877864,45.0500962413119],[-0.6865105995045078,45.05087474207883],[-0.6820283983938101,45.05200089724494],[-0.680743893852438,45.05338551258911],[-0.6793349162056176,45.05377785542466],[-0.6761315609918145,45.054869689250324],[-0.6752686378999752,45.05338974920028],[-0.6743075341388054,45.053498092422736],[-0.6723374861935741,45.05076103630755],[-0.671779160510779,45.050902760773475],[-0.6714023231933651,45.05036896555846],[-0.6697206051508637,45.04552255653605],[-0.670701778743448,45.04532678608992],[-0.6702366530059777,45.04478373263017],[-0.6694587137008281,45.04504229386517],[-0.6688280850177013,45.04401687624431],[-0.6697430616021611,45.043713600268234],[-0.6692964636259325,45.04291187412167],[-0.6711097728926594,45.042139643882365],[-0.6708609836237335,45.041595497243065],[-0.6678032116917548,45.042725659125814],[-0.6680794469565963,45.04344250888852],[-0.6659037434120106,45.04409313305603],[-0.665395301772823,45.04293469010668],[-0.6643485004816689,45.042139822263444],[-0.6640522895571399,45.040377600580946],[-0.6645899143777665,45.04007840625286],[-0.6627817114468383,45.04028809639885],[-0.6625171732694061,45.03782033321276],[-0.6642347137913963,45.03760182231773],[-0.6675423003170771,45.03665163343308],[-0.669115038573992,45.03728473217997],[-0.6698703880120046,45.036501243936534],[-0.6693983458603431,45.03599879979691],[-0.6696294047706681,45.03531191854774],[-0.6690422809986727,45.03530883389345],[-0.6686942401187866,45.0347294695068],[-0.6680392334700731,45.03530215021577],[-0.6684486960729215,45.03596331802235],[-0.6675247342970368,45.03609472388056],[-0.6675347449288755,45.03659455620534],[-0.6646793211545169,45.0373793301525],[-0.6643307345662042,45.03563821580496],[-0.6638123133892552,45.03647461535254],[-0.6622826595302383,45.036737233328324],[-0.6620640512408336,45.037299209888346],[-0.6638822352012995,45.03697743199303],[-0.6642436082080323,45.03751635149425],[-0.6623450005377367,45.03769539320138],[-0.662529635427247,45.03871559799189],[-0.661905078951065,45.03880537405592],[-0.6621089273229196,45.03978123186585],[-0.6595149361873511,45.04032146977746],[-0.658588162267373,45.03912042281693],[-0.6601897546024407,45.03832198179695],[-0.6600437140729186,45.03795128151256],[-0.6594958051999028,45.03678726709215],[-0.658867795807189,45.0369231090771],[-0.6584551172642487,45.03613528516971],[-0.6574831154808238,45.03631776039481],[-0.6543808041501047,45.03020668497285],[-0.6547684981475254,45.028850493958394],[-0.6562957712116003,45.029526896035094],[-0.6567803123812761,45.02879764658429],[-0.6564869355621452,45.02811856771326],[-0.6784100227073994,45.03401313277427],[-0.6748542448038534,45.034715775073266],[-0.6747189354304167,45.03644138878453],[-0.674951907187587,45.03702706073699],[-0.6756026939735024,45.036948151683646],[-0.6763225844493506,45.03664404954002],[-0.6757135482357852,45.03579687878535],[-0.6766408062432856,45.03572947215276],[-0.6767775456363981,45.03616788295081],[-0.6796187906694482,45.03571000392175],[-0.6796863778467565,45.03740638606541],[-0.6807907307671365,45.03744305610278],[-0.6800891248346715,45.03909754558575],[-0.6786787148987963,45.03884402155856],[-0.6771668248954749,45.03981607929941],[-0.677133203753886,45.03883263305344],[-0.6767460291000076,45.03979113319667],[-0.6741225417229462,45.03985722301078],[-0.6741570926419835,45.04043556674991],[-0.673426228224902,45.04058507166912],[-0.6740712152628817,45.041747086740635],[-0.6759991053865161,45.041913274255535],[-0.6774606176990822,45.04474376423054],[-0.6783860312131811,45.044327040239196],[-0.678862833347813,45.044570874093246],[-0.6792057267202523,45.04361959779619],[-0.679546033561101,45.04387010386618],[-0.6794455738607185,45.04347358004238],[-0.6800070368515315,45.043183796788036],[-0.6807406421754507,45.043272749603524],[-0.6807528525110649,45.04260425462204],[-0.6797840508242577,45.04287289789178],[-0.6799458407987867,45.04196942982718],[-0.6791393316149188,45.04213454302964],[-0.6790409275815059,45.04164159555992],[-0.679978004502415,45.040672566268626],[-0.6807233144649074,45.04070804070787],[-0.6823151317367999,45.04209035707313],[-0.6840623581482038,45.04132551106676],[-0.6834722028419231,45.040663244906725],[-0.6849929390424356,45.03973407113225],[-0.6853895950952734,45.0386668795155],[-0.6860119075606337,45.03867664572778],[-0.6859820194755976,45.0396585923921],[-0.6862530316397996,45.038683712030405],[-0.6869514436984975,45.03869654079693],[-0.6869612297257117,45.03924433761742],[-0.6882824693658025,45.03918388293635],[-0.6888947802761818,45.03814918957892],[-0.690874651880257,45.038254444241815],[-0.6910047119249123,45.03982689512097],[-0.6904046248390123,45.03994035755451],[-0.6908814111966864,45.040576777039085],[-0.6935607635638441,45.04022396636725],[-0.6948138125661752,45.04082081436232],[-0.6956551714388395,45.040150651745286],[-0.6975580763089277,45.040394183063235],[-0.6965107296126001,45.04113871538132],[-0.6950997357985782,45.042978399373496]],[[-0.6840623581482038,45.04132551106676],[-0.68410809050931,45.04137690024241],[-0.6840623692349431,45.04132550354615],[-0.6840623581482038,45.04132551106676]],[[-0.6950997357985782,45.042978399373496],[-0.6950995851717339,45.04297804382556],[-0.6950995970536771,45.04297822370546],[-0.6950997357985782,45.042978399373496]],[[-0.6768342173616435,45.052762167641276],[-0.6765429072843169,45.05178939239316],[-0.6747317173585266,45.052307270527834],[-0.6761676092614383,45.052817894815874],[-0.6768342173616435,45.052762167641276]],[[-0.6903938287584456,45.04157480714884],[-0.6908981433784394,45.04165705396042],[-0.6908224881756885,45.04078784874801],[-0.6902093779047093,45.040912197568595],[-0.6903938287584456,45.04157480714884]]],[[[-0.6628348528873211,45.00341691321222],[-0.660898168725413,45.00251623869786],[-0.6592460789303067,45.002664345986325],[-0.6598830826655324,45.00195295729544],[-0.6611189222160095,45.00220071259504],[-0.6634234728882827,45.0031703877493],[-0.6654074815590282,45.00514206352255],[-0.6667009803060671,45.00518235278224],[-0.662050049005847,45.00159680291103],[-0.664441158968075,45.003073768114646],[-0.6661264980416114,45.002152935019446],[-0.6651646234747345,45.00143291480908],[-0.669734741449445,45.000914462808275],[-0.6697615225343496,44.99837718657433],[-0.6709007476728754,44.99846938262084],[-0.6709927067556163,44.9973919403982],[-0.6726146986619401,44.99682642102603],[-0.6771152825061759,44.99591335394811],[-0.6778528516712419,44.99642797124424],[-0.6791625832909889,44.99559686650381],[-0.6792439406490108,44.99629362385699],[-0.6805851913394653,44.99640607628617],[-0.6812239044268265,44.99533936582403],[-0.6839691488978936,44.9957460034275],[-0.6861163599104816,44.99694756494966],[-0.6863807646995135,44.99787621089424],[-0.685614000187258,44.99830903777097],[-0.6857844664563599,44.99877569878269],[-0.6844531726611875,44.99912447079217],[-0.684054354990178,44.99862391043319],[-0.6842500827730116,44.999706263699075],[-0.6824560077487503,44.99997299439335],[-0.6826577597233191,45.000954198780924],[-0.674884420146545,45.0029941947492],[-0.6734671535509287,45.00509429148666],[-0.6738133520349977,45.0051423460502],[-0.6716888105850187,45.0065338801838],[-0.6707118776168964,45.00640027670551],[-0.668038956106061,45.00815054322908],[-0.663545271095409,45.01458283391019],[-0.6610043079624263,45.0149404950155],[-0.6606169864198056,45.014691850403594],[-0.6623357140073399,45.010274563322845],[-0.6616013532954715,45.01012027268493],[-0.6618243723220298,45.00941168392699],[-0.6600836633699304,45.008673988476076],[-0.6604238230103225,45.007891243733205],[-0.6599664674211257,45.006492985570745],[-0.6584512534617355,45.0068709226139],[-0.6576822584509261,45.0057190592154],[-0.6628898148472029,45.00382972189486],[-0.6628348528873211,45.00341691321222]]],[[[-0.6653620871611888,45.00006357255984],[-0.6649638006855625,44.99941330827103],[-0.6651119233691897,44.9992696197387],[-0.6652440804455265,44.99965825088629],[-0.6653620871611888,45.00006357255984]]],[[[-0.6652167961383728,45.00017291696069],[-0.6635186165323977,45.00136276097351],[-0.6612394682034543,45.001673964989436],[-0.6623554650184432,44.99954610320681],[-0.663115128753441,44.999001910137814],[-0.6648248091911447,44.99899786176772],[-0.6652167961383728,45.00017291696069]]],[[[-0.6640809997644617,45.018559787913716],[-0.6679759703877118,45.018765118110785],[-0.669163613360146,45.01802722682316],[-0.6747066476726941,45.017755308145546],[-0.6755434405686036,45.01752242599907],[-0.6752816094368292,45.01666451360198],[-0.6787539984349665,45.01569092879704],[-0.6797259724472144,45.01589124234581],[-0.679744030141148,45.0181605333485],[-0.6806610171490235,45.01927086780121],[-0.6814185431087592,45.01664871891745],[-0.6859291529119441,45.01718340283835],[-0.6863008825049333,45.01626332534636],[-0.6889739175546356,45.01628892047293],[-0.689775903385849,45.01651803978615],[-0.6894065192102431,45.017212622209755],[-0.6944836835602606,45.01641127847794],[-0.6962247559422947,45.016808633393545],[-0.6961509565044017,45.017203630351595],[-0.6995413240516111,45.01775614419015],[-0.6989201696916153,45.019173738969094],[-0.6923716273241526,45.01713398764725],[-0.6919800645227638,45.01957246424357],[-0.694419300633232,45.01922459507146],[-0.6971630326897177,45.01967156371675],[-0.6968276715900841,45.02077624685312],[-0.695022705626515,45.02067774861069],[-0.694661364861492,45.02055805944958],[-0.6949019694598951,45.02007333624337],[-0.6941119664699468,45.01994408523326],[-0.6932528010704957,45.02154945909885],[-0.69069774221234,45.02118338514181],[-0.6906307770193102,45.02123752515636],[-0.6916567514299897,45.02280521166383],[-0.695068158037838,45.02379713158302],[-0.6953071466043478,45.02456382943977],[-0.6965975990420764,45.02506232418317],[-0.6961671858865466,45.025969789238694],[-0.697133601660633,45.026266860884846],[-0.6964773195580157,45.02731667707133],[-0.6913916903236642,45.02639170612897],[-0.6915265141174938,45.02574771396433],[-0.6898857218916881,45.02464271460557],[-0.6904905855371658,45.0238814609284],[-0.6889096638207602,45.02240526574157],[-0.6869793380716016,45.022759851047184],[-0.6863854537784954,45.022003998047076],[-0.6861927161846468,45.02171167267312],[-0.6878262859943338,45.02125733142851],[-0.6874588531125014,45.02090418804096],[-0.6824213672449391,45.02013344313902],[-0.6814026544714082,45.02222613228516],[-0.6791404794848918,45.021564282215756],[-0.679543855341547,45.020763876164814],[-0.6782366529007949,45.02041257756793],[-0.6779261488450049,45.02133844170119],[-0.6733611873076885,45.02130366826718],[-0.6711524908465295,45.0205772506113],[-0.6672896701631447,45.020969464656055],[-0.6638876522922789,45.02034677175228],[-0.6639592497928494,45.0199845048823],[-0.6630515077836933,45.019594818047906],[-0.6640809997644617,45.018559787913716]]],[[[-0.6653188312848596,44.987877025229146],[-0.6644627575179665,44.98865335555384],[-0.6626551219176788,44.98866964881633],[-0.6641474688991414,44.98721258544964],[-0.6653188312848596,44.987877025229146]]],[[[-0.6656474996426749,44.990530560135795],[-0.6661322551079123,44.98889396358569],[-0.6669935768783386,44.98881869184802],[-0.6693116459741165,44.990117673114575],[-0.6666218633463158,44.99035782578821],[-0.6655694442670504,44.99205460091952],[-0.6643464288327834,44.991766820788676],[-0.6644213075334567,44.99050427609993],[-0.6656474996426749,44.990530560135795]]],[[[-0.666317940699959,45.01570650723901],[-0.6678108347918902,45.013239874069924],[-0.6689721388981607,45.01238495395458],[-0.6698381220943793,45.01264662301965],[-0.6702745930767713,45.01205535801308],[-0.6698181917324185,45.01180001066422],[-0.6721768895490526,45.00951926654148],[-0.6721932483866255,45.00860655886813],[-0.6731281706577966,45.00755716202653],[-0.6742592315257828,45.007096169715496],[-0.6745750694838374,45.00563636203896],[-0.6752449468769687,45.005698956253454],[-0.6754333586444399,45.004582264536275],[-0.6790478719646409,45.0048701740782],[-0.6828008149251678,45.003592235601644],[-0.6835144157631711,45.004087785359324],[-0.6850997803582024,45.00323486406801],[-0.6843224088127343,45.00841097240999],[-0.6825524296699526,45.00823703585228],[-0.6822402166599635,45.010289846494366],[-0.6830244273456224,45.010775854677625],[-0.6819147865708927,45.01075129735556],[-0.6799237392185324,45.01173836962135],[-0.6796247326637735,45.01306604362701],[-0.6767418350376297,45.01401945748694],[-0.6754451511614964,45.0149402269313],[-0.6744484680561235,45.01686960192119],[-0.6731185496873878,45.0170144721462],[-0.6724937506509644,45.01636268999351],[-0.6723040862458424,45.016648370598865],[-0.6683004232845794,45.016017917538335],[-0.668265194645496,45.01660495740728],[-0.6662264613187627,45.01663791258222],[-0.666317940699959,45.01570650723901]]],[[[-0.6691980867764946,44.99140854131647],[-0.6697583103800758,44.99201018005456],[-0.6685696751180171,44.9927903065097],[-0.6675417418018479,44.99435650040142],[-0.6665272402382794,44.994227712378986],[-0.6667101418482243,44.99286966484132],[-0.6654336000124964,44.9929676331966],[-0.6654304220135329,44.99218176627949],[-0.6691980867764946,44.99140854131647]]],[[[-0.6691928296171209,44.988149451465674],[-0.671093547605167,44.9892043822547],[-0.6696076396877175,44.99017640752363],[-0.6671706628586058,44.98880744358496],[-0.6668234851729464,44.98816091240216],[-0.6691928296171209,44.988149451465674]]],[[[-0.6759752909944459,45.055357530326496],[-0.6807990737502957,45.05342208627908],[-0.6821998758398113,45.05202506035327],[-0.6865303164532006,45.05093466109736],[-0.6888671085961314,45.04960812660666],[-0.6923884411281311,45.046262389343816],[-0.6942706477734424,45.04546576568792],[-0.6951865950222167,45.04294793361609],[-0.6964394409676272,45.041541382542135],[-0.6981531540906136,45.04497457019119],[-0.6985087442984571,45.04674125647051],[-0.6974850818415924,45.047310953331305],[-0.6980685247089751,45.04845830971125],[-0.6973299555097754,45.050523377198914],[-0.6977652087072732,45.05114447870497],[-0.6957806672232966,45.05169550585135],[-0.6948848982422422,45.05141183516467],[-0.6942093674497862,45.05001711714217],[-0.6936277018622117,45.05024166256096],[-0.6940696113732857,45.051676586412555],[-0.6925549948173436,45.05107172230211],[-0.6895474095942089,45.051395351352284],[-0.6914870266490284,45.05401632337919],[-0.6915801962758261,45.05584788807445],[-0.6923805041801423,45.05758957101435],[-0.6902142001375438,45.05852401392014],[-0.6900281534292965,45.05815412792656],[-0.6874983960194709,45.05847446951967],[-0.6877824826843916,45.05907582892862],[-0.6897348641239077,45.05877831460496],[-0.6897527333139161,45.05913782082566],[-0.688425055063015,45.05956093280623],[-0.6896234790258312,45.05964993806379],[-0.6880039989848182,45.06070114634661],[-0.6886855300480966,45.06121740848968],[-0.6892460196441113,45.06021489826802],[-0.6899888530760181,45.06035523148567],[-0.6901730271623538,45.05978306459996],[-0.6918742967205569,45.06017599624984],[-0.6926148786428317,45.0613915467175],[-0.6920321927429349,45.06191266647057],[-0.6926704244627587,45.06225006693149],[-0.6918611775525474,45.06347960885928],[-0.6926842977954253,45.063956316035224],[-0.6965508540646593,45.0642151604196],[-0.6982461464577098,45.065803418988594],[-0.6983383001865177,45.06716193641714],[-0.6965569671746553,45.06794944831607],[-0.694736290826442,45.06807221673233],[-0.6946025001799311,45.06751890174395],[-0.6933866827097054,45.067421750564726],[-0.6892142135645839,45.06802237197067],[-0.6874975082236341,45.067410436350094],[-0.687121041187029,45.066457460427735],[-0.6863964389326097,45.06690809085769],[-0.6858959168315094,45.06661309250902],[-0.6869249980003208,45.065710927116115],[-0.685871740868619,45.066153129208345],[-0.6844821647724516,45.06543710093268],[-0.6826200796571839,45.06319092617728],[-0.6821086038166243,45.06331034640552],[-0.6809927918500188,45.06136359958787],[-0.680648128852042,45.05886160116663],[-0.6799407345532873,45.05793521507493],[-0.6789156063044313,45.0581095289871],[-0.6780843501815553,45.05643620739796],[-0.6767262923632227,45.056828815053834],[-0.6759752909944459,45.055357530326496]]],[[[-0.6754153674875623,45.04004708616121],[-0.6767552049428769,45.03989592879056],[-0.6763351233306926,45.040688582316434],[-0.6755273890399931,45.04055626092888],[-0.6754153674875623,45.04004708616121]]],[[[-0.6783172754369162,45.034110570992766],[-0.678967459555015,45.03484081296537],[-0.6807575878416625,45.03480027551261],[-0.6779446090604522,45.035553888994755],[-0.6777804545788714,45.035203276671176],[-0.6766788825423116,45.03549061559379],[-0.6760153513900249,45.034591706680935],[-0.6783172754369162,45.034110570992766]]],[[[-0.6784254538038429,45.04101701428382],[-0.6783727673987179,45.04134685159346],[-0.6794583511435176,45.04112213148745],[-0.6786859753665679,45.041649542731754],[-0.6788431101054179,45.042531019607104],[-0.6781600555919595,45.04265959556177],[-0.6779508437710647,45.04175550223066],[-0.6774524233975736,45.04182253862198],[-0.677423760677254,45.04125887245366],[-0.6768458883021167,45.04099133205362],[-0.6784254538038429,45.04101701428382]]],[[[-0.6766197964450776,45.02342589749775],[-0.6820794899918937,45.023623646939285],[-0.6855775235408255,45.02506069376014],[-0.6849788699122308,45.02587110734236],[-0.6868666068389871,45.026650805170576],[-0.685699951304222,45.02785726288579],[-0.6842420545838931,45.02707944666996],[-0.6843421700070529,45.02653828877879],[-0.6836685942370079,45.02623429785338],[-0.682976492150706,45.02649453762596],[-0.6802468894688215,45.02508463247188],[-0.6794389612863935,45.02518192975042],[-0.6804396175736019,45.02401861909006],[-0.6801116495688465,45.02396556118213],[-0.6793903151663162,45.02392019360054],[-0.6794937571056489,45.02508745792929],[-0.678211976399383,45.02535067207266],[-0.6767846618123987,45.024025891163625],[-0.6766197964450776,45.02342589749775]]],[[[-0.6805799901296987,45.0405701849371],[-0.6810097879598415,45.0393580579852],[-0.6825979083122609,45.04016902587615],[-0.6821363906273281,45.040916204119064],[-0.6811664277619114,45.04102562787277],[-0.6805799901296987,45.0405701849371]]],[[[-0.6829978998905776,44.992992992068615],[-0.6831631083118158,44.992569292324134],[-0.6851059914084022,44.99213536772877],[-0.6873435665950463,44.99309053996304],[-0.687128089893105,44.99464080550707],[-0.6829978998905776,44.992992992068615]]],[[[-0.6877647992695136,45.0286731754142],[-0.687403432983327,45.028264304431055],[-0.6881360967585903,45.02792517524853],[-0.6874952300280254,45.02716916948576],[-0.6883922802315023,45.0269003047535],[-0.6919198381522658,45.02925296720549],[-0.6950294701830635,45.032421446081244],[-0.6940538831533463,45.03317673470282],[-0.6929089656756182,45.032634254848126],[-0.6913539481046395,45.03316618827053],[-0.6907865826872194,45.03215204087138],[-0.6897436846113792,45.03263145084537],[-0.6872614903035361,45.029125124025036],[-0.6877647992695136,45.0286731754142]]],[[[-0.6914834434076734,45.059217996670576],[-0.6922781149874903,45.05894737156047],[-0.6938950543374214,45.06086192221354],[-0.692804056087329,45.06132884601682],[-0.6914834434076734,45.059217996670576]]],[[[-0.6884014827856518,44.993569227939425],[-0.689376563292276,44.99398575712343],[-0.6882961071200532,44.99385935430755],[-0.6884014827856518,44.993569227939425]]],[[[-0.6901249650373389,45.007692225870464],[-0.6915755443538023,45.007800928843665],[-0.691419429539076,45.0085163828194],[-0.6909826768868672,45.008945502751885],[-0.6898534671285845,45.008854974325196],[-0.6901249650373389,45.007692225870464]]],[[[-0.6942137047750846,45.05558899548177],[-0.6949243024194636,45.055262703444335],[-0.6943565793112281,45.05426157738743],[-0.6960128642610633,45.05378917128232],[-0.694987154558984,45.05262863088266],[-0.6963285044871591,45.05182676355561],[-0.6972605179049146,45.05356647293659],[-0.6975961709622716,45.05324813538995],[-0.6991052194546358,45.05444189936504],[-0.699163265744852,45.05517531377625],[-0.6975700153938891,45.05575699270549],[-0.6986877882472712,45.05597729356087],[-0.6988341525929003,45.0566693752906],[-0.6960199816234331,45.056864157229604],[-0.6957323572649922,45.05642599287216],[-0.6946411734533365,45.05689108682923],[-0.694499481488553,45.05631323064637],[-0.6940722860601773,45.05634363189512],[-0.6942137047750846,45.05558899548177]]],[[[-0.6944684262700047,45.057877966504726],[-0.6952170345988027,45.05767672163281],[-0.6950413805921041,45.05703536444873],[-0.6971115490704091,45.05686288484335],[-0.6972055466475313,45.05744601834544],[-0.6980579664555908,45.05731864431452],[-0.6984078489259217,45.05849404489641],[-0.6995268513488304,45.05831679088343],[-0.699412609728571,45.05727228487781],[-0.7011069458565128,45.057253014745314],[-0.7012647716407354,45.05814851532214],[-0.7027152921285487,45.058280286217936],[-0.7027677934765576,45.05873037462953],[-0.704092281713313,45.05887626221272],[-0.7044594926922774,45.058326929148265],[-0.7051303367048185,45.058358398925094],[-0.7043388085294694,45.06001182160986],[-0.7033961493979867,45.05986706230486],[-0.7030279028020172,45.061340079364015],[-0.7022442007187891,45.0613939056343],[-0.7024573836288887,45.062581415703725],[-0.7041644015074516,45.06256105165811],[-0.7040110001605614,45.06487846947807],[-0.7011104312002889,45.06516529787406],[-0.6997175180949806,45.06467265648642],[-0.698696142090761,45.06297612413914],[-0.6989406678053562,45.062529209388764],[-0.6985671228828645,45.06257920663641],[-0.6984850221987622,45.061843615028494],[-0.6990780329066082,45.06096417913119],[-0.6988810434096128,45.06006069269236],[-0.6983325006363775,45.060998952570294],[-0.6967632570502996,45.0609402003678],[-0.6960627877739598,45.05876265627952],[-0.695752142903626,45.05840737104183],[-0.6950932356628955,45.05889038662589],[-0.6944684262700047,45.057877966504726]],[[-0.7017372529809781,45.05886742984559],[-0.7023497164211269,45.05953941308114],[-0.7023249813686954,45.05882192623394],[-0.7017372529809781,45.05886742984559]]],[[[-0.6941200052692366,45.0344900879679],[-0.6945363763472648,45.03651597491494],[-0.6936043858415429,45.03654060245676],[-0.693133335981101,45.034506252182176],[-0.6941200052692366,45.0344900879679]]],[[[-0.6934601323018517,45.01294644091493],[-0.6944664440756683,45.01244431445315],[-0.6973327741594908,45.01228418161858],[-0.6973521889406834,45.01400153956073],[-0.6930955166282039,45.014160965743336],[-0.6934601323018517,45.01294644091493]]],[[[-0.6995671998515625,45.05435317492869],[-0.7015814479691903,45.05284743626651],[-0.7039262949637706,45.05492418596145],[-0.7041852685259028,45.055280267144504],[-0.7035004120270687,45.05546007372741],[-0.7021768115751026,45.055292726684144],[-0.7017992475406873,45.0545816920763],[-0.70108261227156,45.05510007954851],[-0.7016297059785005,45.055843454595994],[-0.7029271844330724,45.05560880602782],[-0.7034462870508631,45.0566649455779],[-0.7038399867131163,45.05662228230853],[-0.7033577517304264,45.05698148084251],[-0.7036302739354491,45.05785584814322],[-0.7024008587212335,45.05802014964321],[-0.7022026451768865,45.05713149166094],[-0.7012970308360214,45.05729852431136],[-0.7007795901810733,45.05595678192878],[-0.7001317728015654,45.05610543717755],[-0.7005672604962765,45.05564496890605],[-0.6995671998515625,45.05435317492869]]],[[[-0.7012247489646289,45.03829126118735],[-0.7023521645059922,45.036989464922506],[-0.7022711125002921,45.03581039679264],[-0.7013622856209103,45.03581412836001],[-0.7013155343417345,45.034092888555044],[-0.7022939035612896,45.03425873473252],[-0.7023048167726144,45.0337712693581],[-0.7054180037845909,45.03460499785528],[-0.7051843175722702,45.036541298836816],[-0.7077953183910577,45.036486929423816],[-0.7084100759854319,45.03997316561981],[-0.7096173647836901,45.03931188007768],[-0.7108690505378933,45.04018279743498],[-0.7121495654837281,45.042506848069515],[-0.711769931703159,45.043002902163494],[-0.7137025604538301,45.04262693230154],[-0.7160425209126028,45.04682291867498],[-0.7164322285768645,45.04683020624071],[-0.7159936828027123,45.04626232897346],[-0.7177001640553421,45.04613181686494],[-0.7178006920142941,45.04717370501331],[-0.7192044602487453,45.04751034717882],[-0.7196742430674371,45.04851192619141],[-0.72055381698698,45.04806097748011],[-0.72158065132075,45.04906712105408],[-0.7213087244905693,45.05041738714911],[-0.722993365729708,45.051009963778895],[-0.724895815546108,45.052747294536196],[-0.7251293948868035,45.053338812627906],[-0.7237455973555431,45.05367355653241],[-0.7243038249898492,45.055305777875006],[-0.7259671871117496,45.05487567848064],[-0.7262373446812571,45.05695498003204],[-0.724964541412063,45.05711295424697],[-0.725108418414325,45.057541258528076],[-0.7263180153155845,45.05745949309462],[-0.7262357831670161,45.05873528181974],[-0.7242984571851356,45.05980083406355],[-0.721436476697779,45.059878961892316],[-0.7198636422673725,45.06046623034306],[-0.7064037216349263,45.04786901303742],[-0.7070257925626116,45.04792924982562],[-0.7066208861449197,45.046072814497705],[-0.7085063046802889,45.045925911462064],[-0.7083034447579796,45.044901059503665],[-0.7061814360343931,45.04467733181808],[-0.7057522377994571,45.043956197576],[-0.7043154948861643,45.04459937588054],[-0.7021536690400637,45.04283430101719],[-0.7006507815718797,45.03836280868233],[-0.7012247489646289,45.03829126118735]],[[-0.71267085807459,45.05117166362034],[-0.7146908225386993,45.050932468534],[-0.7144912596717855,45.05016393778995],[-0.7124397539351951,45.050586171296594],[-0.71267085807459,45.05117166362034]]],[[[-0.7032288454334241,45.013627588010955],[-0.7060803834681085,45.01370388260103],[-0.7060646140862223,45.014310129086596],[-0.7038326298267182,45.01487841716377],[-0.7016674447121025,45.01465123195293],[-0.701521399869757,45.0140954405037],[-0.7032288454334241,45.013627588010955]]],[[[-0.7074226698715095,45.05595417429657],[-0.707597687094711,45.05467126811453],[-0.7126337852072306,45.05587559077071],[-0.7127842719536067,45.05507377514341],[-0.7135281096870786,45.05483639949461],[-0.7160393783409204,45.05718940509271],[-0.7153883368282814,45.05748371429719],[-0.7152623685148695,45.05698692791867],[-0.713736969603654,45.05684207131279],[-0.7136970754143138,45.057346528363],[-0.7107885070201875,45.0566937554827],[-0.7144412879776967,45.05769667608289],[-0.7151186168880016,45.05894854462067],[-0.7153184970259602,45.059669563681105],[-0.7134618002414888,45.060119836400446],[-0.7134372345589859,45.061787760202236],[-0.713950662799787,45.06275648057339],[-0.7100606820096114,45.06359682679907],[-0.7098440501315664,45.062369418920156],[-0.7085654240262741,45.060566344366734],[-0.7092382097710503,45.058969556741175],[-0.7079338117980253,45.058567644928225],[-0.7068640161581267,45.05646586063525],[-0.7074226698715095,45.05595417429657]]],[[[-0.7083706883190114,44.9906570679556],[-0.7112518299442057,44.98928100192497],[-0.7105595936684325,44.98857219468855],[-0.7124090617092657,44.987692018523],[-0.7137336031169861,44.98877990495715],[-0.715087180149,44.988083899180225],[-0.716432391711962,44.98921433079161],[-0.7150815776044706,44.989913865966],[-0.7164813511557397,44.991100163791735],[-0.7155308192600691,44.99155377058864],[-0.716782193152859,44.99287662551163],[-0.7140065504955497,44.99435026442874],[-0.7143025003929405,44.994713546927954],[-0.7129560002981642,44.99555712713598],[-0.7093740752770855,44.99732797133528],[-0.7059139112296254,44.99403256329085],[-0.704992831380781,44.994472475302295],[-0.703459747867406,44.992996632354014],[-0.7043608928252793,44.992562805087026],[-0.7049680038402206,44.99313747948959],[-0.7090295035648447,44.99120656069817],[-0.7083706883190114,44.9906570679556]]],[[[-0.7163870944908733,45.03339700181963],[-0.7172302327494653,45.032893532603595],[-0.7148348656401038,45.03129856245308],[-0.7182434096364945,45.03113153560994],[-0.7206068542823252,45.0315587785863],[-0.7218220626391201,45.032655379360435],[-0.7215825793209449,45.03285963827688],[-0.7222677459449364,45.03277501240196],[-0.7230580276175429,45.03440894268125],[-0.7229771303067206,45.035873118755994],[-0.7216170200523648,45.03586925337393],[-0.7211701256655433,45.034920411067525],[-0.718765831433669,45.035448707528644],[-0.718504419755647,45.03483010773635],[-0.716935615217981,45.035383092457565],[-0.7174002588553035,45.03589851295606],[-0.7157904401132062,45.036131832430925],[-0.7136718069864595,45.03419604626183],[-0.7148559654691528,45.034217076402165],[-0.7118373858047762,45.03204860247955],[-0.7123726388813034,45.031809872858794],[-0.7132271139893237,45.03232386638409],[-0.7138304930799053,45.03197415893363],[-0.7163870944908733,45.03339700181963]],[[-0.718590903187217,45.03412321107476],[-0.7192775208170682,45.03431866945169],[-0.7197165721665518,45.03402964932094],[-0.7193949657680025,45.03375239837514],[-0.718590903187217,45.03412321107476]]],[[[-0.7142656984282185,45.06194445798345],[-0.7150220257186723,45.062294110101405],[-0.7150246055443598,45.061182343374284],[-0.7160971466505929,45.06044544968925],[-0.7159032613547295,45.06229733167862],[-0.7144231061457843,45.06271539074036],[-0.7142656984282185,45.06194445798345]]],[[[-0.7179113863263874,45.059312676405135],[-0.7173528233482597,45.059431472856424],[-0.7170148895906479,45.058690728621954],[-0.7173463879720775,45.05840671986476],[-0.7200836872509998,45.06099476291128],[-0.7189734920831352,45.06144103039697],[-0.7182177065902591,45.06136812197402],[-0.7182942037783279,45.060867477797274],[-0.7171879306636609,45.060976458928884],[-0.7167091937819672,45.06013612384095],[-0.7181779658152292,45.05975852379656],[-0.7179113863263874,45.059312676405135]]],[[[-0.7188044891891832,45.03555215635701],[-0.719341749766472,45.03696568775768],[-0.7167927038122591,45.036414927263884],[-0.7188044891891832,45.03555215635701]]],[[[-0.7177947189791394,45.03991682419512],[-0.7174834373664409,45.03776004558619],[-0.7197853886676016,45.03699755131337],[-0.7196829367588194,45.03881996845299],[-0.7215592832720985,45.03929554510293],[-0.7196440628207078,45.039535524565885],[-0.7196200786054799,45.03991689062943],[-0.7177947189791394,45.03991682419512]]]]}}]}