{"type":"FeatureCollection","features":[{"type":"Feature","properties":{"tier":"village","appellation":"Pauillac","source":"INAO d\u00e9limitation parcellaire des AOC viticoles, 2026-09-28 (data.gouv.fr, Licence Ouverte)"},"geometry":{"type":"MultiPolygon","coordinates":[[[[-0.7403010944206895,45.17902096898765],[-0.7411713294608006,45.17715558354423],[-0.7418313034688465,45.177196053264005],[-0.741574207289335,45.17519201615266],[-0.7463390720592282,45.17395295465993],[-0.7494656456936151,45.17197072592682],[-0.7519422424744217,45.171497899396485],[-0.7534155424595794,45.170284946701635],[-0.7544937890416741,45.16991197427144],[-0.7557128866195489,45.16932006811879],[-0.7564579259898595,45.17022228420984],[-0.763316252434346,45.171941997689814],[-0.7617712572615065,45.17307583487278],[-0.7609104586946359,45.173152591008325],[-0.7614894539138711,45.17399439162564],[-0.762844531110157,45.17376885393254],[-0.7643618620700162,45.172230558457315],[-0.7636583199934491,45.17197440184791],[-0.7708819939635988,45.16956535668997],[-0.7737790583249884,45.170639516229954],[-0.7756661490243515,45.16820306553739],[-0.7808997453794541,45.166712286222946],[-0.7833770613441341,45.16713656314972],[-0.7820210824066093,45.16828199956067],[-0.7842904863721386,45.1696981859357],[-0.7857202710838128,45.16805026359123],[-0.7866292947793286,45.16833794315543],[-0.7864553317235488,45.16963382308002],[-0.7900088982435972,45.1747514738579],[-0.789240608850779,45.17941176200658],[-0.7844483009807921,45.17886508029747],[-0.7861079377215726,45.17592525190031],[-0.7847611403919491,45.176010761325855],[-0.7833445031278762,45.17846062802033],[-0.7848523452993972,45.17908313622523],[-0.7880968433272902,45.17936707606881],[-0.7833482383589646,45.18567770323836],[-0.7824703321759776,45.18600187334268],[-0.7821540165323732,45.18718020031213],[-0.7811925608149527,45.18723617944762],[-0.7809521662552162,45.188276847011835],[-0.7787216750372528,45.18925187264093],[-0.7776147175394496,45.18927759050449],[-0.7774610892977576,45.18873265541926],[-0.7765451743583346,45.18968090976342],[-0.7737727193342492,45.189967529398906],[-0.7736403760958811,45.18848015611483],[-0.7709645510974342,45.18792671817893],[-0.7713366115173754,45.18702644530626],[-0.7704250141170742,45.1868921541926],[-0.771032865563043,45.1850728244383],[-0.7728954918394404,45.185286237763705],[-0.7725834843405222,45.18406100581467],[-0.7731733334674551,45.184082715375546],[-0.7727039058221506,45.18051632952501],[-0.7731757109057946,45.17933362517881],[-0.7712556562938764,45.17936158816524],[-0.7701884050769523,45.18092290185149],[-0.769287937588533,45.18370308947242],[-0.770479376189046,45.18385402800355],[-0.7692617854117716,45.18713712043962],[-0.7705524788549005,45.19093447794479],[-0.7694822247766351,45.1914982531745],[-0.7675387032699672,45.19481882437819],[-0.7655959559133797,45.19695861905009],[-0.7634744273226742,45.198707139055],[-0.7614639762765493,45.19955782098153],[-0.7616332535685683,45.200150853424645],[-0.7591908723665166,45.20201205164051],[-0.7579033164519007,45.20100167307837],[-0.7568407406489454,45.20125811877836],[-0.75655798905332,45.20201254106829],[-0.7551492794184802,45.20075295097853],[-0.756700502957403,45.20019814889174],[-0.7564094164238371,45.19956769945554],[-0.7576717831942619,45.198745682453804],[-0.7567639229786516,45.198879281426194],[-0.7565768411872634,45.19941265044527],[-0.7561129643649132,45.19815872212355],[-0.7549835883071536,45.19810964877179],[-0.7548625742413829,45.19664703569527],[-0.7558176756618356,45.19633748703504],[-0.7548713442771795,45.19645057871812],[-0.7545145006891671,45.1960501410204],[-0.7553978946610682,45.1954400709744],[-0.7555639478602937,45.193185305354326],[-0.7491371812916565,45.192942627249316],[-0.7492770828299674,45.191478820742155],[-0.7478380159399051,45.19144035541777],[-0.748727312876874,45.18966026039792],[-0.7480394333783391,45.18955396738162],[-0.7482723024197894,45.1885401461765],[-0.7504793403696118,45.18860890719049],[-0.7476931290442016,45.188224402801765],[-0.748034014276912,45.1860688511465],[-0.7477442947121941,45.18551311471758],[-0.7482149933249103,45.18535870809582],[-0.7473041023846019,45.18417440034398],[-0.7440648199388429,45.18481305364095],[-0.7438517294755012,45.184093561763426],[-0.7427532224150256,45.183359965866174],[-0.7426386410019871,45.182820383344264],[-0.7438109001724996,45.18260730315618],[-0.7437362384579026,45.18223539993069],[-0.7477937353497268,45.1812162236569],[-0.7442354874164424,45.181583544451875],[-0.7415292636584688,45.18122258239223],[-0.7403010944206895,45.17902096898765]]],[[[-0.7408405919219143,45.187046228097],[-0.7443930262734023,45.18674642418776],[-0.7479315669389511,45.188409345686814],[-0.7464589068392681,45.18834779023112],[-0.7461178614100923,45.18938565575829],[-0.7456526578728965,45.188614188009424],[-0.7453400255194679,45.188833588901176],[-0.7450936643014712,45.19001754949831],[-0.7456811477044578,45.19010383867402],[-0.7456275634398543,45.190712751582396],[-0.7464662228615585,45.19082035261518],[-0.7459142389891106,45.19250473034204],[-0.7452527502542461,45.19248434107155],[-0.745009075707207,45.19186255370595],[-0.7439705141901037,45.19198488791105],[-0.7430857925588175,45.18774146484423],[-0.7412603647807161,45.18784857774884],[-0.7408405919219143,45.187046228097]]],[[[-0.7506195814549141,45.19571867641423],[-0.7505354790446851,45.19603222776259],[-0.7497437623017272,45.19566265240367],[-0.7506195814549141,45.19571867641423]]],[[[-0.7511946169820267,45.19743335056984],[-0.7501974587667058,45.196943986149606],[-0.7513566016813907,45.196986832945356],[-0.7511946169820267,45.19743335056984]]],[[[-0.7503417687645194,45.19525016229467],[-0.7511941454227593,45.19542406591198],[-0.7503046019486287,45.19536296394732],[-0.7503417687645194,45.19525016229467]]],[[[-0.7514320913396816,45.19715385547155],[-0.7524062746154998,45.19734123436945],[-0.7513200501418964,45.19747280886758],[-0.7514320913396816,45.19715385547155]]],[[[-0.7517285919089043,45.19628472921924],[-0.752876723096086,45.19650519754894],[-0.751641926280231,45.19648045994853],[-0.7517285919089043,45.19628472921924]]],[[[-0.7525104094421023,45.1987699358035],[-0.752842092136815,45.19974869611245],[-0.7522771511538815,45.199845711115145],[-0.7519663995333887,45.19891641069096],[-0.7525104094421023,45.1987699358035]]],[[[-0.7883924438227131,45.199316066185716],[-0.7883364749899008,45.20143774196906],[-0.7866473926606099,45.202189545475],[-0.7862942148589598,45.201618871579775],[-0.7865062161056531,45.20229629000052],[-0.7885577171115008,45.20328718906197],[-0.7915276302386373,45.215362541518786],[-0.7932953231247573,45.21685277930926],[-0.79234184708463,45.219829981642285],[-0.79038199295133,45.22085605476757],[-0.7860163903429709,45.22136021637436],[-0.7830719485836303,45.220132855858566],[-0.7827220415746227,45.220265868057886],[-0.7825916520084207,45.22264783595168],[-0.7801888330815235,45.22340950158232],[-0.7803988683549191,45.2223927131916],[-0.7762425160096312,45.224599370222776],[-0.7753117694505824,45.2236037286508],[-0.7744857673532949,45.22397578602471],[-0.7738631954971035,45.22324614575248],[-0.7714292394122173,45.22420496189202],[-0.7688067362567279,45.22328208819251],[-0.7677691005626329,45.21868604707342],[-0.7675699845619883,45.21871791734373],[-0.7686939699954378,45.22351603500377],[-0.7698402978295116,45.22561918392734],[-0.7694853739011618,45.226516707876804],[-0.7683137206795816,45.22637749895188],[-0.7673155443168459,45.22697057760105],[-0.7655595146087324,45.22712608742983],[-0.7620375164926728,45.22647907420415],[-0.7607250934555723,45.22729361770189],[-0.7575267611519151,45.227955431055975],[-0.7575827052947343,45.22454889827851],[-0.7601090853467893,45.22416313239976],[-0.7599047152290351,45.222778092264775],[-0.7595227376152551,45.222680483040904],[-0.7594570306024252,45.221490218566],[-0.7564816349987286,45.22137889065502],[-0.7556835034413107,45.221897253964364],[-0.7546096117318006,45.21510941201899],[-0.7562652234834243,45.21384325942511],[-0.7617071945655927,45.2140329374883],[-0.7618334690592643,45.21369848293435],[-0.7586167570485314,45.212997971345736],[-0.7542505185400177,45.2130091422871],[-0.7534645305637218,45.20938027923718],[-0.7539654728095928,45.20901876765055],[-0.7565961444462421,45.20955428668273],[-0.7530135014650109,45.20835157813518],[-0.7529526620679383,45.206401242130006],[-0.7543782091490703,45.205829474401106],[-0.7554493579400005,45.2059773330061],[-0.7555759147101028,45.20536270970177],[-0.7571424470867728,45.204953829020035],[-0.7599323779369053,45.205385600219834],[-0.760684123217379,45.20396768005908],[-0.7632971367976475,45.202985147597914],[-0.7648643553577728,45.2005081281742],[-0.7715262399066491,45.199681750369756],[-0.7793442941392148,45.204479014288346],[-0.782302836170096,45.20389119726547],[-0.7810361565422711,45.201367407833196],[-0.779418482935837,45.20161055912862],[-0.7788461033321405,45.19951537833676],[-0.785897997718616,45.19884708566656],[-0.7858288285005628,45.19964275786021],[-0.7865005392616918,45.20149698110659],[-0.785870967996027,45.19949150648208],[-0.7883924438227131,45.199316066185716]],[[-0.7845749558460738,45.21533952383731],[-0.7837288843299469,45.21381548927948],[-0.7826672082345306,45.214307291573185],[-0.7833001482863489,45.214816304580516],[-0.782590386999181,45.21514906059107],[-0.7845749558460738,45.21533952383731]]],[[[-0.753037409059712,45.197153966526635],[-0.7541832376858858,45.19687379615579],[-0.7541090303952143,45.19910748612194],[-0.7534840648341062,45.1991706944705],[-0.753037409059712,45.197153966526635]]],[[[-0.7549962396986066,45.20025807209816],[-0.7543199014006378,45.20035952144702],[-0.7540629216604275,45.19979214685774],[-0.7547711859152243,45.19985823881432],[-0.7549962396986066,45.20025807209816]]],[[[-0.7548799421754757,45.16871332203066],[-0.7556994041821209,45.16928446476666],[-0.7549057470416931,45.16969357230676],[-0.7548799421754757,45.16871332203066]]],[[[-0.7553050759321749,45.16867953883841],[-0.7619848034270817,45.168626444258344],[-0.7611533396102217,45.16994876557208],[-0.7621514848832341,45.170248546007066],[-0.7607858537486806,45.170594234541674],[-0.7617296073929212,45.17089801637033],[-0.7615013361399753,45.17126060973572],[-0.7565198413405737,45.17017089068299],[-0.7553050759321749,45.16867953883841]]],[[[-0.7637167082507567,45.17154195024426],[-0.7634129185622031,45.17189573783326],[-0.7624515123373853,45.171580034732344],[-0.7626748607109931,45.17120119913854],[-0.7637167082507567,45.17154195024426]]],[[[-0.7698929671486031,45.195239348036395],[-0.7722135572293456,45.19423361040909],[-0.7742418315908104,45.193945435899714],[-0.7744932152801312,45.19166866523194],[-0.7759218177940017,45.19145009398128],[-0.77559285054228,45.19241004466137],[-0.7768545967534254,45.19251551727137],[-0.7767296544936981,45.19202203807122],[-0.7778067762768424,45.19189944351202],[-0.7773038204592384,45.19017054371254],[-0.7776750201379853,45.19065963369423],[-0.7793425130104187,45.190591945308874],[-0.7796161041475155,45.189995564008804],[-0.7829721219341461,45.18931365078302],[-0.7841823939987586,45.18938457240991],[-0.7842622437967741,45.18991340582587],[-0.785263934065028,45.18972825581882],[-0.7850815829386302,45.19037767349676],[-0.7856479391538015,45.19041633367747],[-0.7849338369274713,45.19127228418854],[-0.7861157350333321,45.19129073770741],[-0.7860240807122433,45.19192396378798],[-0.7853852979595684,45.19184963046447],[-0.7855959611691529,45.193889009556294],[-0.7867023772238264,45.19389338755824],[-0.7866828740074253,45.194366772245964],[-0.7858865029723746,45.19436039419675],[-0.7860704902316656,45.19597812250837],[-0.7845273679949543,45.19600396267704],[-0.784667791073146,45.19768162038579],[-0.7834589710066986,45.19729413014047],[-0.7811551709694824,45.197993474635794],[-0.7762804675281325,45.19845533364138],[-0.7760785508304199,45.19800959300864],[-0.7749725813485157,45.19809203667859],[-0.7752371091861362,45.19884285694161],[-0.7729285263785333,45.199060742636775],[-0.7728485727831212,45.19835817066513],[-0.7721706797170165,45.198554704943525],[-0.7721556462345958,45.19922048152361],[-0.7706797304954702,45.19878181887026],[-0.7698929671486031,45.195239348036395]]],[[[-0.7730279284353506,45.19232331620283],[-0.7730688810728067,45.19198442977613],[-0.7739613445121869,45.19203240501124],[-0.7742442559115008,45.192415236494284],[-0.7730279284353506,45.19232331620283]]],[[[-0.787611898127105,45.23368934426168],[-0.7878415779101197,45.232089930744],[-0.788997957032495,45.2315173931553],[-0.7907506426028148,45.23177846792674],[-0.7913584944434848,45.23205522437407],[-0.7904271651547948,45.2323235662565],[-0.7916395052041365,45.2325685325459],[-0.7903473225360275,45.23248340164359],[-0.7897434929781397,45.23335812336885],[-0.7899614576939161,45.233771799896616],[-0.7887607521372761,45.23336037037842],[-0.7880483449747665,45.2337980403468],[-0.787611898127105,45.23368934426168]]],[[[-0.788231595009131,45.20161699596138],[-0.788575735280225,45.20225706789766],[-0.7872858709776603,45.20261256961279],[-0.7867092496213742,45.20232311592658],[-0.788231595009131,45.20161699596138]]],[[[-0.7932194776046958,45.180866488731546],[-0.7939599593333961,45.181915214374406],[-0.7953332565617062,45.18263654652379],[-0.7949719771537422,45.183267596135444],[-0.792684831972721,45.18253081351211],[-0.7932194776046958,45.180866488731546]]],[[[-0.7953424687980318,45.18001714022948],[-0.7949115364875712,45.18073142004032],[-0.7954226590631915,45.180825092210426],[-0.794870704033948,45.18233514824722],[-0.7939833590936918,45.1818319353825],[-0.7935491246452561,45.18089503433955],[-0.7944553559136556,45.17983177800931],[-0.7953424687980318,45.18001714022948]]],[[[-0.7964635370093449,45.19331968183266],[-0.7963140020968887,45.19407866015022],[-0.7961740360280805,45.19408459362696],[-0.7964635370093449,45.19331968183266]]],[[[-0.8209516931404389,45.197654432894375],[-0.823259294188717,45.1982727802728],[-0.8228623417345886,45.200093837654215],[-0.8193911867184347,45.19886309068392],[-0.8209516931404389,45.197654432894375]]]]}}]}