{"type":"FeatureCollection","features":[{"type":"Feature","properties":{"tier":"village","appellation":"Pessac-L\u00e9ognan","source":"INAO d\u00e9limitation parcellaire des AOC viticoles, 2026-09-28 (data.gouv.fr, Licence Ouverte)"},"geometry":{"type":"MultiPolygon","coordinates":[[[[-0.49684037130767295,44.7133917322776],[-0.49733494677172024,44.711003219624196],[-0.4994741554054355,44.712316283099725],[-0.4992380909414312,44.71340984534272],[-0.5000273365587423,44.713572151256336],[-0.5001882315342502,44.71288559265331],[-0.5030515155306399,44.71533956118028],[-0.5025267370232528,44.71589354376878],[-0.4998892416627565,44.71527145242254],[-0.499582473237259,44.715898910453525],[-0.4978610636410022,44.71595378126599],[-0.4978672566820395,44.716577920678915],[-0.49745640552308884,44.71669652302668],[-0.4974053021884785,44.715313210263986],[-0.4983654966287134,44.71552311551899],[-0.49899296489386463,44.71402859346809],[-0.49684037130767295,44.7133917322776]]],[[[-0.4975903286010871,44.710677484187194],[-0.4991914627938979,44.707989938330876],[-0.5016690860061818,44.7094176075672],[-0.5043156421239154,44.70732185982289],[-0.5078215959151375,44.7057338323444],[-0.5087143319177282,44.7064992857262],[-0.5075953319583538,44.708603508596966],[-0.5090597653478656,44.70682870706349],[-0.5097010371110092,44.707494527142956],[-0.5092158298256697,44.709069947997065],[-0.5073475828883365,44.71063414837925],[-0.5087082131534896,44.711192372831015],[-0.5080068226054003,44.71189797433872],[-0.5093847415056625,44.71251395028794],[-0.5089057034686645,44.7131555515214],[-0.5054644377985412,44.71221644988116],[-0.5058491270241184,44.71150224488819],[-0.5037436264815778,44.71472683838116],[-0.5029844623318993,44.71462795002301],[-0.4975903286010871,44.710677484187194]],[[-0.5009679272617406,44.71075560010514],[-0.5042169987374926,44.71165532230618],[-0.5044593940447488,44.71104250514465],[-0.5014643335097249,44.709843674227336],[-0.5009679272617406,44.71075560010514]]],[[[-0.500352241445373,44.71818545752378],[-0.50182625715393,44.71813288080741],[-0.5020520237984181,44.717373883366136],[-0.5032950674403849,44.71766788901125],[-0.5031731171976012,44.71818785486823],[-0.5015882112059351,44.719011492328406],[-0.4992154774897867,44.719301466355056],[-0.4986553673455872,44.717788433056924],[-0.5001974247349438,44.71759855004559],[-0.500352241445373,44.71818545752378]]],[[[-0.5044343030928384,44.71384172987078],[-0.505246529438263,44.71408041253061],[-0.5054357056426219,44.7137757694954],[-0.5049600721398639,44.71365727970659],[-0.5054437656796663,44.71316875001402],[-0.5066455892815362,44.71345347709159],[-0.5060595583828904,44.714483980010684],[-0.5073699338291116,44.714922066773596],[-0.5059680976074443,44.71464692713074],[-0.5054877162115947,44.715468700740594],[-0.5043437715445599,44.71514589957146],[-0.5041393154344768,44.714310401697944],[-0.5044343030928384,44.71384172987078]]],[[[-0.5049313637413451,44.695684767029334],[-0.5086948667023551,44.693819895013185],[-0.509785724434264,44.694841739694276],[-0.5063120633648887,44.69631581554928],[-0.5049313637413451,44.695684767029334]]],[[[-0.5088856399900747,44.715144194053515],[-0.5097550953238492,44.71375890270429],[-0.5088148565607941,44.71334641839609],[-0.5093207559586983,44.71265521188185],[-0.5115709776469021,44.71453236827138],[-0.5151573769493153,44.71215834025071],[-0.5183814383927738,44.71578760440625],[-0.5165636798299127,44.71709757724012],[-0.517089608615242,44.718329098712196],[-0.5160721147456513,44.71907922372327],[-0.5147543611079552,44.71859253396508],[-0.5153194396168144,44.71777469436434],[-0.5150635385060249,44.717496245154926],[-0.5121308123273989,44.71716570504826],[-0.5116591705996506,44.71771939908769],[-0.5103884690998521,44.71720169817226],[-0.5114509625906641,44.71646723181907],[-0.5088856399900747,44.715144194053515]]],[[[-0.510238740007396,44.70427540025371],[-0.5090400791694061,44.70599015344611],[-0.5083571991218151,44.70541054096818],[-0.510238740007396,44.70427540025371]]],[[[-0.5087349070188185,44.69232808253749],[-0.5103376848991558,44.69371091468217],[-0.5095771248593552,44.694055413241216],[-0.5077437198023654,44.693001872628024],[-0.5087349070188185,44.69232808253749]]],[[[-0.5093966132652522,44.706266592739524],[-0.5114320255527827,44.70270652408093],[-0.5118652541871446,44.70542100564094],[-0.5101940140261649,44.706846351780605],[-0.5093966132652522,44.706266592739524]]],[[[-0.5112559409344385,44.72697033413495],[-0.517765232709378,44.726296663770654],[-0.5183925595484432,44.72766807335673],[-0.5180489157440099,44.727879600646865],[-0.5237206655695199,44.73224581004268],[-0.5247826766578082,44.731768071318875],[-0.5265107089927308,44.73362600567955],[-0.5252341218797695,44.73544319299117],[-0.5246339862657108,44.73504243398413],[-0.5245931273187442,44.73390011699503],[-0.5240040840174487,44.73423302611546],[-0.5214680924300883,44.73188185142988],[-0.519445510653386,44.73062871946391],[-0.5188906879452534,44.730726473581335],[-0.5180078251193391,44.72947844762079],[-0.5162493566892803,44.73017876028093],[-0.5137993803307824,44.730349918467546],[-0.513843076189551,44.72814728738322],[-0.511433021802723,44.72842806457446],[-0.5112559409344385,44.72697033413495]]],[[[-0.5124286165082729,44.70701272275557],[-0.5160451061085427,44.707039802628096],[-0.5171677604556154,44.70872178012675],[-0.5143232893042053,44.70991267821557],[-0.5134724776605833,44.70966294209862],[-0.511158650786672,44.707548136086665],[-0.5121348300880805,44.70754761662972],[-0.5124286165082729,44.70701272275557]]],[[[-0.538050668746613,44.70347699275034],[-0.5397696210957365,44.70172569685366],[-0.5377252252048033,44.70354038895281],[-0.5384332244533441,44.7062090736951],[-0.536859540002155,44.7064200692238],[-0.5367508947455178,44.70705194397495],[-0.5385505262872091,44.70683859159696],[-0.5387317790140357,44.71003437987504],[-0.5388855296001436,44.710212405650346],[-0.539506421439931,44.71042127108022],[-0.5398091461664575,44.711352166218425],[-0.539533500243687,44.711990919466345],[-0.5396683491321784,44.713399232050406],[-0.5375017641870213,44.71387431890202],[-0.5349668135960896,44.713731194311244],[-0.5338783862300052,44.713781637261505],[-0.5318740567300478,44.714432390270844],[-0.5236383758314431,44.7180723996554],[-0.5115294403170074,44.69971124926611],[-0.5112397691766595,44.698476727258736],[-0.5118215397000512,44.69788024689358],[-0.5132474999530224,44.698481209555126],[-0.5143120603308055,44.69688763921122],[-0.5122898506103378,44.69552655479518],[-0.5165496026279526,44.69218907672145],[-0.5179066960065385,44.692955007294245],[-0.5181479344688285,44.6926002014353],[-0.5211208893001544,44.69358748168117],[-0.5212062766321287,44.69413448431588],[-0.5216421469916437,44.69372850604467],[-0.5231120587474049,44.6938325617916],[-0.5275584002604757,44.692750575511454],[-0.5301132933431275,44.693100293874174],[-0.5381352987730692,44.69624889205725],[-0.5469063804077335,44.698830048798435],[-0.5498736425645031,44.698577261245696],[-0.5489047442878412,44.70128201726761],[-0.54890069717428,44.701999320289005],[-0.549242073011771,44.70313856930721],[-0.5513889580696293,44.707014774631475],[-0.551531199158711,44.708607768613184],[-0.5517698132105989,44.709162639955835],[-0.5492903634805376,44.70984888448692],[-0.5484086989687748,44.709641676458084],[-0.5483805724850814,44.71011552827118],[-0.5477776713993202,44.710102326113116],[-0.5477421368636098,44.71060309069686],[-0.5482672212552838,44.710614733040195],[-0.5477327483380398,44.71169294289605],[-0.5460442110311524,44.71161161343404],[-0.5458925412391408,44.71224316771928],[-0.5446101836101028,44.712199898109056],[-0.5448178272973763,44.711559884162845],[-0.5440230661580941,44.71152261667062],[-0.5433662061102348,44.712392760470365],[-0.5424070967277252,44.712334788774676],[-0.5421963469987192,44.71359447059124],[-0.5398174015819276,44.71333363361389],[-0.5399144154112686,44.71130184647835],[-0.5395904873057527,44.71040758754126],[-0.5388259051595713,44.71004804188618],[-0.538619420979293,44.70656765226998],[-0.5400545042724743,44.70627473153716],[-0.5410564705210432,44.70704158072483],[-0.5430306836172536,44.705713465616505],[-0.5425920918282222,44.70511379425831],[-0.5414250927298573,44.70520819720806],[-0.5385574377371328,44.70623105586245],[-0.538050668746613,44.70347699275034]],[[-0.5204566949433093,44.707395636759],[-0.5225160930317577,44.704683314978105],[-0.5227420152702549,44.70451345848795],[-0.5212417930029346,44.70447469774742],[-0.5208325384813797,44.704992384346646],[-0.5211600790395049,44.70575580899187],[-0.5196830216828086,44.705603010076736],[-0.5193343867505806,44.70724190843412],[-0.5204566949433093,44.707395636759]],[[-0.5232677145020797,44.710663810920344],[-0.5231483153988354,44.71070059584124],[-0.5233736012091301,44.71064737234653],[-0.5232677145020797,44.710663810920344]],[[-0.5234378547649067,44.71063207905251],[-0.5234856792002298,44.71062082346924],[-0.5234502533115601,44.71061816646205],[-0.5234378547649067,44.71063207905251]],[[-0.5264380227542282,44.71001012737449],[-0.5265446971552474,44.71000023928205],[-0.5265502262327528,44.70999771998528],[-0.5264380227542282,44.71001012737449]],[[-0.5274628487989135,44.709871573881756],[-0.5275202431983722,44.70981341994899],[-0.5274387449803827,44.709880182589245],[-0.5274628487989135,44.709871573881756]],[[-0.5285189418986682,44.70956664538253],[-0.5286013171983454,44.70952598844162],[-0.528471897638087,44.70959031474034],[-0.5285189418986682,44.70956664538253]],[[-0.5289232280811594,44.709206074065385],[-0.5287806485884844,44.709447453680156],[-0.5288073616117075,44.70943209265647],[-0.5288558265136395,44.70936458000606],[-0.5289232280811594,44.709206074065385]],[[-0.5303564375076202,44.70876671853638],[-0.5303609101911789,44.708765494411224],[-0.5302754548820495,44.708787235865906],[-0.5303564375076202,44.70876671853638]],[[-0.5305505021960705,44.70871159227736],[-0.5305508636332008,44.708711310388225],[-0.5305501294731474,44.70871169428844],[-0.5305505021960705,44.70871159227736]],[[-0.530572810734785,44.70855353260481],[-0.5305774801833977,44.70868838199091],[-0.5306009747169762,44.70864590724031],[-0.530572810734785,44.70855353260481]],[[-0.5311993768068037,44.70838240986099],[-0.5307740862399064,44.7084924983571],[-0.5313178885956745,44.70839809359943],[-0.5311993768068037,44.70838240986099]],[[-0.5365913563910351,44.70275601149588],[-0.5365755631984068,44.702764086315405],[-0.5371412873641422,44.70314613163898],[-0.5365913563910351,44.70275601149588]],[[-0.5510502115755603,44.70928261417787],[-0.5510357926324213,44.70924838063996],[-0.5510453287456638,44.70927132561432],[-0.5510502115755603,44.70928261417787]]],[[[-0.5158361111039594,44.7118438935794],[-0.518419906615668,44.71056364798139],[-0.5231734474485181,44.71812613247922],[-0.5213999127545486,44.71862758376993],[-0.5158361111039594,44.7118438935794]]],[[[-0.5181313774296314,44.72619643997618],[-0.5250733198975293,44.724412641449014],[-0.5297026782410893,44.73085556063946],[-0.5269381187843538,44.730854818202154],[-0.5255333975805457,44.73035416135432],[-0.5250116277608763,44.72916957510219],[-0.5257778557841768,44.72876612988239],[-0.5248510157212317,44.72786534436999],[-0.5255122925585077,44.72751823286586],[-0.5246682459046142,44.72699421252432],[-0.5240501474878991,44.72754018951248],[-0.523321342174973,44.72715442826001],[-0.522943897046176,44.72746780065024],[-0.5228019283202947,44.7277442989631],[-0.5236179813567332,44.72804554833498],[-0.5230718272657979,44.72862032039728],[-0.5213566311814887,44.72729634275395],[-0.5203744599274995,44.72793994324417],[-0.5181313774296314,44.72619643997618]]],[[[-0.5252263792004283,44.75304548875185],[-0.5269824846964541,44.74965440175994],[-0.5310350244504253,44.7507690031248],[-0.5302593333554548,44.753292144192514],[-0.5282738878556088,44.75392020368166],[-0.5252263792004283,44.75304548875185]]],[[[-0.5237145560125728,44.71818685859045],[-0.5340506089279115,44.71379506261095],[-0.5374799450516321,44.713925303101156],[-0.5381924904565163,44.71374003819943],[-0.5378859144462993,44.714574794721536],[-0.5386019365822009,44.714709971904476],[-0.5393220460727063,44.713535754824534],[-0.5399440656511271,44.71340636392441],[-0.5417090118136174,44.71368297526094],[-0.5420080464668329,44.714289373621945],[-0.5415945203033966,44.71719509562109],[-0.538058879672151,44.719363544499735],[-0.5323359621751289,44.72027406012269],[-0.5262683858286459,44.72209536716288],[-0.5237145560125728,44.71818685859045]]],[[[-0.5279403849228294,44.72512579186335],[-0.5299668196147367,44.72815066576405],[-0.5287255439296247,44.72823566294174],[-0.5264632006035096,44.72512465041588],[-0.5279403849228294,44.72512579186335]]],[[[-0.5322711300706019,44.72502146783029],[-0.5361567503203398,44.72942547802944],[-0.5362914118966856,44.72940171025987],[-0.5372686543643044,44.730527628971075],[-0.5400453344525813,44.73284228533842],[-0.5405123207419207,44.73430784876746],[-0.5398974267413673,44.73371036803801],[-0.5374393938518962,44.73590226021259],[-0.5366270306209824,44.73525258304658],[-0.5365315532559426,44.733697905148176],[-0.5357784934872271,44.7337194364396],[-0.5348227721026475,44.732350933027696],[-0.5335188867542745,44.732436899069064],[-0.532913591033505,44.73167668048186],[-0.534321719340717,44.7311494096995],[-0.5334096578442986,44.73048072697783],[-0.5340597141375003,44.73016861775481],[-0.532239525862412,44.73079951519656],[-0.5285683389556679,44.72538487541749],[-0.5322711300706019,44.72502146783029]]],[[[-0.5313538776397327,44.75580991233707],[-0.5314134188968976,44.753483533067346],[-0.5323616996975274,44.75321933646538],[-0.5324909182390218,44.75581366341842],[-0.5313538776397327,44.75580991233707]]],[[[-0.5309833946571726,44.739192087031995],[-0.5321841888688967,44.738422458991955],[-0.5325323955323668,44.73925568497227],[-0.5345231470299313,44.739063006344054],[-0.5361469222815389,44.74196286885608],[-0.533909487522045,44.74267461012878],[-0.5334138322898175,44.74156617817319],[-0.532401858101161,44.74170697383483],[-0.5313067965736968,44.740772302527944],[-0.5303362233982435,44.73902833957179],[-0.5309833946571726,44.739192087031995]]],[[[-0.5327398515314767,44.73634431346535],[-0.5335413674871409,44.73735917105043],[-0.5309943927374126,44.73856972750102],[-0.530208849300984,44.73663647066546],[-0.5327398515314767,44.73634431346535]]],[[[-0.5316882670816864,44.732862644968705],[-0.5335070353469783,44.73279766725348],[-0.5362885554002957,44.73629410072145],[-0.5341399648399259,44.73708204997414],[-0.5316882670816864,44.732862644968705]]],[[[-0.5345079024341653,44.75502095280646],[-0.5345222929627664,44.753276116391],[-0.5382721895544613,44.75340942708126],[-0.5381801128033894,44.75290489817508],[-0.5397890408554136,44.755710227037866],[-0.5362559346376141,44.75616673076332],[-0.5337156201020391,44.755696817933654],[-0.534078120891658,44.75498663443766],[-0.5345079024341653,44.75502095280646]]],[[[-0.5355048123303022,44.724562162819204],[-0.535379196747938,44.722985743969545],[-0.5416184681532619,44.722490952274114],[-0.5398375831506883,44.72105535599988],[-0.5424983056367881,44.72050439557337],[-0.541440442044059,44.719114714413706],[-0.5417547494817951,44.71890918635602],[-0.5412553212327648,44.71833037601075],[-0.5419074130618522,44.718003281296504],[-0.5414238366771172,44.717441267813264],[-0.5445491273805775,44.71631655146397],[-0.5459971469306026,44.717970100727044],[-0.5441291315815971,44.71843151187058],[-0.5442042813755158,44.72017824670156],[-0.5454935646484931,44.71996148852026],[-0.5452690491829352,44.7192269013463],[-0.546449040451833,44.71903327841663],[-0.54826974657698,44.72382817463819],[-0.5489786816132459,44.72465420066671],[-0.5486187521206034,44.72512256167155],[-0.549436551397981,44.72586443770031],[-0.5477423585798954,44.726475967701724],[-0.5444831038751514,44.726451691364424],[-0.5444220327571454,44.725626882875815],[-0.541912198340019,44.72561845543926],[-0.5422169957834037,44.726409690415714],[-0.5438409714242531,44.726438546813824],[-0.5439996229946168,44.72746994152156],[-0.5429597601164092,44.727840009567004],[-0.542926587225373,44.727263129714615],[-0.5420270207780361,44.72662493881175],[-0.540482806041965,44.727029866373655],[-0.5409862130744166,44.72789973541554],[-0.5425463059579285,44.72749970041402],[-0.5424660007874942,44.728139601269326],[-0.5362432668345344,44.72937188652692],[-0.5345893304654485,44.727054646688856],[-0.5322335115728005,44.72485720856391],[-0.5355048123303022,44.724562162819204]]],[[[-0.5362178746565516,44.73749865306508],[-0.5394162613260601,44.74143420697154],[-0.5391779331084916,44.74202337368015],[-0.5370606627438794,44.74191286429371],[-0.5347716366491513,44.738049511222115],[-0.5362178746565516,44.73749865306508]]],[[[-0.5667474908590688,44.74027862732516],[-0.5665904637836897,44.739692756375725],[-0.5649081719176947,44.73974387360494],[-0.5649327246783339,44.73920163102121],[-0.5664571594666697,44.73937125989316],[-0.5662971653183476,44.73891598097077],[-0.5671673288276615,44.73883576698469],[-0.566058260942518,44.737575092909424],[-0.5665954013330221,44.73751552268609],[-0.5667013114510061,44.73626662675011],[-0.5659163986075376,44.73606750859223],[-0.5677376108140946,44.7337253244818],[-0.5745566184403761,44.73335439464877],[-0.5737342209788454,44.73631415229066],[-0.5717159104375638,44.73634468006053],[-0.5736644332244966,44.73645753643642],[-0.5730059665551217,44.73764028458991],[-0.5736314757751139,44.73685820212614],[-0.5743729243983043,44.73498802223191],[-0.5760261682960823,44.72967573111671],[-0.580407732524596,44.732312297626684],[-0.5806236848253444,44.732844695456066],[-0.5808790972651936,44.73300784667386],[-0.5804393599165204,44.73227288253175],[-0.5760536543504945,44.72961887734195],[-0.5782901906084695,44.7214977989497],[-0.5837032549119794,44.72274316553803],[-0.5817323276871518,44.72466591482521],[-0.5844117501219663,44.725928939359214],[-0.5841476377778749,44.72688485868123],[-0.5853692268178174,44.72708123690887],[-0.5842751761655908,44.72864244269571],[-0.5862708280097353,44.731282744799955],[-0.5895452070808839,44.73112209101362],[-0.5893801580856305,44.73262492433486],[-0.5903154406869782,44.73274870440262],[-0.5895423108050203,44.73376314594261],[-0.5882239500345787,44.73365772451952],[-0.5872917828371236,44.735295726812105],[-0.5855651348919079,44.73645584840354],[-0.5867602898429551,44.73720390606496],[-0.5860320655907186,44.73726471765635],[-0.5837163304412504,44.74025012926995],[-0.5847871850559672,44.74087831540753],[-0.5844270148256554,44.742863668567495],[-0.5833951031456786,44.74310119927362],[-0.5821002900883192,44.74457767352374],[-0.5765843342705178,44.74143668419934],[-0.5773241532595073,44.74003048349426],[-0.5779345107673846,44.73619632696137],[-0.5790128232168247,44.734734472986716],[-0.5798605006621939,44.73447698199555],[-0.5796203918840285,44.73426827215974],[-0.5788119926391234,44.73480324016698],[-0.5779710696805314,44.73593027566701],[-0.5772445595751305,44.73800980604287],[-0.5753766770439823,44.737919370244725],[-0.5731525254544836,44.73795891298002],[-0.5773004644571259,44.73811344288504],[-0.5772421813078197,44.739970316716146],[-0.5764918775040918,44.741366761776256],[-0.574517989154416,44.74145447942277],[-0.5723111615011806,44.742664761039805],[-0.5721302139514227,44.741613734937324],[-0.5716666773930567,44.74047936041453],[-0.5709173246065623,44.7398736681289],[-0.571334505189886,44.73908362906988],[-0.5725558991076177,44.73862866937311],[-0.570933821500905,44.738114132273665],[-0.5693106477332669,44.73880913548353],[-0.5692826657059121,44.739430167440446],[-0.5710480196109462,44.74010386043886],[-0.5720179476355373,44.74162006065586],[-0.5720124298290787,44.74284716355097],[-0.5703105463103721,44.74335816860265],[-0.5715037058546398,44.743359896208304],[-0.5758790210839372,44.747274083745104],[-0.5758553674402851,44.74841395309963],[-0.5728784011199469,44.74966348281884],[-0.5703008874356651,44.75273142099609],[-0.5683262094371285,44.753272591199924],[-0.5672495777697951,44.75430732117066],[-0.566721443911976,44.753243512537786],[-0.5657240559029951,44.75326540310592],[-0.5650000576911517,44.75465687750538],[-0.5618718923276818,44.75529538336692],[-0.5581219902456435,44.7568137385925],[-0.5573681181216776,44.75698826214584],[-0.5568636211092345,44.756555802916715],[-0.5534185166848418,44.75744928401424],[-0.5526211947164297,44.75646910470572],[-0.5537368980847489,44.75639897225501],[-0.5535690870044065,44.75579711643078],[-0.553893299946349,44.75576373164146],[-0.5522818894165027,44.753116647766376],[-0.5526341032194086,44.753034243062345],[-0.5523291821794039,44.75236378683631],[-0.5516854917218534,44.752522950396084],[-0.551493660767182,44.751047684871075],[-0.551050742526219,44.75074502193328],[-0.5531991326120198,44.75004913107898],[-0.553247821741329,44.74902640138006],[-0.5559764083694015,44.74844151972057],[-0.5555305256026566,44.74662997387437],[-0.5537666819302748,44.74669461865505],[-0.5540268767540087,44.74782215920059],[-0.553020948594842,44.74800575520506],[-0.5533406124895506,44.748921766712805],[-0.5523884278098816,44.74908560743559],[-0.5513542230359753,44.74748226582487],[-0.5519827393597908,44.74737207473748],[-0.5517968058145906,44.74691905064791],[-0.5506214765035943,44.74707336205041],[-0.5504879583010994,44.74972766253219],[-0.5480957650968548,44.750087589383696],[-0.5449628335860136,44.74708767241921],[-0.5420806386394741,44.74314240360311],[-0.5452946150601492,44.74317336839646],[-0.545344068935271,44.742536271027824],[-0.5422008118290161,44.7423219747588],[-0.5419010009646673,44.74084430376427],[-0.5429613022901889,44.74076063238474],[-0.5429027824770397,44.74014481748542],[-0.5441953308131933,44.74004477972307],[-0.543942393079676,44.73907083047734],[-0.5456275065583004,44.739403765863074],[-0.5453844187791761,44.741348428053094],[-0.5463807954596127,44.74114727067293],[-0.5464530540512453,44.74218486187001],[-0.5482275640394386,44.742038968699084],[-0.5482139243825631,44.74151012487503],[-0.5490481979094493,44.74145139253742],[-0.5479769141415578,44.74069365356793],[-0.5471068878880129,44.740816878624535],[-0.5470797326600007,44.74003748142588],[-0.5475098707617366,44.74018132145126],[-0.5480452735324053,44.738692579682834],[-0.5497375547465082,44.739301083738866],[-0.55008570027697,44.73711232632882],[-0.54856829211353,44.737519024560115],[-0.5482840910751704,44.73648345211384],[-0.5479353357524575,44.736498865103265],[-0.5457593813167207,44.73943775372694],[-0.54547399335025,44.73932739303478],[-0.5439789270580278,44.739066687033635],[-0.5434102040405809,44.7375357158586],[-0.5439814458841082,44.737427130246395],[-0.5406621524244674,44.737525584785445],[-0.5405448155703305,44.73349842948981],[-0.5398059238430657,44.73249748040445],[-0.5364045006767527,44.72941485977544],[-0.5431700585284943,44.72826252149491],[-0.5433305822612241,44.72861930657794],[-0.541838373046369,44.72901366525539],[-0.5423343060994391,44.72985457016774],[-0.5429734162933092,44.72993955727533],[-0.5418963107738181,44.73025907688998],[-0.5424007623453619,44.730835566792315],[-0.54346065912469,44.730009936230815],[-0.5439209171107418,44.73014561312818],[-0.5440438209652793,44.729562023560604],[-0.5462462222707468,44.72925519291415],[-0.5460968280572094,44.72802244387649],[-0.547902417707603,44.72832227449827],[-0.5478444300376856,44.727847845767805],[-0.5483565716294341,44.727784026200396],[-0.5483595916309246,44.729208736569205],[-0.5492752914458705,44.72886855330874],[-0.5495294994185659,44.72956136102361],[-0.5525423872789722,44.73133264512397],[-0.5529356599393788,44.73362576912191],[-0.552554503138131,44.73645482525237],[-0.5510434899305913,44.73841017382626],[-0.5507378679292176,44.73966175465214],[-0.549854926949897,44.73973630015317],[-0.5498936127831257,44.74089608977135],[-0.550263528244272,44.74093902226628],[-0.5499858759171541,44.74181687308806],[-0.5501095451996534,44.74306685375299],[-0.5469512039755771,44.74301586179335],[-0.5455622772694423,44.743146683227856],[-0.5497955037990279,44.743206156357374],[-0.5519370666415442,44.74280492817751],[-0.5530910889155284,44.743009335905064],[-0.5579971239592489,44.74160270452475],[-0.558376341681924,44.742409992977024],[-0.5580430828652705,44.7416096088973],[-0.5614655512147122,44.739752021154096],[-0.564620281830072,44.749288409374614],[-0.5661946007524763,44.7524438183744],[-0.5656597736347421,44.75296094891309],[-0.5606238172873663,44.75338947590322],[-0.556692089383507,44.75440208071637],[-0.5566261908186819,44.75448801049954],[-0.5576113524283097,44.756385247052535],[-0.5573532618895038,44.75662319901185],[-0.5577743411503999,44.75646803325701],[-0.5567171033981647,44.75447840365981],[-0.5607120033991199,44.753454286053866],[-0.5657150316867379,44.75303255626161],[-0.5662610023149348,44.75259061612393],[-0.5661397692005442,44.75144826375537],[-0.5647368732911582,44.749328716797095],[-0.5620369958547092,44.74090449870432],[-0.5667474908590688,44.74027862732516]],[[-0.5457308306521141,44.742221961775435],[-0.5456728379385248,44.74178348808773],[-0.5457071880904024,44.74222001528431],[-0.5457308306521141,44.742221961775435]],[[-0.565824692461025,44.74206742406086],[-0.5659641054885427,44.74227998583519],[-0.565764775249823,44.7419610013153],[-0.565824692461025,44.74206742406086]],[[-0.5666258311998148,44.74266104613093],[-0.5666496961393882,44.74272390351599],[-0.5666282312357063,44.74266062063292],[-0.5666258311998148,44.74266104613093]],[[-0.5673819338760115,44.742551017051824],[-0.5673879152317081,44.74255129680951],[-0.5673679696914466,44.7425086087548],[-0.5673819338760115,44.742551017051824]],[[-0.5695556506799135,44.743076271377234],[-0.5686516058368594,44.742750600761504],[-0.5685053214089716,44.74271511869434],[-0.5695556506799135,44.743076271377234]],[[-0.5696516083763121,44.74311184650695],[-0.5696032062231164,44.743093842179086],[-0.5695818072676889,44.74308594485191],[-0.5696516083763121,44.74311184650695]]],[[[-0.5376427361439968,44.74288622439981],[-0.5413829243235772,44.74274962578441],[-0.5417638864104108,44.743238962153036],[-0.5410080640771858,44.74335722284096],[-0.5414625430135034,44.7446585406338],[-0.5403926872055002,44.744947165088455],[-0.5409288794366521,44.74584114045771],[-0.5395682309241424,44.746271802950325],[-0.5376427361439968,44.74288622439981]]],[[[-0.5422370200913972,44.75444857364063],[-0.543470332993484,44.754625589138854],[-0.5441349376393418,44.755814830637036],[-0.5417522663695875,44.75597513921174],[-0.5422370200913972,44.75444857364063]]],[[[-0.5426590058688754,44.751823815489935],[-0.544981917152972,44.75124200565066],[-0.5439161973933907,44.74976190210126],[-0.5446423673725163,44.74955715556911],[-0.546863869876504,44.75135729962241],[-0.5486642406915908,44.75147833051948],[-0.5491871435643485,44.75289801796878],[-0.5495796489661546,44.75276864014993],[-0.553411560644098,44.75780152304136],[-0.5491984017106888,44.757530534640985],[-0.5464966476304232,44.75665783260426],[-0.547960403312008,44.755783362898185],[-0.5479568250446891,44.75480665093403],[-0.5443257933173828,44.75463498307425],[-0.5426590058688754,44.751823815489935]]],[[[-0.5448166579414744,44.747892356750135],[-0.5451067037224266,44.74858745763893],[-0.5440719060914718,44.7488613855519],[-0.5435905006815331,44.748019290654184],[-0.5448166579414744,44.747892356750135]]],[[[-0.5421569315718489,44.714883634967066],[-0.5429500574125132,44.713352703475145],[-0.5451774786160881,44.71276092649924],[-0.5495624355535126,44.71252114121687],[-0.54966534935426,44.71353944266113],[-0.5486528662777288,44.71352541244028],[-0.5487467027010385,44.714201639113554],[-0.5455613702212977,44.71505642080991],[-0.5426446187106044,44.71532448162685],[-0.5427895092283994,44.714951883774475],[-0.5421569315718489,44.714883634967066]]],[[[-0.5426547349138914,44.71661728867983],[-0.542630296991314,44.7160123748335],[-0.5435531234065226,44.71609530012276],[-0.5435670325983343,44.71639441359489],[-0.5426547349138914,44.71661728867983]]],[[[-0.5462521314587427,44.76586757051389],[-0.5480945948652539,44.763858593022654],[-0.5503670236885327,44.76609158905605],[-0.548715049526466,44.76697993911197],[-0.5462521314587427,44.76586757051389]]],[[[-0.5523243663937601,44.770195673160764],[-0.5524402186426837,44.77093841287831],[-0.5488619523501554,44.7709212039518],[-0.5483843221523633,44.76999474808053],[-0.5523243663937601,44.770195673160764]]],[[[-0.569231518658159,44.719700292300054],[-0.5705540040389508,44.720014065235056],[-0.5700325071835758,44.72157241642535],[-0.5637390497787156,44.72379999127203],[-0.5613519863360209,44.72347767666425],[-0.5608448550772405,44.72397334728686],[-0.5629032760536844,44.72496846385532],[-0.5597868075425725,44.725060265713246],[-0.5616037002863017,44.725167370023854],[-0.5683378003690641,44.72457404007829],[-0.5644407352268184,44.726896045959776],[-0.5672626326279415,44.72844300798785],[-0.5681792967114182,44.729524933457],[-0.566551495436661,44.73270173039267],[-0.5653372897471473,44.73369360923696],[-0.5623943501034073,44.73407151371052],[-0.5600610588093208,44.73507491450552],[-0.5596622409215962,44.7337537619678],[-0.5609435280649954,44.73144744300536],[-0.5585809758046542,44.72780240241055],[-0.5585126362787914,44.72462377593404],[-0.5590915642930093,44.72398575999904],[-0.5583649819535059,44.72389025160636],[-0.5583502990992535,44.72509104543848],[-0.5572434099759732,44.72507480475525],[-0.5501380769384946,44.7266865503321],[-0.5497918034280389,44.72536405080006],[-0.5483527581409006,44.723839572245836],[-0.5468469861540011,44.719908120424776],[-0.5465753700082059,44.71901012476922],[-0.5475756505778202,44.71905160438276],[-0.5476173563417358,44.71835994623246],[-0.5468179693068166,44.71837718634759],[-0.5467691093853496,44.717469799783366],[-0.545646045736493,44.71738087908286],[-0.5470482227099688,44.716616248081046],[-0.5461670302106462,44.71566605322072],[-0.5483216342006277,44.71507303296502],[-0.5486838245649881,44.7161985565068],[-0.5502448716244146,44.7157053678548],[-0.5511680097254481,44.717673448369254],[-0.5523518167352114,44.717623110328304],[-0.5519354264948323,44.71654331387533],[-0.5559658532983702,44.71514120093185],[-0.5570571955894187,44.715522395650886],[-0.5573309685124057,44.714938806187234],[-0.5600264616667905,44.715861120209],[-0.5641341842443368,44.71679026008638],[-0.5674702023376426,44.71882865021271],[-0.569231518658159,44.719700292300054]],[[-0.5612146362907987,44.72881628063519],[-0.564089895721623,44.727105069551236],[-0.5637640080443659,44.72654662610245],[-0.5605811005307428,44.72790895270701],[-0.5612146362907987,44.72881628063519]]],[[[-0.5486802852779418,44.763405253439394],[-0.5508671439239449,44.764215567112394],[-0.5504762506923767,44.76441215382984],[-0.5513589177954492,44.76534299727843],[-0.5508325730554766,44.76564516191342],[-0.5486802852779418,44.763405253439394]]],[[[-0.5524628883486168,44.76545994707311],[-0.5539833662093299,44.76537641124798],[-0.5542637289962561,44.76581528601373],[-0.5547137294495581,44.76564542064768],[-0.5546256396969194,44.764842492753644],[-0.556684044492815,44.76457291881902],[-0.5565069192996132,44.76401928097903],[-0.5603895062343774,44.76626479062638],[-0.5578170865004303,44.766422483167375],[-0.5578990370991468,44.76721500030039],[-0.5536623623532041,44.76817721594744],[-0.5513436086247818,44.76607766676492],[-0.5524628883486168,44.76545994707311]]],[[[-0.5584723486090476,44.72979012372554],[-0.5527662923635549,44.73153886572434],[-0.5523789902091225,44.73102751229672],[-0.5496188441306985,44.72950469399787],[-0.5490652758798822,44.727685874558865],[-0.5500072582792829,44.72680709176712],[-0.558363794329109,44.72515450740553],[-0.5585031256237077,44.72785474215173],[-0.5608519773087898,44.73149310550557],[-0.5595621016241618,44.73379564398898],[-0.5604184978442235,44.73644317933235],[-0.5571626909287147,44.73605118099489],[-0.5567300382342616,44.7396044180978],[-0.5540849041815565,44.740048315407414],[-0.5540665935830456,44.74043687540698],[-0.5511443731931834,44.740398434626776],[-0.5510466505335344,44.741494198048805],[-0.550259945949532,44.741182734560574],[-0.5511714473212612,44.7384001215771],[-0.552682288415081,44.7364181007886],[-0.5530441561033468,44.73373412715985],[-0.5528960404564289,44.73220592251821],[-0.5590112721678046,44.730952903914904],[-0.5584723486090476,44.72979012372554]],[[-0.5585808483037282,44.72974280532268],[-0.5584723341122336,44.72979009264249],[-0.5584723486090476,44.72979012372554],[-0.5585808483037282,44.72974280532268]]],[[[-0.550708634370709,44.741836414257854],[-0.5507228820226442,44.74138913655392],[-0.5511470055409033,44.74162363772504],[-0.5514682329603939,44.74162234641223],[-0.551512332447493,44.74236271966466],[-0.5500979134652663,44.742510007447734],[-0.5500780141993382,44.742044538835316],[-0.550708634370709,44.741836414257854]]],[[[-0.5489165774695357,44.71184531717761],[-0.5492572719682443,44.709955386364314],[-0.5514012559955801,44.70960650517277],[-0.5522236665576816,44.710850803011226],[-0.552185067021598,44.71171079809168],[-0.5533080096067086,44.71208154932598],[-0.5499106902040395,44.71313116870763],[-0.5496698855665261,44.71263169666164],[-0.5508870835531939,44.71227902798453],[-0.5508524870742939,44.71121410610379],[-0.5495032351809308,44.711005687222695],[-0.5493811454977636,44.71186511366807],[-0.5489165774695357,44.71184531717761]]],[[[-0.578600131064387,44.71694500395215],[-0.5780139825560385,44.7188244307907],[-0.5772479722786091,44.71857954847967],[-0.5778074014380525,44.71772261093315],[-0.5753433345253625,44.71682932097793],[-0.5747039641944919,44.7170505686119],[-0.5751202725664318,44.716906519768095],[-0.5748368141286062,44.71770099626964],[-0.573970808501693,44.71802645752561],[-0.572960287714803,44.717653922708166],[-0.5707110840100804,44.71843214196146],[-0.5761735472504377,44.72019383588242],[-0.5757572597693187,44.72085147674875],[-0.5695931952273278,44.71974675610647],[-0.5642142117388396,44.71671874014771],[-0.5566413567127768,44.71467646055802],[-0.5542354650572077,44.71420122744645],[-0.553880977446599,44.712076668014056],[-0.5548275324511674,44.71176166505995],[-0.5548092189674266,44.711007675209494],[-0.556353520480062,44.710764476523906],[-0.5564271746128262,44.70840257634013],[-0.5519060303362152,44.70917638179824],[-0.5514816197415549,44.70701125987159],[-0.5491797080842058,44.702528385802694],[-0.5562784504890202,44.70128614305262],[-0.5577506557554299,44.70173970079392],[-0.5588952276334005,44.700524747884764],[-0.5573819644632122,44.69965518000298],[-0.5569512226300628,44.70008511372909],[-0.5546604602311894,44.69819997866297],[-0.5669391670065347,44.69743600934334],[-0.5673446219223736,44.69845652941426],[-0.5685587046468268,44.698348072493054],[-0.5691049955686909,44.700279761908],[-0.570007985413931,44.70045159777079],[-0.5691416368194914,44.69746041453918],[-0.5721031217370969,44.69749298531509],[-0.5725645904520884,44.698982382236444],[-0.5739676484090072,44.69901628294369],[-0.5753489400927708,44.702476643215334],[-0.5723559934255921,44.70421207968574],[-0.5724319216285231,44.705115525408395],[-0.5715470584831316,44.70537795538562],[-0.5719407482445038,44.70615714105303],[-0.5706844886765632,44.70675661894793],[-0.5708543390053143,44.70706737262692],[-0.5690760149387764,44.707649251536374],[-0.5683286960386804,44.7085390560089],[-0.5667389384987745,44.708508120296344],[-0.5651977827808661,44.70930407694619],[-0.5644926457605668,44.70771885798849],[-0.563642369143625,44.707660540231075],[-0.5631280651208508,44.707070410040444],[-0.5612244817179807,44.707699000984356],[-0.5619277531310775,44.70910648968587],[-0.5613779311188939,44.70933885422933],[-0.5594211057564181,44.70922914501227],[-0.5592078510630843,44.708441051162474],[-0.5591282611458195,44.70924469266855],[-0.5587100920168994,44.70886125108021],[-0.5574090139994315,44.70916263362651],[-0.5579570422933184,44.71219955963845],[-0.5574527072849923,44.71296819048538],[-0.5587551957502277,44.712727686029005],[-0.5593315233270082,44.71143917022628],[-0.5628879745564228,44.71099073310345],[-0.5686412075230114,44.70900905252049],[-0.5693904013637385,44.70961113970759],[-0.5699836404004557,44.708398257979404],[-0.5714379817237457,44.707392708697455],[-0.5776524829369508,44.704914493260475],[-0.5769517352359077,44.703780802499445],[-0.57876249826194,44.703372307209975],[-0.5795721242185015,44.70916337041636],[-0.5775366607981102,44.70963041801641],[-0.578136108454784,44.71008399392619],[-0.5751090820178423,44.711180738970135],[-0.5740553396724403,44.71104607056069],[-0.5703729456663528,44.7125262245338],[-0.5666022871893444,44.713278844158644],[-0.5678874421480647,44.71373803984036],[-0.5695660818569807,44.7132172586461],[-0.5714098522317722,44.71438657451534],[-0.5707832058455217,44.714693201648785],[-0.5728728021856779,44.71598857475555],[-0.5753723719777882,44.71509360006434],[-0.5761130846221787,44.715846154830366],[-0.5757494933340452,44.715958208711875],[-0.5768337045081405,44.71631357251186],[-0.5780284764862915,44.71590014071587],[-0.578600131064387,44.71694500395215]]],[[[-0.5508016983411039,44.699492385508975],[-0.5516516643565733,44.70114583900202],[-0.5509785068047811,44.701275319406854],[-0.5509185759296585,44.70069596974971],[-0.5506117952535304,44.70134314286302],[-0.5491105067430035,44.70110247719493],[-0.5498911373275835,44.69906496863818],[-0.5508016983411039,44.699492385508975]]],[[[-0.5511359623267321,44.71490282450415],[-0.5514358221802323,44.71354220824681],[-0.5524419272252488,44.7132329758659],[-0.5534603672782453,44.71215262850965],[-0.5540340890299085,44.71439469481231],[-0.5511359623267321,44.71490282450415]]],[[[-0.5554460647041973,44.76249602060036],[-0.5555039797217617,44.761981862517665],[-0.5570763988522198,44.762925286161824],[-0.556181894632057,44.76332826015285],[-0.5541658110988117,44.76254119306482],[-0.5554460647041973,44.76249602060036]]],[[[-0.5603235578591566,44.76350094559964],[-0.5607004178721843,44.762584903629026],[-0.5615764331345765,44.762570030711245],[-0.560883949715939,44.76144909431087],[-0.56321625495922,44.760023302484406],[-0.5647266021844647,44.76177437475348],[-0.5646206370299891,44.762706254718715],[-0.5620079164831047,44.76294676356677],[-0.5619090203510861,44.76367390659215],[-0.5603235578591566,44.76350094559964]]],[[[-0.5617748107683139,44.7578405381563],[-0.5651798654307878,44.756677760816174],[-0.5665286728869264,44.75823562790972],[-0.5661935686981747,44.75865441254376],[-0.5665430306240854,44.759027639987956],[-0.5651464626165298,44.75956853113411],[-0.5623887884488328,44.759014090939026],[-0.5617748107683139,44.7578405381563]]],[[[-0.5643895622361191,44.771738667642055],[-0.5653710738450342,44.76983173315004],[-0.5720307381554337,44.770519070173194],[-0.5722900911221172,44.77256705749024],[-0.573401025335937,44.774325799143256],[-0.5699229159479339,44.77683889162489],[-0.5681305007751493,44.777596054556675],[-0.5655286536651013,44.77532591637115],[-0.5643895622361191,44.771738667642055]]],[[[-0.5684331836074269,44.755410346437166],[-0.5714777375575165,44.75413423549647],[-0.571401834439916,44.755108097461076],[-0.5716973866249567,44.75576220218968],[-0.5683334134143501,44.75673263981046],[-0.5686336788271308,44.75723525746928],[-0.5679597938451715,44.75740320296938],[-0.5684628291984949,44.75836453744073],[-0.5666517541737998,44.75827563496746],[-0.5653029082409367,44.75667175394787],[-0.5651399985863885,44.755890662606994],[-0.5684331836074269,44.755410346437166]]],[[[-0.5732928793167493,44.80148327954936],[-0.5739260985521237,44.79741659329752],[-0.575434934348704,44.79745279542314],[-0.5756320025959022,44.79639729272081],[-0.579237672599554,44.79666026866661],[-0.5752253035031224,44.80153855475493],[-0.5732928793167493,44.80148327954936]]],[[[-0.5738374192395159,44.78868475416088],[-0.5767656309469379,44.7862762234209],[-0.5762149286912391,44.785587409623844],[-0.577240426560066,44.78597559949741],[-0.577597804242553,44.785657297156995],[-0.577132307403934,44.78527371715655],[-0.5781473231412019,44.78479389266053],[-0.5782660469882315,44.784831984235105],[-0.5783334857222198,44.78514679931739],[-0.5784670414922047,44.78536393867616],[-0.57855893058289,44.78539515499698],[-0.5798561052219622,44.78533689498607],[-0.581177656800794,44.785075368007824],[-0.5819001080833027,44.78573201119477],[-0.5832252636059596,44.78493197720337],[-0.583000906067888,44.78442568688478],[-0.5848592595392311,44.783973625871354],[-0.5853861290545157,44.78491778970949],[-0.5858929798958609,44.78476995001186],[-0.5867637972177052,44.788685321426065],[-0.5865111997750335,44.78956472221435],[-0.5847670241512832,44.78991922993746],[-0.584801326631017,44.790738613337325],[-0.5834067061243018,44.792500501378164],[-0.582411219156575,44.79215047019549],[-0.5825775055597859,44.7906818078725],[-0.5809859193153125,44.78754184587557],[-0.5814139519485123,44.78785931759112],[-0.5830231239809859,44.78755881344114],[-0.5831282885414548,44.78792455288045],[-0.5840104842824714,44.78708219914962],[-0.5841865684760501,44.787136706560155],[-0.5856032187694371,44.7877800816722],[-0.5859939915481595,44.787967178648664],[-0.5852700863809676,44.786722274214874],[-0.5847550534614935,44.78726965320281],[-0.5832345460741678,44.78670835929782],[-0.580819675086199,44.78734203269627],[-0.5796403410336116,44.786728414798894],[-0.5806920407878199,44.787391823209084],[-0.582439659261879,44.79086214208376],[-0.5823152846354817,44.79204211469646],[-0.5794446117687179,44.796484052033186],[-0.5778715348151456,44.79619086290659],[-0.578076973802897,44.79541546103257],[-0.5765175368274496,44.794899297010275],[-0.5759320996653591,44.79386903639878],[-0.5744785582004324,44.793707329360466],[-0.5731395280958431,44.79010714514188],[-0.5738374192395159,44.78868475416088]],[[-0.585230977057596,44.7853216102996],[-0.5854364823087012,44.78500921368869],[-0.584265866184178,44.785551189062],[-0.585230977057596,44.7853216102996]],[[-0.5856033226551925,44.78778111474142],[-0.5856032836188209,44.78778109797974],[-0.5856221704425868,44.78798704299461],[-0.5856033226551925,44.78778111474142]]],[[[-0.5725233382719457,44.755819401977135],[-0.572239845948368,44.75655251186455],[-0.5715611751303364,44.75517657992749],[-0.5721840450213032,44.75508696046972],[-0.5725233382719457,44.755819401977135]]],[[[-0.5705576706279379,44.731179392225116],[-0.5716350386904325,44.72839907348238],[-0.5751793070142777,44.72854285507114],[-0.5761029766397895,44.72926715961255],[-0.5749337214198621,44.732012915809186],[-0.5736460698305013,44.73188812678201],[-0.5734731316322941,44.73232422255119],[-0.5712605710864503,44.73186777966853],[-0.5716484047080369,44.73135725324301],[-0.5705576706279379,44.731179392225116]]],[[[-0.5723423519214665,44.756629991418436],[-0.5743838788304595,44.7561382704313],[-0.5760800846120251,44.755106416339174],[-0.5770587668724853,44.757587582193715],[-0.574613685912483,44.75751055333661],[-0.5723423519214665,44.756629991418436]]],[[[-0.5719463967034462,44.74306180228661],[-0.5746292594048877,44.74151604548001],[-0.5764718724703559,44.741481683324494],[-0.5810642455015251,44.744262411454486],[-0.5803381683722144,44.74572100810072],[-0.5765889245313769,44.74747384883399],[-0.5719337328597784,44.743644851655034],[-0.5719463967034462,44.74306180228661]]],[[[-0.5734180308175844,44.76109039255612],[-0.5785589088037313,44.759081774577915],[-0.5795031973216265,44.759170897409],[-0.5792767483235484,44.7598745711432],[-0.5796692398700052,44.75999789094625],[-0.5785766790389635,44.76139012080297],[-0.5768675081089772,44.760987227117774],[-0.5768846946180171,44.76062571089533],[-0.5761991258451644,44.76180640040204],[-0.5734180308175844,44.76109039255612]]],[[[-0.5771092379817447,44.71346719252946],[-0.5726704379598965,44.714676721066795],[-0.5710037394902187,44.71299423805669],[-0.5764657496268222,44.71197719309779],[-0.5771092379817447,44.71346719252946]]],[[[-0.5731713421885402,44.72699441906814],[-0.5742377076585152,44.72432473675272],[-0.5771705933214897,44.72430460911722],[-0.576497841105288,44.727406719460255],[-0.5731713421885402,44.72699441906814]]],[[[-0.5804924522154631,44.778738211047724],[-0.5804915426358156,44.778736645251044],[-0.5804923874688633,44.778737194740344],[-0.5804924522154631,44.778738211047724]]],[[[-0.5804915426358156,44.778736645251044],[-0.5804908958105233,44.77873622454827],[-0.5804908453884162,44.778735433087675],[-0.5804915426358156,44.778736645251044]]],[[[-0.5804908453884162,44.778735433087675],[-0.5804906330562185,44.77873507945436],[-0.5804908304909756,44.77873519924704],[-0.5804908453884162,44.778735433087675]]],[[[-0.5804906330562185,44.77873507945436],[-0.5802506571259952,44.779269572804374],[-0.5811982538599897,44.78095991752348],[-0.5789309260796502,44.780459525516164],[-0.5777239691543292,44.778279561379605],[-0.5829100234053991,44.77646155076689],[-0.5836447785298442,44.77776303161902],[-0.5804906330562185,44.77873507945436]]],[[[-0.5785172894428436,44.78462856250798],[-0.5812650660260348,44.78302230999943],[-0.581983295962186,44.783928596420864],[-0.5807443572101496,44.784291773678504],[-0.5803320986777766,44.7847171792455],[-0.5805699698824262,44.78516044640132],[-0.5784659270302777,44.78530311394483],[-0.5785172894428436,44.78462856250798]]],[[[-0.575918939695721,44.722482324761096],[-0.5775719473948233,44.72272621838273],[-0.5771850272979959,44.72419761844774],[-0.5751919265044034,44.724248046662375],[-0.575918939695721,44.722482324761096]]],[[[-0.5779914714145766,44.74759192945491],[-0.5814745038246082,44.746026094477855],[-0.5832964297252906,44.74404725872512],[-0.5849750179454536,44.74494371956585],[-0.5871695406865696,44.745047843301826],[-0.587465985174397,44.74786900935643],[-0.5884784698843637,44.74712377674092],[-0.5908862730332692,44.74810070270271],[-0.5887135262496708,44.74928506718782],[-0.5880842890290416,44.74880067762342],[-0.5883993398362799,44.749445034303704],[-0.5879943994136367,44.75106063989797],[-0.5871319520796776,44.75095321599128],[-0.5869824613601525,44.75148257639975],[-0.582411353641128,44.750002566640845],[-0.5807064980421888,44.75095938926801],[-0.579422475155256,44.75051126377732],[-0.5787145207646375,44.75098872571844],[-0.5777498856660469,44.74982351556173],[-0.5809064709012829,44.74812973017262],[-0.5823521822604492,44.746340259332015],[-0.5807937802174344,44.7481295892823],[-0.5784938522070404,44.74936355141235],[-0.5775288093392443,44.748364360368015],[-0.5779914714145766,44.74759192945491]]],[[[-0.5797460335586674,44.711080579981704],[-0.5792301586566716,44.71217368037692],[-0.5794586997181483,44.71092062625645],[-0.5797460335586674,44.711080579981704]]],[[[-0.5796205800625155,44.71217790453386],[-0.5792174686716386,44.71490081401869],[-0.5784224416744286,44.7151429067465],[-0.5780663675976448,44.71426600009702],[-0.5777321688097184,44.71436899958968],[-0.5780985723480113,44.71205157076161],[-0.5792295280257189,44.71217370077424],[-0.5796205800625155,44.71217790453386]]],[[[-0.5859069346272404,44.75325176140675],[-0.5867682068410929,44.753750477836306],[-0.586298337407685,44.75430356097781],[-0.5825660627861934,44.754241334510205],[-0.5829839773097799,44.75530455246897],[-0.5822047628272146,44.755395207901344],[-0.5819604549266307,44.754578933450496],[-0.5806626038388578,44.75479576189357],[-0.5803532237480422,44.7540613478289],[-0.5827958826960802,44.752941307254154],[-0.5859069346272404,44.75325176140675]]],[[[-0.5832694094311784,44.75294102750391],[-0.5817222418656526,44.752609949019295],[-0.5812368472161988,44.7520940114813],[-0.5828443034692107,44.751797510521946],[-0.5832694094311784,44.75294102750391]]],[[[-0.5795140082003469,44.71478199512982],[-0.5801197387777707,44.7112572049822],[-0.5813212387233989,44.712323039300685],[-0.5807946590004532,44.712902079279516],[-0.5810517419095386,44.71351587118831],[-0.5818316339677535,44.71300676682482],[-0.5825302559105495,44.713857496272574],[-0.5845166843669277,44.713245887456594],[-0.5849922639601325,44.71391207462079],[-0.5846260038999138,44.71597755058137],[-0.5855757038269234,44.714517357831745],[-0.5879825191673499,44.71593555923359],[-0.5874953224649591,44.716923592675286],[-0.5893728107874415,44.717929854420795],[-0.590264487857575,44.718263493831124],[-0.5910935446026871,44.717233712471206],[-0.5923066702227231,44.717787347648645],[-0.5910482565503543,44.7189658944402],[-0.5893796697333065,44.71881796865359],[-0.5884227561855273,44.72034701420609],[-0.5889223860279159,44.72099618783185],[-0.5887155809142879,44.72161437474702],[-0.5873898571711641,44.72348233280593],[-0.5859003646826348,44.72265163614529],[-0.5876796119202593,44.721962308072],[-0.5855581596367953,44.719757719977764],[-0.5845030644879946,44.720864622071005],[-0.5820738146349522,44.71994958538612],[-0.5820922889574366,44.71932254885435],[-0.5809796211963048,44.71848923922476],[-0.5819492277279843,44.71648193685519],[-0.5795140082003469,44.71478199512982]]],[[[-0.5873698716399102,44.704001723172105],[-0.590137360233855,44.70551748294251],[-0.5899028067400731,44.70787863088743],[-0.5882041751916969,44.70796581047961],[-0.5877050482636057,44.70702327740451],[-0.5861347858930709,44.70687167640809],[-0.5860335380396197,44.705604149609776],[-0.5813643705664223,44.70514345099058],[-0.5810948274988318,44.706692443061705],[-0.5797143917315443,44.70677496226478],[-0.5789525404809329,44.70336814279515],[-0.5873698716399102,44.704001723172105]]],[[[-0.5829841593784254,44.70868984072823],[-0.5799427339876644,44.709323332972254],[-0.5797681918190385,44.70741407607512],[-0.581031363657445,44.707373202883126],[-0.5825569325505994,44.70810715782142],[-0.5830397605393106,44.70850914862141],[-0.5829841593784254,44.70868984072823]],[[-0.5829060073076053,44.708677140705255],[-0.5828641568255017,44.708710579144885],[-0.5828643072371903,44.70871055315136],[-0.5829060073076053,44.708677140705255]]],[[[-0.5820314164906356,44.709684809010504],[-0.5818465814648827,44.71107551311089],[-0.5808869811506311,44.711606204838944],[-0.5801233783367165,44.71111775907736],[-0.5800021511059187,44.709917565362325],[-0.5800781062445681,44.709901679865105],[-0.5809373739761834,44.709820344110724],[-0.5820314164906356,44.709684809010504]],[[-0.5800781481602156,44.70990212829637],[-0.5800781348551742,44.70990212954774],[-0.580084438668273,44.70996942672271],[-0.5800781481602156,44.70990212829637]]],[[[-0.5914607828302013,44.757618592962025],[-0.597141923012423,44.7569091483995],[-0.5999105227289204,44.75720410702937],[-0.5973101957649992,44.756828789487265],[-0.6001403912967902,44.75536765422232],[-0.6012917545311299,44.75459913081973],[-0.6068544412082868,44.7529957481566],[-0.6100488867987283,44.75576077351608],[-0.6097074152896288,44.75606282691382],[-0.6085758592272313,44.75760577752067],[-0.6061606639035169,44.7560814029986],[-0.6063138945644921,44.75804437277118],[-0.6044555406717692,44.757640640254884],[-0.6015278669653581,44.757651351251916],[-0.6002652464246773,44.75843746212879],[-0.5979937374834277,44.760157310098116],[-0.5979228685955612,44.76024180566576],[-0.5976248230801333,44.76108747977891],[-0.5971238846014767,44.762131166658676],[-0.5977993167229916,44.76106856328634],[-0.5979210813921697,44.76031468408577],[-0.6000578609780093,44.75869519979731],[-0.6011789093525949,44.758986715249826],[-0.6021759913340847,44.75845671250744],[-0.6026946628041355,44.75882277971591],[-0.602449098917707,44.75958213489913],[-0.6044396485181871,44.76026936834492],[-0.6041758489537694,44.758954384828506],[-0.6029505236570684,44.75867620534712],[-0.6032727783348106,44.75805575897024],[-0.604669451313913,44.75776913503038],[-0.6058686519281107,44.75806022234773],[-0.6069285547578674,44.76063968280451],[-0.6094115077940063,44.761974742722686],[-0.6062249299205966,44.762940226985364],[-0.5966807684026777,44.76327220016641],[-0.5956935304870257,44.766195079555246],[-0.594561956386393,44.76692774707253],[-0.5950485675887682,44.768507154427766],[-0.5946043957373868,44.76850543715052],[-0.5946610434141132,44.77221636178114],[-0.5919188707354979,44.773086418418735],[-0.5904874774454416,44.77293734222909],[-0.590365846024736,44.772388011972524],[-0.5899705946753478,44.77242173059562],[-0.5901558782124333,44.77348631126753],[-0.5884129297149379,44.77403999882735],[-0.5882399802233983,44.773546673776536],[-0.5871801733337042,44.77368482004006],[-0.5872271936988084,44.77091261438286],[-0.5865969880156554,44.77001808263048],[-0.5898930137050863,44.7696717637381],[-0.5901562916289411,44.768584265504884],[-0.5911921610071446,44.76872057070792],[-0.5926164871988804,44.76815103282086],[-0.593399926327364,44.76615730782674],[-0.5906550861929595,44.76596522507861],[-0.5904833969829965,44.763984278107564],[-0.5883479736901439,44.757481028237564],[-0.5896225880975907,44.75760572961167],[-0.5914607828302013,44.757618592962025]],[[-0.5945500643268192,44.76212415440273],[-0.5945727474501429,44.76212442243701],[-0.5945572770912864,44.7621241906866],[-0.5945500643268192,44.76212415440273]]],[[[-0.5871167237683628,44.69910847901914],[-0.5884394414200897,44.69781460503344],[-0.5890414451998527,44.701429508273606],[-0.5872426640834536,44.70213699161094],[-0.5843885353038575,44.70161990996326],[-0.5829050109153093,44.69905110389527],[-0.5828351423855471,44.69706042167894],[-0.5867184087519025,44.69717674866761],[-0.5850673071069353,44.699133722747455],[-0.5871167237683628,44.69910847901914]]],[[[-0.5877380578930094,44.752805263214746],[-0.5914887944534694,44.751718818244434],[-0.5914666006152144,44.751068395103516],[-0.6032715145646403,44.74922776664455],[-0.6038257307905235,44.74582611093725],[-0.6034232083067678,44.74511578587797],[-0.6041713664259188,44.744991667531],[-0.6031355949150559,44.74301318075582],[-0.6024813260248062,44.74260088475541],[-0.6016741573842194,44.74338472616277],[-0.6008384864446092,44.742752110710406],[-0.6019635042301728,44.7419555021276],[-0.6030904129865411,44.74201193245171],[-0.6040192448744285,44.7413690387581],[-0.6060736174880391,44.74156647930672],[-0.6062021296585834,44.741227843207994],[-0.6080039119824355,44.742188985800304],[-0.6082951232535069,44.74169012129945],[-0.609238928053715,44.74193171348227],[-0.6096517307922092,44.74181632525264],[-0.6095173768958653,44.74136422631238],[-0.6101021557082643,44.74137300829991],[-0.6143055421737522,44.74227716614835],[-0.6173953340223739,44.742380840800436],[-0.6179738014377858,44.7433055449258],[-0.6183189970215436,44.745716547862884],[-0.6162522890630223,44.748587126321986],[-0.6143475264403051,44.748301886130996],[-0.6134909742565324,44.748617159381624],[-0.6141760574493258,44.74978390585507],[-0.6070554064109891,44.75288123321518],[-0.6016346775370762,44.75441989678791],[-0.6011742868578621,44.75461349532827],[-0.6002225703747177,44.7552584558552],[-0.5971084170704561,44.7568539992912],[-0.5899995632166248,44.757548898946695],[-0.5902013912169615,44.755997185501904],[-0.5878372981949348,44.75629307196719],[-0.5868786163872289,44.75382193848546],[-0.5877380578930094,44.752805263214746]]],[[[-0.5863860532054179,44.72495808429897],[-0.5882009109323486,44.72261817315712],[-0.5897131203147927,44.72300794441704],[-0.5885422426862977,44.72425941345426],[-0.5888651961575754,44.72447686228625],[-0.58985234512794,44.724892579319636],[-0.5909081499548536,44.72401307031155],[-0.5917704511392201,44.724391814935984],[-0.5903109788967242,44.72697431819003],[-0.5898291184540488,44.726822588981534],[-0.5901762997758447,44.72624274438682],[-0.5879938248241641,44.72590588778024],[-0.5863860532054179,44.72495808429897]]],[[[-0.5886096414084266,44.749696422515804],[-0.592605391403526,44.746955345718845],[-0.5976243305185869,44.742803062956575],[-0.6007167955883121,44.742777157307145],[-0.6015793282127961,44.743432332078264],[-0.5997008360692876,44.74594578019536],[-0.5999059413984984,44.7468502642798],[-0.5975464512718035,44.74701184686844],[-0.5974653414935562,44.74827035705497],[-0.5951676195275781,44.748655279475265],[-0.5960587342589541,44.74861201357153],[-0.5961660488110445,44.749388279141805],[-0.5919295499023389,44.75026741141503],[-0.5920202733251567,44.750701658059306],[-0.5881644819383142,44.75103250783181],[-0.5886096414084266,44.749696422515804]]],[[[-0.5888934527830425,44.74042904254424],[-0.5896841791361768,44.738303899599764],[-0.5959144085734409,44.73826258399374],[-0.5960136287872844,44.73871087953485],[-0.5941461134832778,44.7387223155003],[-0.5937452640727315,44.74015477048387],[-0.5929154885873331,44.740354468139735],[-0.5927029126703159,44.741712134897085],[-0.589555115910019,44.7413990370689],[-0.5899219489193559,44.74081062527464],[-0.5888934527830425,44.74042904254424]]],[[[-0.5944756650138229,44.81016508815434],[-0.5952332597394789,44.80916581084707],[-0.5965236938692828,44.80869441023815],[-0.5979580337975352,44.80854881391629],[-0.5979625479843201,44.810016725316935],[-0.5988710726975542,44.810093670852865],[-0.6001684857356447,44.8093776696444],[-0.6001186892755098,44.80998150788086],[-0.5969972141132475,44.811059354950395],[-0.5944756650138229,44.81016508815434]]],[[[-0.5899152938341545,44.72292541377691],[-0.5915699951233963,44.72193517650716],[-0.5925588720322756,44.722330804924376],[-0.5912364667506791,44.7236549951577],[-0.5899152938341545,44.72292541377691]]],[[[-0.59038070952658,44.72705073353218],[-0.5920832953354677,44.72398944821497],[-0.5932048754463597,44.72415437715153],[-0.5939161181674709,44.72708154801801],[-0.5953162116113674,44.727403781705746],[-0.5944254333856045,44.72825427288875],[-0.59038070952658,44.72705073353218]]],[[[-0.593487040166471,44.723165040968546],[-0.595230666939886,44.72062382015505],[-0.594875917441865,44.71922041611879],[-0.5985116175485621,44.720563875581306],[-0.6036756612008093,44.721153516828444],[-0.6014605756874631,44.72378295415886],[-0.5978662246057577,44.725794419053365],[-0.5958651961613222,44.72468352017314],[-0.5933404033102528,44.724105096130614],[-0.593487040166471,44.723165040968546]]],[[[-0.592896404760166,44.71483750890404],[-0.5935537550183981,44.714490912944065],[-0.5950743468865264,44.71533310775524],[-0.5980404352118698,44.715860812045705],[-0.5996953109664057,44.71767407174364],[-0.5994355571580956,44.719167656284334],[-0.5988273841996216,44.71964904405865],[-0.5972387983120826,44.71924863305002],[-0.5971300423121095,44.719874556400896],[-0.594831746430026,44.719110729544475],[-0.592842830664172,44.71602931590772],[-0.592896404760166,44.71483750890404]]],[[[-0.5949599076224882,44.74121655485104],[-0.596126063475403,44.74079556832783],[-0.5969138055695525,44.742552442701715],[-0.5956598194738197,44.742848223611375],[-0.5953523614670386,44.74215722741775],[-0.5948736078583305,44.74227001629693],[-0.5952599486381244,44.742046852970816],[-0.5949599076224882,44.74121655485104]]],[[[-0.6055692044543531,44.80881098182795],[-0.6064782678842452,44.811706363827476],[-0.6061301822692413,44.81237245512511],[-0.6045694904750465,44.81351581446595],[-0.6030632030654854,44.813660767163185],[-0.6030196262261164,44.812999215842154],[-0.6020259947008204,44.81295634168788],[-0.6019143321404813,44.8123108822567],[-0.6006885874454244,44.812508243557794],[-0.6011433628927279,44.81122629965378],[-0.6004160361503608,44.8108991555213],[-0.6003276431632344,44.80908752237367],[-0.6009008319281476,44.808649818255645],[-0.6004174139957079,44.80842001863379],[-0.6037954479575912,44.80850870076695],[-0.6038612576851281,44.808895094389726],[-0.6055692044543531,44.80881098182795]],[[-0.6004872316559712,44.80842291802874],[-0.6005053831006963,44.80842365028847],[-0.6004872299212243,44.80842288805675],[-0.6004872316559712,44.80842291802874]],[[-0.6060380968709327,44.81073695613521],[-0.606044665826222,44.810750531747495],[-0.6060349289593401,44.81072470763118],[-0.6060380968709327,44.81073695613521]],[[-0.606133266902716,44.81087634963609],[-0.6061326300843416,44.81087826300307],[-0.6061698029341079,44.810889310862045],[-0.606133266902716,44.81087634963609]]],[[[-0.6025747109724302,44.81694741125903],[-0.601516050739752,44.81758772670168],[-0.6012250813970279,44.81664003931248],[-0.6020254335039448,44.816361233792534],[-0.6025747109724302,44.81694741125903]]],[[[-0.5992538474472195,44.742307234389585],[-0.5977658699022168,44.74181332237378],[-0.5975703746096197,44.74103451815032],[-0.5994476233532767,44.74091312009437],[-0.5991614469890976,44.74117170565002],[-0.6000895511762747,44.74117478634242],[-0.6003760951620846,44.742142680277055],[-0.5992538474472195,44.742307234389585]],[[-0.5985547284719157,44.742047151387204],[-0.5985026790965565,44.74204397642066],[-0.5985026763549955,44.742044014972684],[-0.5985547284719157,44.742047151387204]]],[[[-0.6036847240378806,44.81543236306942],[-0.6067884932274042,44.81421286693926],[-0.6085423027330458,44.816022580630815],[-0.6039805096210848,44.81781019215887],[-0.6029136669213835,44.816724148744434],[-0.6036847240378806,44.81543236306942]]],[[[-0.5981125059395356,44.71204276261903],[-0.5963417174210668,44.711404309478645],[-0.5970594967411804,44.710604213118174],[-0.5985359061410378,44.71145590472948],[-0.5981125059395356,44.71204276261903]]],[[[-0.6005625506737368,44.69253753354163],[-0.5959691731055998,44.69307068437735],[-0.5954585232460369,44.69149879451531],[-0.6003657224822256,44.690653448387145],[-0.6008575078872008,44.69187707055671],[-0.6005625506737368,44.69253753354163]]],[[[-0.6074907689104851,44.81040903656538],[-0.6105182474602773,44.81040131536124],[-0.610144862734577,44.809165947202175],[-0.6110229642647168,44.80902946354595],[-0.6109381178826806,44.80835952422734],[-0.6113949542481052,44.808287410846354],[-0.6153868003304618,44.80829941096221],[-0.6162177794176121,44.8101452263678],[-0.6034789212122347,44.81496589042188],[-0.6064751080407736,44.81224280794154],[-0.6066678704910179,44.81165414054236],[-0.6064687315349386,44.81084795138546],[-0.6069604932988382,44.81112414020146],[-0.6074907689104851,44.81040903656538]]],[[[-0.6044542600546985,44.81768069036664],[-0.6058962857409755,44.817160362874795],[-0.6071017939351854,44.81839337093049],[-0.6057905356108368,44.81911657115122],[-0.6044542600546985,44.81768069036664]]],[[[-0.607770900718938,44.72060958567257],[-0.6057374029755233,44.71987402718617],[-0.6049453334827471,44.72052672742117],[-0.6000088425970546,44.71764341533596],[-0.5999082811368915,44.7171740818056],[-0.6014915815514528,44.715322451509856],[-0.6009131598353447,44.71436596406843],[-0.6022161749685204,44.71401317375299],[-0.6015295069275803,44.713509926778435],[-0.6006497880865095,44.71404252103205],[-0.5996245588410319,44.71306550758328],[-0.6009394886529775,44.71241935485039],[-0.599880918002524,44.7116616172717],[-0.5989184774742614,44.70956098100009],[-0.5990753519085815,44.707959086339415],[-0.5981714165281755,44.70706842347515],[-0.6069655283810902,44.708077708484915],[-0.6067030781038167,44.71238846767307],[-0.6079951450319473,44.71131624014635],[-0.6118985370466875,44.70966176072413],[-0.6103734633461146,44.71028588605773],[-0.6098820278360703,44.71005453089602],[-0.6104371443577018,44.70910382483681],[-0.6113093470822427,44.70943143977163],[-0.6125192380294598,44.70784930632929],[-0.615775487554182,44.709168701479285],[-0.617427062794125,44.7074056180411],[-0.6141248184614598,44.706101114989174],[-0.6146903681349423,44.70486597594071],[-0.6131977108382412,44.704770262470106],[-0.6129268506007205,44.705976123920316],[-0.6136023422270412,44.70602958848883],[-0.613207141449725,44.707296650097916],[-0.6097612171377855,44.706427860991404],[-0.6087752401577949,44.70596281419672],[-0.6092206224538774,44.7045310124359],[-0.6111574019981413,44.70464752306426],[-0.6142160417747675,44.70359604295391],[-0.6175955987827801,44.704802118251145],[-0.619974170327826,44.70660547342407],[-0.6221547919933537,44.706420914826175],[-0.6226340423075123,44.70688666620904],[-0.6222512141331531,44.70778926174889],[-0.6210662243528766,44.707780462020544],[-0.6201043654954137,44.708676401467635],[-0.6204799297652457,44.70893899116639],[-0.6201302293151817,44.709378970905426],[-0.6209853663317556,44.710182743327586],[-0.6200953120550757,44.71130551721548],[-0.6203610305535642,44.712282598354356],[-0.6187082740628626,44.712913900985704],[-0.6167782110406571,44.71196878603611],[-0.6161147199716647,44.712785630391714],[-0.6155329569898451,44.71247893288704],[-0.6130917035333243,44.714099960006806],[-0.6149358956389708,44.71523305934828],[-0.6147446849504867,44.715499041548675],[-0.6098138283186043,44.71797868751594],[-0.6102754365848129,44.71860494877292],[-0.6099485165848316,44.719051450212994],[-0.607770900718938,44.72060958567257]]],[[[-0.6005610442963283,44.73276606254334],[-0.6012850706247248,44.73292510094508],[-0.6025915281705114,44.730653295423494],[-0.60517015182621,44.7313137646883],[-0.6009445724834734,44.73497089640717],[-0.6000331677793262,44.73326557152228],[-0.6005610442963283,44.73276606254334]]],[[[-0.6005732365500176,44.7358895273986],[-0.6014420989788893,44.73470813367586],[-0.6048217957642398,44.73595701796963],[-0.6052006047123687,44.73545783359335],[-0.6082287831367055,44.736274835494584],[-0.6069744920857751,44.73861332961524],[-0.6009288693612631,44.73799604557044],[-0.6009387144054904,44.73605247974936],[-0.6005732365500176,44.7358895273986]]],[[[-0.6036353420001428,44.74673291726342],[-0.6033399569017077,44.74789593831827],[-0.6016042242936499,44.74812553753008],[-0.6017775974677794,44.746753077570716],[-0.6036353420001428,44.74673291726342]]],[[[-0.6079316822797175,44.81643964228798],[-0.608492637324284,44.8169109517938],[-0.6089625698638956,44.81662770850227],[-0.608522530771151,44.81619374351992],[-0.6118018127998088,44.81418383939212],[-0.6126159817675354,44.81498926897164],[-0.6133935084329746,44.81469535065151],[-0.6126032107907219,44.8136095759209],[-0.6143825689430957,44.812803162596126],[-0.6178547105896212,44.81707250050284],[-0.6150842295763065,44.818535059663695],[-0.6140045744270665,44.816869837438304],[-0.6108413936332256,44.81734846781837],[-0.6104294707278295,44.81748220266975],[-0.6118367128606629,44.81830617715802],[-0.6093752491214446,44.819319422681545],[-0.6086971179429356,44.818851840301555],[-0.6078021768656844,44.81901841031447],[-0.6060344031540922,44.817140188383725],[-0.6079316822797175,44.81643964228798]]],[[[-0.6113367343067715,44.820136715760206],[-0.6118784367727313,44.82083728965254],[-0.610191234402289,44.822262258895115],[-0.6094722175587612,44.82229999929181],[-0.6086317252131027,44.821464215662935],[-0.6113367343067715,44.820136715760206]]],[[[-0.6039389012472015,44.72855407912751],[-0.6057241599923533,44.729637174481525],[-0.6053479758216215,44.730223965840366],[-0.6031908246176478,44.72934907883307],[-0.6039389012472015,44.72855407912751]]],[[[-0.6133300785397978,44.82104477721469],[-0.6137065442764641,44.82235719263907],[-0.6119112221483982,44.82288480441682],[-0.6108245489490628,44.82267208068059],[-0.6133300785397978,44.82104477721469]]],[[[-0.6069890364115461,44.75827599646708],[-0.6083023639347035,44.75854747921535],[-0.6081697319890659,44.76017638851777],[-0.6073454611424003,44.75999856614104],[-0.6076587660478153,44.75912100080732],[-0.6069486998859362,44.75859364761315],[-0.6069890364115461,44.75827599646708]]],[[[-0.6056105648386283,44.729480364509065],[-0.6065865034167927,44.728047688677215],[-0.6056852363129006,44.72762174655227],[-0.6065205186899815,44.72652359543837],[-0.6085170433601431,44.726531073907076],[-0.607106170839353,44.7282478630963],[-0.6101020513371744,44.728813415546796],[-0.6100618610972802,44.73053924644505],[-0.6081079917388947,44.73095064807922],[-0.6077542111846258,44.73150211062953],[-0.6070572091087127,44.73136233160217],[-0.6067908297843984,44.73117715514072],[-0.6074228050015105,44.730143390440766],[-0.6056105648386283,44.729480364509065]]],[[[-0.611596369465716,44.75711437137727],[-0.611701932611864,44.75841503528092],[-0.6102127363329793,44.75831839970526],[-0.610171489092551,44.75881660227954],[-0.6083735925859605,44.75847477109749],[-0.6098311232679451,44.756027431165066],[-0.6106174579286364,44.75717522103361],[-0.611596369465716,44.75711437137727]],[[-0.6113960312248119,44.757526104614016],[-0.6113949189914109,44.7575227172681],[-0.6113960220970732,44.75752610603955],[-0.6113960312248119,44.757526104614016]]],[[[-0.6064390780041908,44.72635952039666],[-0.6086088582934238,44.723611048786495],[-0.6106145703432497,44.72310736547449],[-0.6107547609509284,44.72205366243505],[-0.6146078131727745,44.72382536143086],[-0.6122825408829584,44.72524664357077],[-0.611020785224648,44.72678891693843],[-0.6079800601441748,44.72627757707842],[-0.6064390780041908,44.72635952039666]]],[[[-0.6089916703573846,44.759927630237605],[-0.6104957696230774,44.759660864986024],[-0.6106690460695379,44.758959362081065],[-0.612065512343877,44.759661952231745],[-0.6122709076293404,44.760454841736305],[-0.6117696799826019,44.76050922130098],[-0.6121841839327333,44.76198736159162],[-0.6093787833698422,44.76158917355928],[-0.6089916703573846,44.759927630237605]]],[[[-0.607543305918556,44.732193744791715],[-0.6100694126811471,44.73067463662653],[-0.6114578517349429,44.731363677072984],[-0.6169291439846736,44.73267867015303],[-0.6161428810966543,44.73372934116329],[-0.6204622490035451,44.73489262255752],[-0.6189273295320129,44.73727126813098],[-0.6161354359292307,44.73770208661276],[-0.6165052231678579,44.7384443491729],[-0.6146804011071223,44.738423734262724],[-0.6146702617965939,44.73792955284759],[-0.6130835671490772,44.737411131299666],[-0.6138198407007445,44.73667295465112],[-0.610884570972585,44.735656420932614],[-0.6121748953508438,44.734443613657625],[-0.6145427910188577,44.735532982961395],[-0.6146989019460166,44.73539459190836],[-0.609696405912736,44.73347352262251],[-0.607543305918556,44.732193744791715]]],[[[-0.612165112268214,44.75357527738834],[-0.6149540658410546,44.75385333116116],[-0.6145010966035587,44.75446267074398],[-0.6141480294902725,44.755664113020906],[-0.612853006861291,44.755239973206244],[-0.6125020697388736,44.75605587582502],[-0.6101726582408967,44.75571456032796],[-0.612165112268214,44.75357527738834]]],[[[-0.6129652537778888,44.75750637641012],[-0.6119412716614663,44.75771633247208],[-0.6116932173601876,44.75704479096621],[-0.6129652537778888,44.75750637641012]]],[[[-0.6108993310353052,44.74025849095922],[-0.6118737203188244,44.73990144842802],[-0.6149649647773486,44.74043710551138],[-0.6147403390897643,44.74114461665332],[-0.6107005523376149,44.74087105950379],[-0.6108993310353052,44.74025849095922]]],[[[-0.6101870183096695,44.73026335097252],[-0.6109534836085556,44.729663540316864],[-0.6104400252120298,44.72934583916954],[-0.6107902068941603,44.72799445505802],[-0.6101851125817499,44.72789153362301],[-0.6101311363827172,44.72733416601272],[-0.6181445162264629,44.72897107294529],[-0.617368196316578,44.72847075116052],[-0.6175214950916819,44.72775826623171],[-0.6205962161504812,44.7281467502412],[-0.6190314850693031,44.731061260919724],[-0.6170036100594274,44.73258620284069],[-0.6119852014739189,44.73141298252648],[-0.6121239334767796,44.730785518434885],[-0.6109553805414726,44.73083337715639],[-0.6101870183096695,44.73026335097252]]],[[[-0.6091451880580693,44.70830836741412],[-0.6096461805619586,44.70654354673895],[-0.6112986981190939,44.7073081234533],[-0.6106462505271133,44.708728758364394],[-0.6091451880580693,44.70830836741412]]],[[[-0.610765154054825,44.69308674269381],[-0.6163240501734646,44.69403187509838],[-0.6178125312616161,44.69631955833814],[-0.6178042937010119,44.69712706111935],[-0.6156808549507261,44.69783238984274],[-0.6148221381205549,44.69763171901087],[-0.6141789097020101,44.696975279676685],[-0.6145449826880749,44.69630280818339],[-0.6152666414806927,44.69624471001061],[-0.6131425551676688,44.69551687623217],[-0.6127136292484707,44.69640714932111],[-0.6131082171446361,44.69754459218663],[-0.6126120426726657,44.69758431781544],[-0.6119747408222591,44.696530291352666],[-0.6112986338436746,44.69641153170878],[-0.6110621354876404,44.695618420272005],[-0.6083254269118477,44.694537204461405],[-0.610765154054825,44.69308674269381]],[[-0.6119747408222591,44.696530291352666],[-0.6120686842821257,44.69660142510561],[-0.6119746516606096,44.69653014388622],[-0.6119747408222591,44.696530291352666]],[[-0.6109871162073017,44.6947878641445],[-0.6115880256392902,44.695327279660226],[-0.6116059576561038,44.695000269413306],[-0.6109871162073017,44.6947878641445]],[[-0.6157595841328273,44.69618831479601],[-0.6157867016161976,44.69669301892443],[-0.6161977368229683,44.69624672269082],[-0.6157595841328273,44.69618831479601]]],[[[-0.6121818846259631,44.75351741095828],[-0.6163689011245966,44.74868948488726],[-0.6167229939426534,44.7487441615257],[-0.6166197697973932,44.74924520235895],[-0.6179103227588036,44.749306686955684],[-0.6179487205845718,44.7498680822125],[-0.6191943861342866,44.74989803324289],[-0.6191553740392899,44.751826721975654],[-0.6179701025515747,44.752329146986895],[-0.6183819110516787,44.75286166904751],[-0.6180099860682146,44.75413421995921],[-0.6164165211566146,44.75364795267151],[-0.6162782130636152,44.752793488512125],[-0.6144066709843214,44.75220875611474],[-0.6138584925932853,44.75293061201084],[-0.6152428958909452,44.753299728100075],[-0.6149954853882936,44.753801148617306],[-0.6121818846259631,44.75351741095828]]],[[[-0.6135725893359704,44.770409514856006],[-0.6135224685149033,44.76892137839274],[-0.6156112642058994,44.76841619910866],[-0.6158176905062825,44.76951295642352],[-0.6144771654074673,44.770564398634136],[-0.6135725893359704,44.770409514856006]]],[[[-0.6121902435829072,44.72549253948169],[-0.614804668538867,44.7239084254413],[-0.6193401385961526,44.72480573625341],[-0.6210093075240616,44.72480116062354],[-0.6209620531075426,44.72562445981842],[-0.6239666111113689,44.72717207033031],[-0.6234901857140559,44.72833684530755],[-0.6113242978001583,44.72683777556071],[-0.6121902435829072,44.72549253948169]]],[[[-0.6109818275910001,44.72108328320155],[-0.6126249976096992,44.71961859326636],[-0.6152802748906285,44.719671939394615],[-0.6181599010031273,44.718974004680234],[-0.6194218816750083,44.71902061077282],[-0.6202858746147466,44.71876361642613],[-0.621431521944334,44.71913556778968],[-0.6218455940353849,44.7190467639925],[-0.6224992161047473,44.718720661799665],[-0.6228722910679902,44.71867249008111],[-0.6241420459147407,44.71932640551816],[-0.6253812119749699,44.718385117626134],[-0.6256209625417823,44.71713904589354],[-0.6251912682524067,44.71704984000772],[-0.6250534038813366,44.71616960650798],[-0.6258966650472567,44.71526245839363],[-0.630311646584127,44.71622173854348],[-0.6331668206360452,44.715866768426984],[-0.6335539932257126,44.71644437324285],[-0.6339190254120354,44.71583170642147],[-0.6384708997991133,44.71753646242348],[-0.6380292385897743,44.717528450949224],[-0.6379342776655839,44.71816911641867],[-0.6363643840853841,44.71814230233663],[-0.6361375590277806,44.719248377311885],[-0.6330224363077853,44.71908030725228],[-0.632366113898521,44.72094958747261],[-0.6359849150390288,44.72152778485748],[-0.6355731042209523,44.723306410570515],[-0.6349446547705929,44.72377335081731],[-0.6322216476799043,44.722935181174925],[-0.6308413361174658,44.721503417313066],[-0.6293799169360182,44.72156432894062],[-0.6285994850509147,44.722401580717886],[-0.6224828485430672,44.72125215541337],[-0.6236696348349029,44.719712465289106],[-0.6224633568929895,44.720760985456266],[-0.6188347336918674,44.72198398300732],[-0.6151946099991649,44.72199173163812],[-0.6109818275910001,44.72108328320155]]],[[[-0.6149478152888133,44.75637649259113],[-0.6157500871936499,44.75660796902248],[-0.6162098090802668,44.75588133108799],[-0.6144002309890594,44.755177949571],[-0.6150563313561712,44.75389766884133],[-0.6173621598088119,44.754433329031016],[-0.6182539985519111,44.75570307621933],[-0.6180326950436186,44.75608513694878],[-0.6197484554031097,44.75651871925665],[-0.6201891088254752,44.75594265478501],[-0.6209295742505672,44.75642792466308],[-0.6194820389769395,44.759306259072616],[-0.6213799774546126,44.75926719681245],[-0.6201912239381585,44.76080205227948],[-0.6184175455394969,44.760708874655606],[-0.6189922389250122,44.759687272900045],[-0.6164029273985395,44.75868115924534],[-0.6156462225730254,44.75922363492987],[-0.6146169169876423,44.758772721756195],[-0.6158426329490037,44.757805052527175],[-0.6141894231617193,44.75703608583475],[-0.6149478152888133,44.75637649259113]]],[[[-0.6166320620766449,44.71820129284264],[-0.6183339557634547,44.71722279414235],[-0.6212222035390109,44.71726612385325],[-0.6219919104647007,44.71891625236314],[-0.620294493200075,44.71872665400819],[-0.6179183263168534,44.71896784281896],[-0.6166519605060314,44.7193071832418],[-0.6156460627377843,44.719008665017874],[-0.6169186374673169,44.71847689899884],[-0.6166320620766449,44.71820129284264]]],[[[-0.6181921582161805,44.75515488287553],[-0.6192568194086878,44.7537976865168],[-0.6205177212848051,44.75483481747382],[-0.6218226651665228,44.7547877302483],[-0.6219206626672027,44.754078483732016],[-0.6205917140985818,44.753897890102955],[-0.6208001135108039,44.75251450433347],[-0.6199903541810485,44.752325309090594],[-0.6201572414003284,44.75148745790795],[-0.6237176017544543,44.751725376733994],[-0.6238492371597253,44.74864590555782],[-0.6230148432279385,44.747779258629855],[-0.6275104915536467,44.747221367119025],[-0.6300176041993094,44.74512922505153],[-0.6310885567992802,44.74530446140684],[-0.6299800528191768,44.75334584926099],[-0.6257174770150347,44.752865070930504],[-0.6242411533932446,44.75331373536489],[-0.6241465794105633,44.752464605300744],[-0.6221967245714743,44.75228912007711],[-0.6218950601554296,44.752660028797024],[-0.6228097012705671,44.753907545340574],[-0.624319761768808,44.75370519075941],[-0.6242609230159774,44.754362147769406],[-0.6224132121028075,44.754359606160534],[-0.6221917784932611,44.755110202745854],[-0.6226218393403329,44.75540679725385],[-0.621266705486825,44.75577656092681],[-0.6210600789224465,44.75638030727852],[-0.6202181562305352,44.75586338639177],[-0.6206164398087629,44.75555268194711],[-0.6202188799817663,44.75523816405939],[-0.6194324279417002,44.75554127623019],[-0.6181921582161805,44.75515488287553]]],[[[-0.6194444251631054,44.69836361870388],[-0.6231058150244173,44.701771749030804],[-0.619995715512015,44.70383454982531],[-0.6173396498521826,44.702135624248754],[-0.6179370060689339,44.70050063114787],[-0.6148237159970814,44.69939339364261],[-0.6194444251631054,44.69836361870388]]],[[[-0.6214680781219882,44.79688335631311],[-0.6225368885486149,44.79605648167238],[-0.6230675857539247,44.79784400925524],[-0.6218394286098968,44.7974895792219],[-0.6214680781219882,44.79688335631311]]],[[[-0.6242875967581849,44.76820321770493],[-0.6237807240408852,44.76900110221568],[-0.6197183922524983,44.7674625477279],[-0.6231182704064036,44.76781535736847],[-0.6242875967581849,44.76820321770493]]],[[[-0.6176338372445692,44.72233984799743],[-0.6190323387661882,44.722184807111056],[-0.6190951925258434,44.72313824764708],[-0.6213054891580977,44.72323385286195],[-0.620965456769708,44.724714994406014],[-0.6180721098436819,44.72440765829206],[-0.6176338372445692,44.72233984799743]]],[[[-0.6240282139175151,44.798040260197205],[-0.6242450895935375,44.79902789715592],[-0.6239132602836851,44.79936266381196],[-0.6233009602324693,44.79820058150577],[-0.6240282139175151,44.798040260197205]]],[[[-0.6245197516544108,44.798064111611346],[-0.6241490253635339,44.79801359756552],[-0.6233009602324693,44.79820058150577],[-0.6226822490252646,44.79597872741925],[-0.6237750361447764,44.791414678292554],[-0.624506762142287,44.79115632760141],[-0.6253603628527573,44.79183364462641],[-0.6260747682245207,44.79509016086999],[-0.6273054032394827,44.79579505518016],[-0.6253992381053166,44.79729702556604],[-0.6246707510029536,44.79722613135072],[-0.6245197516544108,44.798064111611346]]],[[[-0.6207981830507067,44.751476956709936],[-0.6201268819076348,44.75144023350272],[-0.6201151659445645,44.75078090095868],[-0.6209200762581665,44.75082443060246],[-0.6207981830507067,44.751476956709936]]],[[[-0.6226501765154178,44.758543856296285],[-0.6235546481206078,44.75739842309441],[-0.6243703659399198,44.75769636214522],[-0.6233571405102035,44.759845032796036],[-0.6215155333586941,44.759268442098765],[-0.622021185106931,44.75848782272497],[-0.6226501765154178,44.758543856296285]]],[[[-0.6267356297310241,44.74279582522522],[-0.6256623101382621,44.74430109952575],[-0.6260617685528203,44.74518314140792],[-0.6243175615878189,44.74538679258306],[-0.6210617318256094,44.742501352484545],[-0.6243861219761278,44.74110766411232],[-0.6267356297310241,44.74279582522522]]],[[[-0.6240636675497514,44.75556988486153],[-0.6237747525506413,44.7546079678042],[-0.6252235364016269,44.75467320623185],[-0.6240723522839166,44.75671716792621],[-0.6226193562375174,44.756110306881084],[-0.622928063974366,44.75555404826073],[-0.6240636675497514,44.75556988486153]]],[[[-0.6253480738930967,44.73637849585518],[-0.6335167293323634,44.73597549958973],[-0.6341085953632144,44.7376386220122],[-0.6327773230479983,44.73779461096438],[-0.6333277949667272,44.7402380507386],[-0.6222414246614211,44.739683673206464],[-0.6253480738930967,44.73637849585518]]],[[[-0.6290334480915598,44.782889020578686],[-0.6307573409112681,44.7836341280057],[-0.6265518023700731,44.78597896968846],[-0.6255609530045732,44.784993508164284],[-0.6290334480915598,44.782889020578686]]],[[[-0.6292441856551974,44.82168257496735],[-0.6289847936877097,44.81935576726559],[-0.629819027601976,44.817997902014135],[-0.6334284206620612,44.81776502290305],[-0.6337394277019076,44.81941309218545],[-0.6350417323054285,44.82094547660588],[-0.6380994381287829,44.82083779030895],[-0.6375368361468835,44.81846875698641],[-0.6405511658715227,44.81828004464355],[-0.6403863337975014,44.81544407653449],[-0.6434640293564127,44.81490548380742],[-0.6434964020463743,44.816528802231524],[-0.6447144179069972,44.81775236444431],[-0.6457803413296209,44.817498303415285],[-0.6449092919217234,44.816365009902356],[-0.6450752643590599,44.815921618891686],[-0.6483150040139078,44.81594212785706],[-0.6488581697040319,44.81876546607514],[-0.6483541268625215,44.81888939781698],[-0.6487834434258477,44.81998925943929],[-0.6493655691634062,44.819712421025365],[-0.6495476389707007,44.820805187337854],[-0.6489621035914813,44.82084455930287],[-0.649000869236395,44.82139829628295],[-0.649641447740739,44.82137180334961],[-0.6499185339342554,44.82302808230193],[-0.6480589910500433,44.8232704422476],[-0.6483134352091374,44.82429224204962],[-0.6458926270170221,44.82477357608035],[-0.6459628643948011,44.823508833942356],[-0.6442776220667576,44.82371520452676],[-0.6433067595361803,44.82396459169105],[-0.6434611084562137,44.824821058584234],[-0.6390191261752008,44.82583793762724],[-0.6295098911078766,44.825362717734315],[-0.6297130851716465,44.824346724244315],[-0.628540359127823,44.824160150724595],[-0.6292441856551974,44.82168257496735]]],[[[-0.6339704295773604,44.72412654713932],[-0.6380930147309568,44.72454502310665],[-0.6393482375441042,44.72559661567813],[-0.6389411857053464,44.72701379024669],[-0.635799436352885,44.72757703288381],[-0.631012240719727,44.7253440647714],[-0.6313285224004932,44.724619178961916],[-0.6338768504571849,44.724828628625076],[-0.6339704295773604,44.72412654713932]]],[[[-0.6365729308553315,44.75231326626765],[-0.6374743839035324,44.75412412278034],[-0.6332828219198371,44.753922401167316],[-0.6330647633087964,44.75287319052747],[-0.6365729308553315,44.75231326626765]]],[[[-0.6413652191220055,44.82717935583744],[-0.6441980578841522,44.826991291497066],[-0.6443890307448177,44.82784970949636],[-0.641942092206924,44.82931934980695],[-0.6399875992318595,44.82957180571401],[-0.6381921209888315,44.82679366937567],[-0.6412789635946897,44.82663042168725],[-0.6413652191220055,44.82717935583744]]],[[[-0.6303140777269337,44.696037723524825],[-0.632292036675528,44.69519232442957],[-0.6338616444766526,44.696007498895504],[-0.6352212752613707,44.695484270659165],[-0.638371789831427,44.69716975458795],[-0.6361698489953475,44.69915395488004],[-0.6314932380901397,44.701734782377166],[-0.6299806279917787,44.699254461150744],[-0.6303140777269337,44.696037723524825]]],[[[-0.6350532532959103,44.76855288439157],[-0.6383488366041605,44.767660852473426],[-0.6393674957501799,44.768205459447564],[-0.639875887997276,44.767915129808536],[-0.6405048412952196,44.76863079489976],[-0.6370183461655287,44.770802106728254],[-0.6360774863766208,44.77067428181935],[-0.6355884801218423,44.77020283827682],[-0.6357908475060148,44.76959352031287],[-0.6346010351737346,44.769078470301054],[-0.6350532532959103,44.76855288439157]]],[[[-0.6385907978344508,44.805723788104316],[-0.6385869812657652,44.80436902334299],[-0.6404888641564975,44.8046075074116],[-0.6442228525489576,44.80375043587461],[-0.6485678149722915,44.804343655522345],[-0.6488071175927198,44.80490547834822],[-0.6465830679713116,44.80561605953122],[-0.6470501413565672,44.80634406909781],[-0.6464412076418701,44.806564819234154],[-0.6401373482232234,44.8068139355542],[-0.6402682565248847,44.8055226106548],[-0.6385907978344508,44.805723788104316]]],[[[-0.6408739289564424,44.82965194255659],[-0.6429480694755543,44.82907089668949],[-0.6430688797472264,44.82963870393381],[-0.6408739289564424,44.82965194255659]]],[[[-0.6399325387755966,44.80895777384671],[-0.6423969094675064,44.80785774328695],[-0.6428082349117019,44.80829090046339],[-0.6400181535769475,44.809382168730835],[-0.6399325387755966,44.80895777384671]]],[[[-0.6403435203349996,44.809631953394685],[-0.642157649238019,44.80876607432522],[-0.6424346582221051,44.80945321107273],[-0.6403435203349996,44.809631953394685]]],[[[-0.6358071654422556,44.71461717398208],[-0.6427310290267816,44.71196862507153],[-0.6427996687099501,44.71121328106736],[-0.6455612382703445,44.709828048699194],[-0.648040316557937,44.71165312500336],[-0.6482180576760918,44.71222289543215],[-0.6476122527417706,44.71217004508468],[-0.6480185115212299,44.71310441043695],[-0.6437561818342484,44.71377009029516],[-0.6438455817973053,44.71492606569351],[-0.6414731426899838,44.715047508723096],[-0.6416050923873221,44.71684593851591],[-0.6388966823389572,44.71720125759537],[-0.6351857710130342,44.715645632932265],[-0.6358071654422556,44.71461717398208]]],[[[-0.64218350295545,44.81050622836836],[-0.641707025062512,44.81069114377246],[-0.6414653924718793,44.80970596115742],[-0.6419653797622932,44.809614277718936],[-0.64218350295545,44.81050622836836]]],[[[-0.6427904707166794,44.810857520868105],[-0.6431189473535822,44.811295473700596],[-0.6428313727818203,44.81129492042823],[-0.6427904707166794,44.810857520868105]]],[[[-0.6426866483378041,44.80793294211262],[-0.646544573534949,44.807724162592024],[-0.6455727127129482,44.806982290833425],[-0.6481226281955696,44.80667604747119],[-0.6479953423495203,44.80806136271824],[-0.6470885977994262,44.80799521477673],[-0.6471992324270074,44.80914341392165],[-0.646379342266135,44.8093681297417],[-0.6441991532492954,44.8093391550396],[-0.6442315388452482,44.808515220414876],[-0.6431085385256531,44.808458673116135],[-0.6426866483378041,44.80793294211262]]],[[[-0.6410822084103114,44.766235356724195],[-0.6429786292077576,44.765905593182644],[-0.6434957239066367,44.768847718340865],[-0.6421006158378706,44.76887899883025],[-0.6421791391256163,44.767993805316166],[-0.6415499016673702,44.76766065655541],[-0.6407401135772545,44.76793269154158],[-0.6401147639389825,44.76690335913969],[-0.6412576787136318,44.766559542074646],[-0.6410822084103114,44.766235356724195]]],[[[-0.6370577872252684,44.708629200202424],[-0.6415653045473528,44.7092009549064],[-0.6425518445712427,44.708509670423254],[-0.6429551250539096,44.70874775227273],[-0.6422289227227221,44.70938414727764],[-0.6424724833767801,44.709802240530735],[-0.6420493930842347,44.71052932537009],[-0.6379048807542209,44.710301825436176],[-0.6367697563852885,44.70904756253267],[-0.6370577872252684,44.708629200202424]]],[[[-0.644543342215876,44.80980263398013],[-0.644610688985038,44.81042104237791],[-0.6442025057338593,44.81043878868974],[-0.6441759918587692,44.80988960812207],[-0.644543342215876,44.80980263398013]]],[[[-0.6454819836590292,44.810135525602554],[-0.6455949578109625,44.81135142575866],[-0.6451329974314134,44.81132687117722],[-0.645011499353098,44.810160911833584],[-0.6454819836590292,44.810135525602554]]],[[[-0.6449879414166881,44.76372916839562],[-0.6486607149567307,44.767181593387534],[-0.648224663120316,44.76743956999195],[-0.6484308598407619,44.7678446590941],[-0.6478492610840224,44.76783677648737],[-0.6494884212982197,44.7700215405108],[-0.6447780903227774,44.77044935506513],[-0.6437314623378925,44.769744116821855],[-0.6433570311327524,44.7664093027675],[-0.6422952257827824,44.764396455586834],[-0.6449879414166881,44.76372916839562]],[[-0.6439239344671109,44.768854721901064],[-0.6439337596248661,44.768883329410976],[-0.6439281127651968,44.768866481195595],[-0.6439239344671109,44.768854721901064]]],[[[-0.6438751705560077,44.7500692583093],[-0.6441924578514159,44.74905192575353],[-0.6456965416239637,44.74931623451118],[-0.6457770248798885,44.7472570818896],[-0.6473707817488468,44.74446484304078],[-0.6493371219013875,44.744224573413085],[-0.6495572236703271,44.745675203667446],[-0.651789099358951,44.74567326573334],[-0.6515083556462666,44.74639209123469],[-0.6521045803091085,44.747423032954764],[-0.6492400242957013,44.74767429907324],[-0.6481272860361891,44.75471659357628],[-0.6458935259643513,44.75335489366384],[-0.643575394789708,44.752826713797155],[-0.6441563165614969,44.750929725103056],[-0.6429583088644613,44.750546903053284],[-0.6438751705560077,44.7500692583093]],[[-0.6464822084505729,44.75299456167785],[-0.646425859376197,44.751973571525056],[-0.6458748866912125,44.751996580272326],[-0.6459445893732504,44.753024701349034],[-0.6464822084505729,44.75299456167785]]],[[[-0.6485708997302785,44.81659687219984],[-0.6486029377599928,44.81591859154655],[-0.6498664771959193,44.81598028546135],[-0.6499281549011935,44.816555258449],[-0.6485708997302785,44.81659687219984]]],[[[-0.6488251624867354,44.804101571243336],[-0.653102336898105,44.80198073690107],[-0.6546473619791171,44.804498102347885],[-0.6538243600262617,44.8050939476641],[-0.6491675172362403,44.80543122836063],[-0.6488251624867354,44.804101571243336]]],[[[-0.649875975175376,44.80668411846399],[-0.6499409416018234,44.805550417665955],[-0.6533763588268826,44.80526580951966],[-0.6536177242287281,44.8057125518477],[-0.6533294517181311,44.80669363961194],[-0.649875975175376,44.80668411846399]]],[[[-0.6573706376287917,44.76716048234148],[-0.6585150833460084,44.76705148622024],[-0.6575895744920309,44.76930027230726],[-0.6558103991653332,44.76862636072722],[-0.6573706376287917,44.76716048234148]]],[[[-0.6577321421337601,44.759487261660276],[-0.6636926940708933,44.75898984320564],[-0.6638672035116222,44.76180731944388],[-0.6673415302916565,44.76291121833635],[-0.6679779220251316,44.76331744078418],[-0.6678977541098418,44.76402570780544],[-0.6646621305564098,44.76542038041813],[-0.6578538636125363,44.76331780132781],[-0.6577552682619163,44.761907499046124],[-0.6561088466367269,44.761654888383724],[-0.655885238289491,44.760083870971876],[-0.6577674727295447,44.759989455922494],[-0.6577321421337601,44.759487261660276]]],[[[-0.6653243891557193,44.78606027374842],[-0.6651358477232782,44.784816968826995],[-0.6665978953652711,44.78588691050518],[-0.6661125159256107,44.7862550141204],[-0.6653243891557193,44.78606027374842]]],[[[-0.66889838266919,44.79947556779403],[-0.6663020585157524,44.79964828380654],[-0.6663012745735895,44.79911060004185],[-0.6674872198326331,44.798495074889914],[-0.6678142568364372,44.799006008923925],[-0.6685625867012355,44.798789985784566],[-0.66889838266919,44.79947556779403]]],[[[-0.6674361559729007,44.78112155810143],[-0.6681675360929584,44.782357522653015],[-0.6668569139359581,44.783655857621014],[-0.6658666762421975,44.78390862984567],[-0.6654916768156723,44.78324669546817],[-0.6667359685890301,44.78122431746084],[-0.6674361559729007,44.78112155810143]]],[[[-0.671163367905883,44.78132906681628],[-0.6716504304736337,44.782171312547604],[-0.6706454398543135,44.782445527679165],[-0.6687672206014075,44.780598815304906],[-0.6716976959558678,44.779694991387544],[-0.6724122445400365,44.780846496208525],[-0.671163367905883,44.78132906681628]]],[[[-0.6726585100618713,44.76684271873836],[-0.6728961803517165,44.76575762383372],[-0.6741489743501555,44.764560446860735],[-0.679419251444557,44.76111769827489],[-0.6815488323364164,44.76307878807121],[-0.6797324433809214,44.76407612843682],[-0.6788770279590313,44.768014506394564],[-0.6727025847237479,44.76841769264753],[-0.6721917816147355,44.767843746990714],[-0.6729999880583767,44.766823554240936],[-0.6726585100618713,44.76684271873836]]]]}}]}