{"type":"FeatureCollection","features":[{"type":"Feature","properties":{"tier":"village","appellation":"Pomerol","source":"INAO d\u00e9limitation parcellaire des AOC viticoles, 2026-09-28 (data.gouv.fr, Licence Ouverte)"},"geometry":{"type":"MultiPolygon","coordinates":[[[[-0.17445435928842012,44.924884514480894],[-0.1732722016329477,44.926802183175795],[-0.17272604530671348,44.926504475969466],[-0.1734123658348862,44.92554062809354],[-0.17207741206437208,44.92502089477015],[-0.17250514164298628,44.92430196168174],[-0.17445435928842012,44.924884514480894]]],[[[-0.21407729649880783,44.92400639462676],[-0.22124654674906596,44.92388037134185],[-0.22281813787053875,44.923563824655744],[-0.21732304637255231,44.92717551048796],[-0.21565737941354648,44.926482890558574],[-0.21728212455559584,44.92718741875314],[-0.2151928922038519,44.92844871418025],[-0.2142512623587607,44.92917593855864],[-0.21365659780327248,44.92984653139508],[-0.21757418389067268,44.93135467671381],[-0.2214009115837243,44.932386116610125],[-0.223913540666604,44.932350269415394],[-0.22560465738614754,44.933057664727336],[-0.22936929976959672,44.93418687960899],[-0.2271767718163042,44.93634900159637],[-0.22678834425489344,44.937332581098865],[-0.22452561205929025,44.94144515609062],[-0.2237962955256244,44.94307272731213],[-0.22228620300088955,44.943232499744006],[-0.22130228623030826,44.9426483622968],[-0.2217676652302169,44.94323960515908],[-0.220607115170044,44.94492281804193],[-0.21984951899126526,44.945263584401324],[-0.2194283644937093,44.94512187696111],[-0.21958360056369683,44.94494391596934],[-0.21998158203926108,44.9443973960998],[-0.21936254553970727,44.94519316919263],[-0.21826758779148883,44.944778926401305],[-0.21905465528538576,44.944303953122976],[-0.21891223267675883,44.94355177819801],[-0.21824476710148744,44.943563901881255],[-0.2177930038475997,44.94427444225746],[-0.214896490499222,44.94361504487297],[-0.21299649949940122,44.94410315869261],[-0.21178631848858365,44.943547918700645],[-0.21126279596751787,44.942788188655676],[-0.21172870297899857,44.94238526603325],[-0.210901004558268,44.94174182792907],[-0.21125613621168937,44.94146060339201],[-0.21016745457979508,44.94039370461319],[-0.20533741058552643,44.94085627406537],[-0.20389857891795712,44.94054435777989],[-0.20406534286098063,44.94012576377486],[-0.20202270259594668,44.939075661274174],[-0.20233513225964292,44.93895924639228],[-0.20121505874563828,44.93784081792495],[-0.19899119374608842,44.937418543973],[-0.19762709349992932,44.93755152315284],[-0.19698178725764168,44.93833124873267],[-0.19598689884788303,44.938091252505],[-0.19482673255097746,44.937355261036245],[-0.19562941943667522,44.93699255514067],[-0.19403652774367597,44.935623907305605],[-0.19337915465688063,44.93330842788953],[-0.1937553066608123,44.93262296663841],[-0.19339874529527992,44.93240749177577],[-0.19331410337792085,44.93328885155449],[-0.19339346687138065,44.93533674022995],[-0.19277920038772506,44.935715371781235],[-0.19028818621134158,44.935326375946495],[-0.18696812417990388,44.933718143169685],[-0.1850380788381888,44.933626069973876],[-0.18560152489619341,44.93325452618287],[-0.18367297428157545,44.93258532929363],[-0.1831011617784808,44.933461983069144],[-0.18396153214012992,44.93399177102774],[-0.18268785510026367,44.934080797057355],[-0.18167499672489199,44.93328026402153],[-0.17653681593317458,44.93181857706695],[-0.17516780062488765,44.93092013141059],[-0.1768170711003002,44.93095516304619],[-0.17766480252609115,44.93082287936401],[-0.18018275807539907,44.92935090353997],[-0.1826979110388581,44.92891997453796],[-0.1844787300459084,44.92893589381576],[-0.1850425163380505,44.92882340545058],[-0.18650125131418518,44.92810251371786],[-0.18846770607993008,44.92683520765765],[-0.1911081991959172,44.92598859737434],[-0.1972947982148684,44.92342074134856],[-0.19507762804048365,44.92193681942703],[-0.1969959625198827,44.92043095653831],[-0.19733196583559293,44.92060727086759],[-0.1999259517420659,44.91904189568705],[-0.20131192538833148,44.91701639965357],[-0.2024380710474009,44.91503072590537],[-0.20533911620673387,44.91578478944785],[-0.20602940734515038,44.9158516417216],[-0.20743110678390483,44.9157868431052],[-0.21227796390847242,44.91481884205268],[-0.21092966287035478,44.918564224108046],[-0.21063733457274794,44.92071278278396],[-0.2095004278836306,44.92347353360457],[-0.20687970144022894,44.923339806871724],[-0.20533801721471345,44.92412969036491],[-0.20593338000415265,44.924703990121365],[-0.20676835609779465,44.924145088236976],[-0.20766851672454817,44.92447088789035],[-0.20933711353395706,44.924136955293605],[-0.20958895295950386,44.92357090772338],[-0.2107775715128934,44.92359143524746],[-0.21038674695774598,44.924577610841816],[-0.21085027626931838,44.923616276643244],[-0.21407729649880783,44.92400639462676]],[[-0.21236445181396132,44.92527215525355],[-0.2123604379448959,44.925275154846176],[-0.21236557398774158,44.92527885430657],[-0.21236445181396132,44.92527215525355]],[[-0.2156371477047068,44.92647483425769],[-0.21556757865093937,44.92644494718384],[-0.21563705637458613,44.92647505902026],[-0.2156371477047068,44.92647483425769]]],[[[-0.18030268882361533,44.92879294156837],[-0.1801169267691436,44.92811433443978],[-0.18289787041751623,44.927919895414526],[-0.18351935816704895,44.9288527357094],[-0.18252566495589403,44.9288710238966],[-0.18015950302691247,44.92929426009747],[-0.17975646729920383,44.92854879350859],[-0.17983754727375695,44.92943485410917],[-0.17871711183930963,44.93016435857613],[-0.1781957850164105,44.92970160766132],[-0.1770412825192445,44.93024004771747],[-0.17733543241151747,44.930622526685866],[-0.17683303815505852,44.93089667655691],[-0.17518709696784127,44.930828570347884],[-0.1753011368221903,44.93012760101394],[-0.1768963551720742,44.929039080384385],[-0.17986330732935016,44.9282654074915],[-0.18030268882361533,44.92879294156837]]],[[[-0.17640368513432844,44.9271406151488],[-0.17586184027938112,44.928141982937646],[-0.1752613099629111,44.92755659367111],[-0.17640368513432844,44.9271406151488]]],[[[-0.1809427750995993,44.92664039212989],[-0.17806969165978467,44.9273491242085],[-0.17839596861178703,44.92790974830172],[-0.17703072056705646,44.928301033753556],[-0.1770707505032827,44.927154069303974],[-0.18073532161651368,44.92636420192845],[-0.1809427750995993,44.92664039212989]]],[[[-0.18044365651298225,44.92789034236356],[-0.17911631559388463,44.92764800625595],[-0.1787305329441059,44.927770149242214],[-0.1797971948203117,44.92727421263695],[-0.18044365651298225,44.92789034236356]]],[[[-0.18463406204146962,44.92878753735034],[-0.1836530409073841,44.928861429989325],[-0.18338595745079714,44.9281453294657],[-0.1835337227815587,44.92796646431273],[-0.18463406204146962,44.92878753735034]]],[[[-0.18638704210048126,44.92547037441708],[-0.18544549815943398,44.926264833861495],[-0.18365377603087688,44.926776921928884],[-0.18407231275065586,44.92660867810011],[-0.18355682001450965,44.92595403386187],[-0.18545052055063782,44.925207983579426],[-0.18582567934944613,44.92570300623064],[-0.18638704210048126,44.92547037441708]]],[[[-0.18655189516264223,44.928002662125394],[-0.18572932014900714,44.92819935254582],[-0.1849162229975619,44.92755820308393],[-0.18575183668186426,44.927108929855386],[-0.18655189516264223,44.928002662125394]]],[[[-0.1896678799016308,44.92531674895663],[-0.18615202827579952,44.92530554785769],[-0.1856328975510993,44.9242388598215],[-0.1882987095446368,44.92419806332517],[-0.1896678799016308,44.92531674895663]]],[[[-0.18870019175208358,44.91403596343029],[-0.18915737577798275,44.91554594424251],[-0.1865141846228024,44.915723179258464],[-0.1875904312482477,44.91392860106928],[-0.18870019175208358,44.91403596343029]]],[[[-0.187655355345948,44.92551805950071],[-0.188815970370434,44.926622556313106],[-0.18728660543101933,44.925537650912126],[-0.187655355345948,44.92551805950071]]],[[[-0.18948579952956976,44.92542037588884],[-0.19195788097681615,44.925197267810404],[-0.19317387536479805,44.92492091884842],[-0.19020700551447114,44.9262317338826],[-0.18948579952956976,44.92542037588884]]],[[[-0.1947479991100137,44.92418515303481],[-0.19285733087143228,44.9220017415578],[-0.19451636828683688,44.921515571917226],[-0.19533015872136456,44.92231531296236],[-0.1970923898607637,44.92333213243722],[-0.1947479991100137,44.92418515303481]]],[[[-0.2011300020005741,44.91697532670523],[-0.20209466626514766,44.91553289399384],[-0.2023769847985735,44.915106917496004],[-0.20125337937843032,44.91703052213606],[-0.2011300020005741,44.91697532670523]]],[[[-0.203574918251693,44.913129433732095],[-0.2094791929412108,44.90984802939078],[-0.21204289185338213,44.91038728712119],[-0.2144329993365038,44.91262927024224],[-0.21377014703857494,44.91488398723292],[-0.21260909110129916,44.91468617475301],[-0.20630346983258507,44.91578966483298],[-0.20390400585613855,44.91528481852784],[-0.2043328723384097,44.91441433464654],[-0.2041557628098106,44.91423102548298],[-0.20379484466641484,44.91525868180735],[-0.20249800297468828,44.914967633413625],[-0.2034288561732339,44.913101027125585],[-0.204490143414793,44.91338498311383],[-0.203574918251693,44.913129433732095]]],[[[-0.2050931434488059,44.91164775585995],[-0.20474783042524314,44.911962650643794],[-0.2045703765091311,44.90918348374912],[-0.20499559328626285,44.909241948963334],[-0.2050931434488059,44.91164775585995]]],[[[-0.20541365159153335,44.9093016103934],[-0.20544655651689286,44.91147463849477],[-0.20529744551160378,44.909285140323995],[-0.20541365159153335,44.9093016103934]]],[[[-0.22305342586770305,44.92113023273674],[-0.2240469809612139,44.92230951106409],[-0.22276432911609703,44.92336912510175],[-0.22134515257871307,44.92376208043439],[-0.21420116710633022,44.92391702572154],[-0.2120143489003965,44.92360461031875],[-0.20960335847409214,44.923490203589694],[-0.21073280221751808,44.92077418155573],[-0.21201741552030515,44.92102791723832],[-0.21251392040501768,44.92025690577343],[-0.21263437565603915,44.91983576244167],[-0.21513778484152593,44.920801396932234],[-0.21569698926442346,44.920812603006624],[-0.21622514477404747,44.92028251272077],[-0.22305342586770305,44.92113023273674]]],[[[-0.2091668820247036,44.90966872565267],[-0.20998023065966429,44.908904789860976],[-0.20989433351268041,44.90805537750213],[-0.21217466334870982,44.91029021245725],[-0.2091668820247036,44.90966872565267]]],[[[-0.21244982069371143,44.91978892645221],[-0.2120076958433187,44.921017655434206],[-0.21073671147897574,44.920762714715465],[-0.21095714255458342,44.91944938955359],[-0.21244982069371143,44.91978892645221]]],[[[-0.21425782320759457,44.91504883328781],[-0.21654344752933313,44.914847499576794],[-0.21817135291933948,44.916278598571495],[-0.21789209374922058,44.91631174015946],[-0.21730348661482196,44.91710689195395],[-0.21448473926120895,44.917368003094516],[-0.21426454433657863,44.91831881781542],[-0.21345858635027629,44.918097759627194],[-0.21264242566003747,44.919796962565094],[-0.2109620988825444,44.91936319138128],[-0.21241465603510143,44.914878325855895],[-0.21425782320759457,44.91504883328781]]],[[[-0.21817839344101814,44.91628857701715],[-0.22263062579822115,44.92061265054631],[-0.2162363820264761,44.920232987229994],[-0.21517868183541203,44.92076479991646],[-0.21265490058773975,44.91980218857158],[-0.21346537530782675,44.918109998385255],[-0.21427100522085513,44.91833196712439],[-0.21449443813040675,44.91737790482787],[-0.2173096899900818,44.91711554305345],[-0.21817839344101814,44.91628857701715]]],[[[-0.2226761091662887,44.92392622452646],[-0.224590464485286,44.92380029422186],[-0.2249836524160112,44.92488723835369],[-0.22345012984061563,44.925039069617895],[-0.222347140563201,44.92531301679764],[-0.22508533059323624,44.92488861176616],[-0.2265144511038055,44.9260965873382],[-0.2257641251201253,44.92627652194244],[-0.2225965839821917,44.927653431577646],[-0.22085760689937864,44.929231416846974],[-0.21913366180537563,44.931523513830896],[-0.2138008612662041,44.9298316351109],[-0.21760100077012937,44.927098796175116],[-0.21878286367622773,44.92706428845673],[-0.2195778047652233,44.92699808981159],[-0.22022256443130955,44.92690767387462],[-0.22084624720245244,44.92670874141119],[-0.22149953355656413,44.92636945577277],[-0.2217034812948739,44.92605130830517],[-0.2218546863453025,44.92553716786972],[-0.22089966309408934,44.925121518617566],[-0.2226761091662887,44.92392622452646]]],[[[-0.2167079254499981,44.91474352502829],[-0.21386828357048338,44.914916831076724],[-0.21451210301236798,44.91255579400378],[-0.2167079254499981,44.91474352502829]]],[[[-0.2216647320815259,44.92606567831703],[-0.2201898852687118,44.92690186286797],[-0.21761879210557755,44.927090531380635],[-0.22088564075094505,44.92512913402259],[-0.22182887954573485,44.925538366888524],[-0.2216647320815259,44.92606567831703]]],[[[-0.2275832888082239,44.92697448602803],[-0.2283850760158676,44.927562590463246],[-0.22134290193225167,44.932206676147594],[-0.21923740651528817,44.931527536378496],[-0.22279388094846336,44.927616800191736],[-0.22660545427924783,44.926163689879594],[-0.2275832888082239,44.92697448602803]]],[[[-0.23149543082578602,44.93591313776864],[-0.2310921366737861,44.94053532043508],[-0.23175082539410052,44.93851875665386],[-0.2322164022426749,44.9410284229512],[-0.23100255891876578,44.942923353509585],[-0.23112457920880997,44.94383164304662],[-0.23052140205109278,44.943807908965375],[-0.2311527884176662,44.94397761434042],[-0.23100475940497203,44.94560933142948],[-0.2317551184635369,44.94719933721124],[-0.22873525123487123,44.94638248832919],[-0.22776043447365713,44.945674326569275],[-0.22786733833677617,44.94415527877788],[-0.226929373549078,44.943929848399144],[-0.22598671416220378,44.94494096254964],[-0.22498289228713705,44.944766267621226],[-0.22363011244148434,44.945619041888534],[-0.22198649748324745,44.94570212228017],[-0.22051427887527714,44.94509581829708],[-0.22190070805481876,44.9432298004419],[-0.22357431094023558,44.94328110606939],[-0.22393122817093666,44.94308034686739],[-0.22417343994235958,44.94259942521055],[-0.23035136856241006,44.943770319396855],[-0.22414106812375592,44.94242708087487],[-0.22694080702656755,44.937241646660404],[-0.23001962985578908,44.93775421968042],[-0.23149543082578602,44.93591313776864]]],[[[-0.22941733478322449,44.92767234962091],[-0.2326655454487908,44.92996744325359],[-0.2314563377951425,44.93231469306345],[-0.22948755963760797,44.934097025645805],[-0.2240480122320518,44.93228635346216],[-0.22154914619146465,44.93226584596772],[-0.22861144381732193,44.92760791571369],[-0.22941733478322449,44.92767234962091]]],[[[-0.22822952201312371,44.951018275167925],[-0.22499069436237995,44.95057118834054],[-0.22614839139902815,44.94938749648764],[-0.2282476835103621,44.94945007832693],[-0.22809108036963588,44.94980453001911],[-0.2288253937220218,44.949883131897245],[-0.22822952201312371,44.951018275167925]]],[[[-0.2248015678648158,44.92293883631227],[-0.22491066821186906,44.92338685272877],[-0.22444960613958828,44.92357415047453],[-0.22394667316224362,44.92290760242565],[-0.2248015678648158,44.92293883631227]]],[[[-0.22594252714482335,44.92342501523311],[-0.2275079890968192,44.92419243093303],[-0.2268557539348451,44.92435060037994],[-0.2254553362068265,44.924857954601144],[-0.2250767138302901,44.923726705142194],[-0.22594252714482335,44.92342501523311]]],[[[-0.2282899354610262,44.92718580831195],[-0.2254677958469299,44.92486948743496],[-0.22750270332075173,44.924206371451255],[-0.22846194349384327,44.925514029375705],[-0.2282899354610262,44.92718580831195]]],[[[-0.22948514320326358,44.93427308286765],[-0.23173242553529633,44.9352355466765],[-0.2317930216393674,44.93599612527232],[-0.23144097318556742,44.93589057180992],[-0.23129415777792733,44.935918631043634],[-0.228826006915228,44.93689690171059],[-0.22780364612875795,44.93699500094943],[-0.22724655544678202,44.93646150584544],[-0.22948514320326358,44.93427308286765]]],[[[-0.22837046527240798,44.9240905944434],[-0.23105784949954425,44.92402759904737],[-0.22985320296630785,44.92476198179678],[-0.23139271268118053,44.92556605455866],[-0.229701074634585,44.926679008370265],[-0.22837046527240798,44.9240905944434]]],[[[-0.2291013427913162,44.92728666903417],[-0.22947283485356404,44.927638296294646],[-0.22870919472630108,44.92754100593108],[-0.2291013427913162,44.92728666903417]]],[[[-0.23147119274707897,44.932433748373285],[-0.23278773679153864,44.92994820832856],[-0.23204949122745458,44.93527570474112],[-0.2295870059920897,44.93418487685587],[-0.23147119274707897,44.932433748373285]]],[[[-0.23126940073784422,44.92585619432057],[-0.23339754621539593,44.927001579679754],[-0.23316317976372786,44.92825607917016],[-0.23004108243054294,44.92769287320732],[-0.22942303018317112,44.92707096402877],[-0.23126940073784422,44.92585619432057]]],[[[-0.23029110597685015,44.92777886822266],[-0.2331561544150646,44.92831242285526],[-0.23296524346776357,44.92922521755937],[-0.2321363510021274,44.92923095342811],[-0.23029110597685015,44.92777886822266]]],[[[-0.23221519432485255,44.93603728070957],[-0.2359744177161732,44.93559642819191],[-0.2323400036733913,44.940841811242855],[-0.23221519432485255,44.93603728070957]]],[[[-0.23221325170314877,44.93601679185029],[-0.23228082156379273,44.93561770577155],[-0.23299549016086527,44.93560295006264],[-0.23288364712542406,44.935663244874405],[-0.23221325170314877,44.93601679185029]]],[[[-0.23326889485755636,44.9301814710753],[-0.23573329675553048,44.93126107354804],[-0.23538918749746704,44.931982884409145],[-0.23423718326965304,44.93219151267677],[-0.23424874720844135,44.93336820967037],[-0.2352996094774894,44.93346629258156],[-0.23378296828706602,44.93413879270646],[-0.2331279157455219,44.93555638389511],[-0.23231146773090638,44.935350535420135],[-0.23326889485755636,44.9301814710753]]],[[[-0.23422577474841638,44.92511811758771],[-0.23582994627872106,44.925386339822694],[-0.23509671544561325,44.92691705726649],[-0.23864024929381036,44.92812862253323],[-0.23837593797276418,44.92850704575134],[-0.2390252309010141,44.92872574060921],[-0.23832575773855444,44.92858041737012],[-0.23691830417607362,44.93069291444448],[-0.23750448108999409,44.93086614933992],[-0.23671698329778207,44.93139813416191],[-0.2332963502499118,44.93005046138813],[-0.23422577474841638,44.92511811758771]]],[[[-0.2332495364395803,44.925979162028035],[-0.2338104979339161,44.92421873414104],[-0.234012916717485,44.92411948625981],[-0.23363963854063893,44.92627706854077],[-0.2332495364395803,44.925979162028035]]],[[[-0.23660765930571437,44.931607313700525],[-0.23789531449652895,44.932282664974174],[-0.23622371386105834,44.93523394784805],[-0.23419535621259108,44.93436017734588],[-0.23580853287267067,44.933665576250256],[-0.23660765930571437,44.931607313700525]]],[[[-0.2371424521817349,44.92584227028167],[-0.239543214861266,44.92679712154794],[-0.23936775443033434,44.92763955301827],[-0.2365503921854412,44.926581312421845],[-0.2371424521817349,44.92584227028167]]],[[[-0.23806679279899828,44.93190433556848],[-0.23800457902852923,44.93183532122085],[-0.23808291522778832,44.93186061217644],[-0.23806679279899828,44.93190433556848]]]]}}]}