{"type":"FeatureCollection","features":[{"type":"Feature","properties":{"tier":"village","appellation":"Saint-Est\u00e8phe","source":"INAO d\u00e9limitation parcellaire des AOC viticoles, 2026-09-28 (data.gouv.fr, Licence Ouverte)"},"geometry":{"type":"MultiPolygon","coordinates":[[[[-0.7958645180014988,45.24257912955879],[-0.795656637720463,45.24497941517645],[-0.7961100910822454,45.24407713842703],[-0.7974262313953174,45.24446483268685],[-0.7975827044526902,45.243249649188904],[-0.8004443114596523,45.24475512932412],[-0.8045099595060933,45.24615751463609],[-0.8029528835902499,45.247761166519005],[-0.8014179681665985,45.247400811494146],[-0.80004413819122,45.24975659153136],[-0.8006451484169622,45.250249442311706],[-0.8022124811416959,45.24904672322576],[-0.8049405953624368,45.250076702721785],[-0.8065740026365702,45.24844698296174],[-0.8100468454488954,45.24963382652122],[-0.8090803446194861,45.25148768474355],[-0.8109290662691001,45.2516062759211],[-0.8106949806956605,45.252164073937166],[-0.8113691279454003,45.252218511041114],[-0.8112534418657324,45.25278876760523],[-0.8124966335233194,45.25326956364904],[-0.8129931543174876,45.25455543636454],[-0.8133343006611209,45.254504847419746],[-0.8123740893071136,45.2564820249886],[-0.8088522369994184,45.2580249623189],[-0.8075525541049777,45.25955977087924],[-0.8047832882905636,45.26110333206914],[-0.8018201845215566,45.25952186928199],[-0.802072916135239,45.2587754107105],[-0.8002505580619959,45.25878630217635],[-0.8007984950755099,45.25993119567265],[-0.8022146315294538,45.260476360138014],[-0.801584263305497,45.2610705192029],[-0.8014967795127353,45.26202220906131],[-0.7998550923155833,45.26294320208823],[-0.7986907855780623,45.26433996456303],[-0.7948280219782836,45.26392628804869],[-0.7964195345093599,45.26096893699357],[-0.7935106056362929,45.26024695724645],[-0.7913991517027831,45.2630952504674],[-0.7904343119046248,45.26342466144917],[-0.789058096375797,45.26216493291317],[-0.7886421439427928,45.263881643213715],[-0.7879950502069026,45.263676594031395],[-0.7873592054319173,45.26436000781383],[-0.7842456864481823,45.26523869311189],[-0.7823856815497232,45.26483327262729],[-0.7818132503341481,45.26585030151715],[-0.7789554829001779,45.26739654617166],[-0.778669291035986,45.26796531311403],[-0.7739800018205815,45.26830922510867],[-0.773624139492263,45.267708790844644],[-0.7721291423841178,45.268118322343305],[-0.7704718119945851,45.267640414922724],[-0.7711594048682375,45.267122038434124],[-0.7706984030922378,45.266585903189345],[-0.7739886525338854,45.265298952566404],[-0.7737462421617852,45.264620497268666],[-0.7743182935026881,45.26454005546366],[-0.7738838004710038,45.26354356315194],[-0.7716222188986039,45.26335111491133],[-0.771450665722877,45.262755271806746],[-0.7690254110047873,45.26343550007831],[-0.7701394993376555,45.26524797655736],[-0.7694731908527913,45.26552034200289],[-0.7699651965496757,45.2686771501515],[-0.7710789700715962,45.26994542256317],[-0.7700660738438413,45.2712376792763],[-0.766472262759674,45.27081123491117],[-0.764359700856803,45.267019859966226],[-0.7672478860564106,45.26617872717457],[-0.7659734761159896,45.26495072387096],[-0.7663762296275063,45.26317002202366],[-0.7670193287299973,45.26300771386074],[-0.7659996912803225,45.26159335666849],[-0.7662664266413015,45.260791985129345],[-0.7687983228316312,45.26006107072773],[-0.7660002594717261,45.258944408821925],[-0.762294923892573,45.26287699406848],[-0.7616305814105873,45.26165833119174],[-0.7591166741910668,45.259564582677136],[-0.757506726099055,45.259136374792114],[-0.7565501093809966,45.257294609216345],[-0.7608489854230713,45.25604091673257],[-0.7601526773680034,45.25539097099802],[-0.7589873046935589,45.256028934264734],[-0.7587311436482312,45.25572799494717],[-0.7570744199962026,45.256239948968535],[-0.7565144004841192,45.25224904260718],[-0.7607610549759702,45.25142438593225],[-0.7649504604238031,45.249889976054845],[-0.7662625767191369,45.250219666256534],[-0.7662850510530481,45.249266161436346],[-0.7621577923065913,45.24995044467681],[-0.7621441353888252,45.249158257889576],[-0.761288715264186,45.249161915181176],[-0.7612160137702627,45.249968097396966],[-0.759337578306042,45.250658290779526],[-0.7560725786579584,45.25067554619328],[-0.7532310229804429,45.2512954299762],[-0.7514919100213214,45.24603180217532],[-0.7530273941112825,45.246372528813346],[-0.7537036369787612,45.24581227192371],[-0.7536998129227915,45.242953012265474],[-0.7558230378405909,45.24220022940372],[-0.7560859705269426,45.241421190617864],[-0.7536475120346579,45.241175856477646],[-0.7537036115170231,45.24044001383987],[-0.7543624301810964,45.24002573988091],[-0.7558786326897535,45.24017902831091],[-0.756699128476864,45.23919346423707],[-0.7574942360463001,45.239302473781834],[-0.7570900650651143,45.238354677791946],[-0.7573128318695788,45.23754246137498],[-0.7580948985356887,45.23699276617653],[-0.7624059950327504,45.237836137452994],[-0.7634773624926727,45.235757081291545],[-0.7664497288991645,45.23566453348392],[-0.7693786334470529,45.23701813278138],[-0.7707395904994339,45.23884541092712],[-0.7739401502395055,45.239111225807015],[-0.7742485019645764,45.23794405638648],[-0.7801289964003972,45.23731625014916],[-0.7801751062346381,45.23696888949226],[-0.7761618762806178,45.23658614508167],[-0.7765111854494718,45.235888864876586],[-0.7815426523137926,45.23693935736868],[-0.7701066826720399,45.23403579692144],[-0.7699665100145093,45.233293044132786],[-0.768853438355621,45.232986441528844],[-0.7687847601200078,45.232417779431614],[-0.7717084883255447,45.23139958171839],[-0.7733460585806381,45.22953720170614],[-0.7775380659302238,45.228979530995375],[-0.7801985903732007,45.227482135699695],[-0.7866377264157407,45.225105941737745],[-0.7877061088343636,45.22575814885437],[-0.7897215425832151,45.22499482182874],[-0.7898361156063727,45.22532357256524],[-0.7929352436015226,45.22527422573993],[-0.7937780229895464,45.22582676677769],[-0.7957876634249772,45.228728975931446],[-0.7969110614147009,45.23358638076071],[-0.8008809981663199,45.236472693682586],[-0.801135414856478,45.23817178095014],[-0.8028472630744667,45.237835758301415],[-0.8048655721322888,45.23841201583956],[-0.8065633580452758,45.23950146546433],[-0.8062624271078467,45.240420047792384],[-0.8085655804596513,45.24129186490062],[-0.8127157508442395,45.24236328921892],[-0.8160145387973857,45.24233085747473],[-0.813101940520202,45.244712610283536],[-0.8124120165729011,45.2467993769503],[-0.8109214765576263,45.24734623656218],[-0.8109827605591701,45.24776098920446],[-0.807863245033444,45.24688044472386],[-0.8057698801300672,45.244924013490945],[-0.8022973213169304,45.24531813521805],[-0.7975112010965987,45.24303735022489],[-0.7946714611281784,45.24111953798725],[-0.7942756168968211,45.23952197371274],[-0.7954582515676402,45.23826363396288],[-0.7944636546284322,45.23797867284093],[-0.7939980877943856,45.239516257628054],[-0.7943245868702934,45.240443863753306],[-0.7928702396915203,45.24026230894791],[-0.7958645180014988,45.24257912955879]],[[-0.7706317632347717,45.25986290626266],[-0.772106578296481,45.25953736462397],[-0.7727716421535125,45.26098230381695],[-0.7740706697957804,45.26022645606628],[-0.7733727418409673,45.25942753840145],[-0.7740184183825106,45.25917414356609],[-0.7734844736984827,45.25828972802459],[-0.7720706196707416,45.258564912666436],[-0.77173962409385,45.25758953138077],[-0.7705303697937486,45.25908314121333],[-0.7706317632347717,45.25986290626266]],[[-0.7702538521273242,45.25288512629801],[-0.7718637616232302,45.25278579569073],[-0.7714597945038364,45.252362859206556],[-0.7701081384367537,45.25244039748433],[-0.7702538521273242,45.25288512629801]],[[-0.7721103579707307,45.251311608246404],[-0.7751499340111024,45.25135306761359],[-0.7750223988349135,45.25027661819099],[-0.7739877896004087,45.25027479891675],[-0.7744512399822615,45.25000060136089],[-0.7744230013291451,45.24936314248074],[-0.7720668996680996,45.24931562610184],[-0.7721103579707307,45.251311608246404]]],[[[-0.7593402128963781,45.26501797203935],[-0.759027595541364,45.26382973767398],[-0.7600144937919315,45.2635522362906],[-0.7607527616181049,45.26381242867028],[-0.7613974073043137,45.26480729844211],[-0.7593402128963781,45.26501797203935]]],[[[-0.771025685439446,45.27543342270532],[-0.7711076934701016,45.27387229892817],[-0.7720468782433828,45.273748111073964],[-0.7724873223822127,45.274975097420835],[-0.771025685439446,45.27543342270532]]],[[[-0.7752006632549205,45.273081081404506],[-0.7761802140156627,45.271586261018925],[-0.7793449426188893,45.271540299492834],[-0.7786379853994324,45.27041195508506],[-0.7791745152352195,45.26928194369399],[-0.7813642289104115,45.26797501844791],[-0.7829753036607093,45.26792228828849],[-0.7831204222027994,45.26695731297407],[-0.7880462458680307,45.2651657075381],[-0.7913394260090884,45.26477266032752],[-0.7948958821644196,45.26623842433806],[-0.7929727161580806,45.270127681338394],[-0.7956131516018657,45.27114007414697],[-0.7960806237079453,45.27239094644985],[-0.797064448751212,45.27304633797302],[-0.7971105792875728,45.27375125680719],[-0.7968899175812761,45.27430144275143],[-0.7953774397993969,45.274100589327624],[-0.7937698011052958,45.27521882788496],[-0.7909254128118095,45.275157326115014],[-0.7890541826264543,45.27440108033421],[-0.7890974832020382,45.272661215278546],[-0.7869782181909879,45.27246910511553],[-0.7870908103187554,45.2732971658012],[-0.7863467794341417,45.27445507498261],[-0.7836491767107104,45.27514402697477],[-0.7795141641866831,45.27434525609989],[-0.7789720225610189,45.27305547397395],[-0.780188624841311,45.27260596114713],[-0.7761904481691,45.27332510936648],[-0.7752006632549205,45.273081081404506]]]]}}]}