{"type":"FeatureCollection","features":[{"type":"Feature","properties":{"tier":"village","appellation":"Saint-Emilion grand cru","source":"INAO d\u00e9limitation parcellaire des AOC viticoles, 2026-09-28 (data.gouv.fr, Licence Ouverte)"},"geometry":{"type":"MultiPolygon","coordinates":[[[[-0.19107873194574193,44.86265708016163],[-0.19108977806482463,44.86132193873615],[-0.1943463185250016,44.86082735174113],[-0.19700764120966163,44.85909935146733],[-0.19867473498509494,44.85973748424764],[-0.20159982764733822,44.862093863601146],[-0.19891369238748438,44.863547141470285],[-0.20118329791999157,44.86454054868548],[-0.20228640263170758,44.86579357037427],[-0.1996771941734399,44.86746549838605],[-0.1957457234257553,44.87208155589364],[-0.19301709797150396,44.8694418320731],[-0.19113435610149876,44.86936625692377],[-0.19191456889857728,44.87102009109339],[-0.19161229293584417,44.871668358999386],[-0.19487424061725908,44.8728666604229],[-0.19518309680212367,44.87472570461624],[-0.19173643450396238,44.87493300284229],[-0.1950621111064384,44.87513142898528],[-0.19638804838141216,44.87745858561518],[-0.19649062665037728,44.8788455027112],[-0.19883965586446095,44.88215149981277],[-0.20269807419552102,44.88600373674434],[-0.20405115968339577,44.88583513366168],[-0.20691646493544072,44.89029205933217],[-0.20470188362703828,44.890135556541146],[-0.20261648773801708,44.88881112505511],[-0.2022146160656359,44.88867255155375],[-0.2015332264878042,44.88852027663287],[-0.20063827783020546,44.888377263578974],[-0.197408126638837,44.88852143429257],[-0.1888469452386591,44.8873806435527],[-0.184647354653684,44.88721978869834],[-0.169597026983871,44.880452677384],[-0.1666787317151681,44.87961390720443],[-0.18445267863441725,44.887293764907376],[-0.19727564397160577,44.888565528298884],[-0.20089696649280306,44.888445766668056],[-0.20227515899746218,44.888713922169465],[-0.2048229609783064,44.89024465231995],[-0.2067859912103807,44.89043112654371],[-0.20992992029072127,44.89350596273512],[-0.20856686326189225,44.894786271905055],[-0.20888228746551307,44.89613176594691],[-0.2079210417820299,44.89873576145016],[-0.20827574494672307,44.89924508259436],[-0.20798748567966424,44.900276600609374],[-0.20793773401557863,44.90090303522732],[-0.20736283633341143,44.901066159938864],[-0.20692648681066864,44.901330843197485],[-0.20646439080772444,44.90194363886117],[-0.20652811362402332,44.90311150589789],[-0.20671046103329582,44.903493349397905],[-0.2068723676786778,44.90359748070035],[-0.20696533607356238,44.90359357936446],[-0.20700924480011704,44.90366300196855],[-0.20711209824161259,44.90370558172048],[-0.20698620880264298,44.90379896624613],[-0.20702767385515095,44.903878867041364],[-0.20714604599649752,44.90373384171609],[-0.2070230035821572,44.90347788071112],[-0.2065631177223438,44.90309837542794],[-0.20651792154040696,44.901908617543405],[-0.20794263584797495,44.900962140406406],[-0.20875672564343567,44.8993886500216],[-0.210826455266744,44.89981640099892],[-0.21087949884013646,44.90101764624929],[-0.2117796385644353,44.9010612684204],[-0.2123559599819396,44.89915221025955],[-0.213612584358773,44.89968714194484],[-0.2130130236893361,44.90072065634095],[-0.21360802202944262,44.900822382526776],[-0.21413264496360143,44.899908356293956],[-0.21656965495774433,44.900951541664625],[-0.21562239186890195,44.902677903447355],[-0.21509286922229304,44.90285399169434],[-0.21303484626338207,44.90221710314316],[-0.21287199736496232,44.902827080339684],[-0.21125704835709755,44.90272250077557],[-0.21147162213415568,44.90205678468687],[-0.21021169906080797,44.901910023643694],[-0.2099584195398223,44.90322005618969],[-0.21256894018571776,44.90373856505539],[-0.21236745369227558,44.90454411558224],[-0.21335232724675246,44.9047577451915],[-0.21317852306698545,44.905389035733045],[-0.21005910803248629,44.90430143156111],[-0.2082983751940817,44.90397628940772],[-0.20719548906827617,44.90393222302849],[-0.2074793119967801,44.90439999042889],[-0.20767168078518117,44.90440484151468],[-0.20764587844292512,44.90451236631929],[-0.20793398471728958,44.90474125659533],[-0.2092053516045686,44.90554794587793],[-0.20927004046213285,44.90599373984891],[-0.2099558622574008,44.90665798372993],[-0.2095557596640597,44.907789247913534],[-0.2099345010690006,44.908910031392345],[-0.20765069733972502,44.9106955765421],[-0.20488490000029444,44.911711705621684],[-0.20384397611013616,44.912556101408306],[-0.19988706747519955,44.919056126781335],[-0.19733127792786734,44.92060855219787],[-0.19696692761193124,44.92043778446131],[-0.19498276177059357,44.921981403762146],[-0.19706717775564778,44.923363765548565],[-0.18817508750303388,44.92689555362618],[-0.18512835890854965,44.92872682561717],[-0.18007552494064344,44.929316532916246],[-0.17713677648949758,44.93085739906373],[-0.17518709442017283,44.930828525366444],[-0.17508730732009498,44.929523542784885],[-0.17401797418471115,44.92989308631749],[-0.17351030294746483,44.92954981371386],[-0.17408486886096186,44.92884312426173],[-0.17210547482024852,44.92848957629291],[-0.17039691084284214,44.92749435410925],[-0.16703241506241667,44.92513226311986],[-0.1675258630311152,44.92474028143925],[-0.16638141925631736,44.92506593874024],[-0.1654859434759144,44.924261565346946],[-0.1627721129797754,44.92391634872067],[-0.16293283567015085,44.9232647540155],[-0.15696288982927037,44.92199537903327],[-0.15716654796108787,44.92128623040336],[-0.15373461583556366,44.9201245428815],[-0.15399020855798967,44.91902045573878],[-0.1530140395142942,44.91986143154046],[-0.1498625174577931,44.918341541063334],[-0.146361899525655,44.917665286488486],[-0.14433246436977007,44.916222099291836],[-0.14351561001796995,44.917039258414576],[-0.14145521174868947,44.91618589745847],[-0.14080911299785256,44.916652764514],[-0.13874071333837645,44.91626034038967],[-0.13689687282195184,44.91456332998446],[-0.13227331710574644,44.912245002249904],[-0.1349746379847582,44.91114211703044],[-0.13686599587038056,44.90974712244652],[-0.13731935886841634,44.90916097074286],[-0.1372414626328373,44.90905369221443],[-0.1364307939998866,44.90831324436932],[-0.13725167516655515,44.90908665290322],[-0.13685029095304607,44.909609162948044],[-0.13517369925895883,44.910953492395315],[-0.1321564380714337,44.912216130570265],[-0.1256198689950628,44.91060766780017],[-0.12440452859412204,44.90985753998553],[-0.12400232285487463,44.910271896599035],[-0.1207263579881037,44.90945262466468],[-0.1209622188554942,44.90829448551377],[-0.11848755383772408,44.9083959975392],[-0.11275917643440266,44.90748246852712],[-0.10994975230291482,44.90592658446227],[-0.09950923629641184,44.902069704622406],[-0.0985190637277453,44.90095175264661],[-0.09669352492353644,44.90024336898562],[-0.09642713100988808,44.89842574254245],[-0.09650789176187329,44.89933565615676],[-0.0968341698393173,44.901077820456265],[-0.09395537055326526,44.899904811070556],[-0.09153944105866949,44.899555729270546],[-0.0913127511910107,44.897197536233286],[-0.0896223828211097,44.89479412432671],[-0.08871493990898965,44.89228106400133],[-0.0859496180352222,44.892565016229305],[-0.0830167817581257,44.89217930766875],[-0.08144850330245677,44.89366251355059],[-0.081678389370256,44.894716017923834],[-0.08057416111539854,44.89421748363519],[-0.07721177392874536,44.891023222931416],[-0.07307404371225913,44.8906929900592],[-0.07039283875009968,44.89138563537428],[-0.06789567010619915,44.88933707518831],[-0.06761630538062662,44.88863685924873],[-0.06876343896354571,44.886624253620795],[-0.07219723991093414,44.88574097519296],[-0.07357153382103458,44.88369391676506],[-0.07558039242205176,44.88363269318381],[-0.07725980035672257,44.880765036101835],[-0.080371956640071,44.88018585620016],[-0.08016673341679696,44.87942774959753],[-0.0811492216505772,44.878660828793436],[-0.08184601065165209,44.87697953912768],[-0.08295185074259492,44.87642695469259],[-0.08447736079620534,44.873898455408934],[-0.08674471501585575,44.87477654754526],[-0.08947629161394609,44.874075143475004],[-0.0910938997229155,44.87331486717941],[-0.09801325344944047,44.8680410211443],[-0.09796707455823694,44.866003197844904],[-0.09753835390455498,44.86647738069364],[-0.0962592843184613,44.86630457527657],[-0.10179441500177429,44.860643975562986],[-0.09552753865152433,44.85916612607774],[-0.09561084657201284,44.857281553295344],[-0.09848561687087246,44.8568437857128],[-0.09788827642570738,44.85599583709734],[-0.0990823211716438,44.85572948711965],[-0.10048569268730885,44.85128785161683],[-0.10091194541452486,44.85156570992089],[-0.10462018573687747,44.85027733092066],[-0.10487003508213225,44.851606927888504],[-0.11094584479998404,44.85191698172675],[-0.11219711536239857,44.851143131856354],[-0.11282643131325937,44.851388218645496],[-0.11394176804363745,44.85003230935846],[-0.1164318569547102,44.850630058395076],[-0.11750932369889017,44.85030929349128],[-0.1194042975272243,44.84889933844745],[-0.12185975373295949,44.84833415921304],[-0.12860392107681756,44.84248762800424],[-0.1307961654232754,44.84220078784593],[-0.13251902377826183,44.841305351826804],[-0.13472081405337424,44.84173277866818],[-0.1369867571558783,44.84287485778154],[-0.13737256342747003,44.84357126572181],[-0.1395359439104524,44.8434340116767],[-0.14188632355651506,44.84247417116763],[-0.14326597449894307,44.84269927284911],[-0.14421091647361808,44.84157087466188],[-0.1433378950880978,44.84100453112662],[-0.14317681182477696,44.83951831701689],[-0.1436245182924841,44.83889670371355],[-0.1446355587746556,44.8387825362688],[-0.14466394167708488,44.83787149604344],[-0.14567626097849667,44.8382439368704],[-0.14552400584658018,44.838865020214605],[-0.14633504085266263,44.83899204211475],[-0.1461564500827083,44.83943006025908],[-0.14678517684759632,44.839528550747104],[-0.14798222843938483,44.8419121846809],[-0.1490745332847417,44.84289837443434],[-0.15227692056386943,44.844317848834564],[-0.1585444485724653,44.84406892975172],[-0.1688637539297669,44.841428500941724],[-0.16926629543321098,44.84254908898209],[-0.16811478627756085,44.84285660612934],[-0.16840442688017954,44.84350278951643],[-0.16611803543069859,44.84425201683183],[-0.1657497494698058,44.84648975920488],[-0.16735821802597364,44.8486768490891],[-0.16675395059810458,44.849113361646396],[-0.16627344906692204,44.84968726400072],[-0.16607885472360573,44.85013586776533],[-0.16598966963008335,44.85077356879653],[-0.16578578473042618,44.85114737899453],[-0.16474578418605862,44.851357892470396],[-0.16451132298228008,44.85146585916171],[-0.16246059779201613,44.85289051573308],[-0.15972912065559924,44.855507696670074],[-0.15945603602277691,44.85689255841536],[-0.15921397113298388,44.85980121608146],[-0.1574685023666909,44.85988775086613],[-0.15521844793055878,44.859203877449005],[-0.15380814443164217,44.85897356421005],[-0.15123478118926928,44.859030457213144],[-0.148607080399676,44.85821805503032],[-0.1471280437218238,44.85788462861578],[-0.14665112945213307,44.85845194830769],[-0.14662715517304314,44.85913841868534],[-0.14643083728325357,44.85929067689313],[-0.14574600412330713,44.85947219305777],[-0.14564562867122138,44.85955514210847],[-0.14537533689976914,44.86316223644082],[-0.14598784119650393,44.864872102079225],[-0.14541036865933948,44.866984141188496],[-0.1433847028704437,44.869720727181516],[-0.14431520364315478,44.87087078453967],[-0.14570240844797322,44.87472871945758],[-0.14664735009639884,44.87622435931073],[-0.14722076613313448,44.879328644044044],[-0.14679546821904457,44.87929819267591],[-0.14723296265180252,44.87934951814802],[-0.1472614962188047,44.87879401789592],[-0.1466695667947733,44.87610303291982],[-0.14432801653627308,44.870769278202],[-0.14349965722747896,44.86969634152788],[-0.14547463426807816,44.86697330915668],[-0.14606162863684288,44.86486618076274],[-0.14546606676685464,44.86317155860132],[-0.14564898629475648,44.85965348680771],[-0.14672397294572648,44.85917509412399],[-0.14676862986157208,44.858439515502056],[-0.1473654440322366,44.85799440869236],[-0.15112504824892314,44.85905263080281],[-0.15397577214699545,44.85902353875576],[-0.15752296314859426,44.859937020775966],[-0.1606414621623034,44.859816205075944],[-0.16434600365675403,44.86080081606989],[-0.16269561079276804,44.863105834081566],[-0.16272089062351286,44.863743334703635],[-0.16308391934730662,44.86487035161752],[-0.16393921155651653,44.8658558793554],[-0.16321296378937408,44.86661374117801],[-0.16164970296971579,44.87146117240325],[-0.16180431980697557,44.87676272279912],[-0.1626433495783888,44.87752436694427],[-0.16299438354697593,44.87718161920248],[-0.16197315800673878,44.87663518824721],[-0.1617504118436636,44.871312196191525],[-0.16331145771747838,44.866587551140825],[-0.1640811045328418,44.86583764207993],[-0.16310973634821718,44.864701207435864],[-0.16277712059259672,44.863149329877615],[-0.1645482576326698,44.86078829028591],[-0.1610294477309408,44.85975433334142],[-0.1592769798310577,44.85970071125581],[-0.15951057562522256,44.856868974558424],[-0.15999444687865053,44.85529046449942],[-0.16427825786536862,44.85163681450764],[-0.1658990016759162,44.85118510143322],[-0.1662119264774186,44.84988108035869],[-0.1672758808275577,44.84878228085845],[-0.17078442229329655,44.84839090846537],[-0.1710126723842783,44.84789958736951],[-0.17453577987831811,44.848908675223925],[-0.18124495330561513,44.849172060012904],[-0.1859309133181007,44.850594769492126],[-0.1855766182109032,44.85151673317735],[-0.1860224728601187,44.85217618107692],[-0.18771473068964967,44.85200772088081],[-0.18760291762068818,44.853873442750924],[-0.18890502864198544,44.8560965847043],[-0.18891564698086655,44.856551094825356],[-0.18803590407012355,44.85704092242724],[-0.18595796622593466,44.85756001738949],[-0.18628736610544588,44.858073629626155],[-0.18724263603011432,44.85817535321675],[-0.18697060133154841,44.859403720724714],[-0.18757111521491818,44.85979195318195],[-0.1871231499147592,44.86073824010952],[-0.18742481536698335,44.86080310254947],[-0.1865357244166756,44.86180584942341],[-0.18711574919171933,44.86307119089424],[-0.18834168250421673,44.863668932085446],[-0.18903038424735497,44.86299928875036],[-0.19010347777571937,44.86324822766779],[-0.19107873194574193,44.86265708016163]],[[-0.19119596960671528,44.86283539095165],[-0.191078733940851,44.862657078952275],[-0.19107873194574193,44.86265708016163],[-0.19119596960671528,44.86283539095165]],[[-0.0959629613664915,44.89563796498829],[-0.0959349509003263,44.89573089296946],[-0.09594693070137268,44.8957656428406],[-0.0959629613664915,44.89563796498829]],[[-0.09597004071799187,44.89563172064101],[-0.09603312791008708,44.895582682676185],[-0.09605505479932377,44.895556733764344],[-0.09597004071799187,44.89563172064101]],[[-0.09601949829823012,44.89587089976669],[-0.09606211988230601,44.895896863281365],[-0.09599232657526649,44.895836313830486],[-0.09601949829823012,44.89587089976669]],[[-0.09626426562667927,44.89783663066555],[-0.09648543545935352,44.897406253867295],[-0.09646247847322602,44.897417526334806],[-0.09626426562667927,44.89783663066555]],[[-0.09617894640261317,44.89598070552334],[-0.09622723477067394,44.896034823516246],[-0.09616628694137572,44.895969878030286],[-0.09617894640261317,44.89598070552334]],[[-0.09635589091488374,44.897976079995644],[-0.09637565214505711,44.89799188282534],[-0.09634368984823004,44.89795007066606],[-0.09635589091488374,44.897976079995644]],[[-0.09637578405547381,44.89530952854755],[-0.09626174327927876,44.89537938848551],[-0.09643839956766007,44.8952893528096],[-0.09637578405547381,44.89530952854755]],[[-0.0964169088196162,44.896381163199635],[-0.09663198902097019,44.89687361673543],[-0.09670298983385242,44.89735530131439],[-0.0964169088196162,44.896381163199635]],[[-0.09675130849001141,44.8924715627314],[-0.09652207718409288,44.89304528199623],[-0.0965112285759861,44.893092168267145],[-0.09647869371318508,44.89384428532583],[-0.09675130849001141,44.8924715627314]],[[-0.09673664212287379,44.89500563576086],[-0.09674467057597427,44.89500410533783],[-0.09674967166896423,44.894977519832395],[-0.09673664212287379,44.89500563576086]],[[-0.09814773494724172,44.89040293325403],[-0.09775905295766057,44.890626627242334],[-0.09768093867540788,44.89094741404636],[-0.09744331901924771,44.891441865961944],[-0.09704795255825972,44.891450822934154],[-0.09679721534862588,44.89233757616313],[-0.0970792932005118,44.89146287859535],[-0.0974424284224915,44.89144869365163],[-0.09814773494724172,44.89040293325403]],[[-0.11288792661816695,44.889797863233845],[-0.1089338197067016,44.887500401572005],[-0.10670008547771512,44.88656377267483],[-0.10583090263907863,44.88728306016999],[-0.1054170856312198,44.88837561575435],[-0.10274250277366741,44.88783192209061],[-0.09915144828945768,44.888148385410624],[-0.09765939321999864,44.889535637115436],[-0.09826822759010764,44.88988830384854],[-0.09769090396629351,44.88954390346309],[-0.0991836043781832,44.88823259086679],[-0.1028017269143776,44.88791730737613],[-0.1054122665421522,44.88844197710997],[-0.10669044804518658,44.886645671066326],[-0.11288792661816695,44.889797863233845]],[[-0.09824298238235588,44.89022000049576],[-0.09839950320801666,44.889967171008635],[-0.09839523799148041,44.88996460857742],[-0.09824298238235588,44.89022000049576]],[[-0.10642684593783286,44.86243306449031],[-0.106414364336781,44.86243015830466],[-0.10639747441527239,44.862428572140345],[-0.10642684593783286,44.86243306449031]],[[-0.10827280782293476,44.863300783706],[-0.10680132694954872,44.862536279540315],[-0.10670712034381094,44.8625058962964],[-0.10678192995588043,44.86257953164561],[-0.10827280782293476,44.863300783706]],[[-0.10922372072573287,44.883091321292206],[-0.10873442199800877,44.883282880655194],[-0.10979526826516636,44.88301233935116],[-0.10922372072573287,44.883091321292206]],[[-0.11044715582965112,44.864420303019884],[-0.10902287960980724,44.86343988119384],[-0.1089699453888309,44.863461600695786],[-0.11044715582965112,44.864420303019884]],[[-0.1119485320868778,44.87716477289145],[-0.11192148089714607,44.87725969012044],[-0.11197753704286122,44.877150481726794],[-0.1119485320868778,44.87716477289145]],[[-0.11167459407985308,44.87139486838272],[-0.11178818908879484,44.870683219238046],[-0.11165194467920928,44.87102546956275],[-0.11167459407985308,44.87139486838272]],[[-0.12808488641586985,44.88168597894013],[-0.12727383515033786,44.882285142274014],[-0.12632507519009226,44.8840252121994],[-0.12483960296001892,44.88509143960964],[-0.1243019149880538,44.88583272901467],[-0.12292500635119583,44.88634380095699],[-0.12195362186501627,44.887157016894534],[-0.11833349275424446,44.887981310694165],[-0.11516040523623887,44.88806300357341],[-0.11369109557113884,44.88829326156553],[-0.11292463758000439,44.889808814452934],[-0.1137448883225986,44.888321577460665],[-0.11939886324215121,44.88790443643986],[-0.1221229422019773,44.88717951195913],[-0.12430038127621851,44.88594630440207],[-0.12647194063372677,44.884036078498845],[-0.12808488641586985,44.88168597894013]],[[-0.11220256139301718,44.87672016119581],[-0.11238933850552887,44.87633868299102],[-0.11240986563058171,44.87627255061101],[-0.11220256139301718,44.87672016119581]],[[-0.11217289056625203,44.870051218313776],[-0.11358012274020823,44.86791722868381],[-0.11363448968820619,44.86775996055338],[-0.11217289056625203,44.870051218313776]],[[-0.11589857788858927,44.86497342638065],[-0.11623257098862032,44.86440324098859],[-0.1172579625505167,44.86239843536105],[-0.11593999569099236,44.86485909287483],[-0.11391079497340138,44.867106961852535],[-0.11589857788858927,44.86497342638065]],[[-0.11960244472562241,44.86071710241208],[-0.11965904564627233,44.860816878177225],[-0.11972961535578383,44.86085948178945],[-0.11960244472562241,44.86071710241208]],[[-0.12267510061671348,44.86154487555906],[-0.12145267400007477,44.86095295359688],[-0.12144646081724379,44.86095175330835],[-0.12267510061671348,44.86154487555906]],[[-0.12444780009725753,44.86146553028738],[-0.12375613134273154,44.8614900299285],[-0.12358926619403227,44.86154094161638],[-0.12444780009725753,44.86146553028738]],[[-0.12599037002381394,44.8619286630147],[-0.12597889712015142,44.86186884699869],[-0.1259834477027599,44.861910267011766],[-0.12599037002381394,44.8619286630147]],[[-0.12812031098672522,44.88380587273026],[-0.1281176297431527,44.883832799590145],[-0.12813547539964454,44.883905089214146],[-0.12812031098672522,44.88380587273026]],[[-0.12812067184819584,44.88364244519567],[-0.12826076391960653,44.881919530617],[-0.12816223428148585,44.881781433375956],[-0.12812067184819584,44.88364244519567]],[[-0.12902850481069894,44.88451989214293],[-0.12832790982822975,44.88411268725353],[-0.12816021519761034,44.88406695399562],[-0.12815673689143242,44.88404419657946],[-0.12815529182051866,44.88407867123153],[-0.12902850481069894,44.88451989214293]],[[-0.1280787860625109,44.881665495796014],[-0.12824911560221489,44.881087739256365],[-0.12823667978700093,44.881057904543084],[-0.12819655919031028,44.88103614851377],[-0.12813511188330529,44.881020579972564],[-0.1281022504773896,44.880947169406284],[-0.1282161104165796,44.88046162887756],[-0.12823236797299176,44.88032132781812],[-0.12813877465129525,44.879144934124994],[-0.1280787860625109,44.881665495796014]],[[-0.12810973753003396,44.87913323595801],[-0.12813954276383197,44.87913365748446],[-0.1281099523011959,44.87912846885333],[-0.12810973753003396,44.87913323595801]],[[-0.12811324936988486,44.87905528634061],[-0.128112020580683,44.87908256085709],[-0.1281219056873528,44.87905546155543],[-0.12811324936988486,44.87905528634061]],[[-0.12815877763391006,44.87903994693284],[-0.1284091082761623,44.878222308125906],[-0.1286383566811495,44.878079661012634],[-0.12815877763391006,44.87903994693284]],[[-0.12910911199268768,44.8846483754986],[-0.129052565788845,44.884539022659716],[-0.12901189666150573,44.88460286439348],[-0.12910911199268768,44.8846483754986]],[[-0.1289137397170188,44.87789271717488],[-0.12939219575215852,44.87744088565428],[-0.1287227635003163,44.878031731248754],[-0.1289137397170188,44.87789271717488]],[[-0.12914751686502485,44.88481056736362],[-0.13148704300116112,44.885533509890294],[-0.13074971464516658,44.88520325621861],[-0.13020608680129087,44.88501206503928],[-0.12914751686502485,44.88481056736362]],[[-0.12835898364646853,44.86013102745094],[-0.12835804116640714,44.86013055395808],[-0.12835030852033605,44.8601542455571],[-0.12835898364646853,44.86013102745094]],[[-0.12946786482130998,44.8773717202773],[-0.13009329345456572,44.87721286749769],[-0.13011820573547217,44.87719828881171],[-0.1307463712089266,44.876707341438255],[-0.13101531548792175,44.87644674051985],[-0.13121522040516564,44.87612077813084],[-0.1321700221902268,44.874217041814035],[-0.13094390892555663,44.87650470995251],[-0.12946786482130998,44.8773717202773]],[[-0.13162359269085105,44.88602130040891],[-0.13153986994107308,44.88585192221632],[-0.13145875334478285,44.88588504260442],[-0.13162359269085105,44.88602130040891]],[[-0.13192784473055702,44.88669977571039],[-0.131702284764083,44.88636055147784],[-0.1314897066811867,44.88615676055884],[-0.13192784473055702,44.88669977571039]],[[-0.13192170287390947,44.88709631566931],[-0.13197794007608396,44.88710037873123],[-0.13193576666658383,44.88678282150543],[-0.13192170287390947,44.88709631566931]],[[-0.13044577888912878,44.853184817665344],[-0.1305661966173632,44.85333416918338],[-0.1304349460912035,44.8531676014034],[-0.13044577888912878,44.853184817665344]],[[-0.1306036157916851,44.85335731365514],[-0.13085890874122982,44.85344239218701],[-0.13111958254215966,44.85351697281896],[-0.1306036157916851,44.85335731365514]],[[-0.13289143834393327,44.887842719774156],[-0.13279318099795276,44.88780389584818],[-0.13256311694565,44.88773346052795],[-0.13289143834393327,44.887842719774156]],[[-0.13067776812620266,44.85237030682489],[-0.13066331338065806,44.85236323604321],[-0.13064373873793617,44.852405239274425],[-0.13067776812620266,44.85237030682489]],[[-0.13065905148118193,44.852064210150985],[-0.13066092907927712,44.85206781223725],[-0.1306587486215763,44.85206220371183],[-0.13065905148118193,44.852064210150985]],[[-0.13354658734139346,44.8892199948586],[-0.13281944366257287,44.889116441589834],[-0.13423264285444486,44.88934779489968],[-0.13354658734139346,44.8892199948586]],[[-0.13091632302547312,44.851750866168565],[-0.13085060420984373,44.85180238385188],[-0.13098290576336483,44.851688702379626],[-0.13091632302547312,44.851750866168565]],[[-0.13226887036415136,44.87426029591895],[-0.133071140438176,44.8733706620462],[-0.13326937745607603,44.871627925552545],[-0.13306615667687613,44.873356295828266],[-0.13273401267723794,44.873287910657794],[-0.13226887036415136,44.87426029591895]],[[-0.13125926169371976,44.85144690069524],[-0.13110968491713793,44.851570336790274],[-0.13106588520638696,44.85161122985182],[-0.1311776817410107,44.85154264797273],[-0.13125926169371976,44.85144690069524]],[[-0.13233638036585613,44.85391383492354],[-0.13217725252281096,44.853869711103684],[-0.1323882403661038,44.85398272211701],[-0.13233638036585613,44.85391383492354]],[[-0.13505635974458977,44.89000039522519],[-0.13435852183763272,44.88983384628306],[-0.135170042234232,44.890029945914776],[-0.13505635974458977,44.89000039522519]],[[-0.13469717937226555,44.854891373047124],[-0.13276564187354112,44.854691750946074],[-0.1324227894860723,44.85404879469621],[-0.13274541816238905,44.85472205642156],[-0.13454969582770449,44.855071973352246],[-0.1341545763247483,44.85582046035948],[-0.1340035749526122,44.8563241749692],[-0.13390165316996808,44.85691967127694],[-0.13424041221746777,44.860105190577265],[-0.1343205836429255,44.86015992085486],[-0.13395926650231718,44.85673540211059],[-0.13469717937226555,44.854891373047124]],[[-0.13418119111414795,44.869695025567474],[-0.1342105998982658,44.869511462262025],[-0.1340555791139041,44.868728204107725],[-0.134163901958937,44.86961459959527],[-0.13381402980036675,44.870231336115836],[-0.13344181271441272,44.87115162187646],[-0.13418119111414795,44.869695025567474]],[[-0.1326866627558658,44.850872456178145],[-0.13253217551186616,44.850873412373396],[-0.1324419980013372,44.85095193000055],[-0.1326866627558658,44.850872456178145]],[[-0.1327107486569624,44.850878268361555],[-0.13315383561523406,44.85091839062657],[-0.13323004282525971,44.850888495471935],[-0.1327107486569624,44.850878268361555]],[[-0.13277457821574842,44.84662225907863],[-0.1326668495703839,44.84674621028899],[-0.13275891919552,44.84665833036297],[-0.13277457821574842,44.84662225907863]],[[-0.13404202292695533,44.86866141738284],[-0.13451893763220948,44.865124828682205],[-0.1345432436644827,44.864986539793385],[-0.13404202292695533,44.86866141738284]],[[-0.13293850275669342,44.847602322115506],[-0.13292458604928037,44.847305195553574],[-0.1329304723361742,44.84724952512419],[-0.13293850275669342,44.847602322115506]],[[-0.13285690990003232,44.84646463238016],[-0.13285232952612908,44.84642340390439],[-0.1328280618215555,44.84651073623823],[-0.13285690990003232,44.84646463238016]],[[-0.1328421223211575,44.84627852963955],[-0.13318149945630012,44.84583762104968],[-0.1331935747912194,44.84578619092847],[-0.1331862767552233,44.84576957487101],[-0.13286003764443638,44.84622333513461],[-0.1328421223211575,44.84627852963955]],[[-0.13627240930433737,44.905703706087294],[-0.13630441476090582,44.90552101328117],[-0.1363439884069782,44.905766155442414],[-0.13627240930433737,44.905703706087294]],[[-0.13310076570656498,44.84807578099668],[-0.1330613732273717,44.84790431014511],[-0.1330393827187886,44.84784070124768],[-0.13310076570656498,44.84807578099668]],[[-0.13555012494114785,44.89014873121817],[-0.13553245069173944,44.8901409406706],[-0.13555703790044513,44.89015338210139],[-0.13555012494114785,44.89014873121817]],[[-0.13308269787978208,44.84565647879369],[-0.13433346567342835,44.844624354219334],[-0.13435305938583614,44.84440482968958],[-0.13313919962542353,44.84537694168328],[-0.1330614128169162,44.845621699022665],[-0.13308269787978208,44.84565647879369]],[[-0.13555750372880895,44.89015374894508],[-0.135557840831878,44.89015392229548],[-0.1355575006250249,44.89015369341201],[-0.13555750372880895,44.89015374894508]],[[-0.13328177625405566,44.84872839635213],[-0.13326307730020323,44.84871108380977],[-0.13326040425137117,44.84881756496338],[-0.13328177625405566,44.84872839635213]],[[-0.13575209531682106,44.890611859075804],[-0.13561132174253474,44.89035010081088],[-0.1355856829051794,44.89021561823809],[-0.13575209531682106,44.890611859075804]],[[-0.14094988014960866,44.89248635186967],[-0.1366406069544287,44.89218233830179],[-0.13585551593215187,44.89225380321406],[-0.1363796574852651,44.89138996462945],[-0.13573358972916894,44.89228360276244],[-0.14104278733511397,44.892569954809474],[-0.14322185466983128,44.89322881819687],[-0.1425578549717364,44.893398316419166],[-0.14225438730094028,44.89354098307105],[-0.14041633029896902,44.895291799040464],[-0.13988287551539227,44.895918885328015],[-0.14177717723216127,44.896074797086875],[-0.1420679669804618,44.89649313055918],[-0.14208118440917253,44.89723153605642],[-0.14229160365831084,44.89759321422227],[-0.1415355257446223,44.89914150080196],[-0.14233830141475418,44.89750349861386],[-0.14214123377768692,44.89647037788017],[-0.14189109966222888,44.89597669186531],[-0.13999370433537778,44.89584019734705],[-0.14216757215352832,44.893640889622645],[-0.14335278463255172,44.89323259026387],[-0.14094988014960866,44.89248635186967]],[[-0.13334938829298107,44.849066089853714],[-0.13337824824382288,44.84913359455032],[-0.13336027946035123,44.84900111100732],[-0.13334938829298107,44.849066089853714]],[[-0.13341211266220726,44.84942059071504],[-0.13340448657525078,44.84940229210748],[-0.13343481564579693,44.849477411954204],[-0.13341211266220726,44.84942059071504]],[[-0.13687051627026298,44.907522409256835],[-0.13671431953440316,44.907246095500476],[-0.1368621788066456,44.90753656614977],[-0.13687051627026298,44.907522409256835]],[[-0.13659676515984961,44.90536178373219],[-0.13723061067178938,44.90388875671302],[-0.13768727052111085,44.902838914472824],[-0.13766047109069957,44.90282899413908],[-0.13659676515984961,44.90536178373219]],[[-0.1336242421437554,44.84975131909855],[-0.13349585350366605,44.84964725466766],[-0.13360779482664598,44.84978256659028],[-0.1336242421437554,44.84975131909855]],[[-0.13371435369090137,44.850038188965904],[-0.1335906019617277,44.85002231193414],[-0.13373038738560986,44.85011566399252],[-0.13371435369090137,44.850038188965904]],[[-0.13375117185807855,44.85045271023958],[-0.1337536821672438,44.850425067402185],[-0.1337294515602322,44.85048519480788],[-0.13375117185807855,44.85045271023958]],[[-0.1337625931093931,44.85024207344428],[-0.13376322315908906,44.85024714663535],[-0.13376320507361547,44.850246211599874],[-0.1337625931093931,44.85024207344428]],[[-0.13458392025064056,44.86474992333323],[-0.13458011999936298,44.86477673101458],[-0.13458229930890978,44.864764331732395],[-0.13458392025064056,44.86474992333323]],[[-0.13699671060593774,44.90590896415716],[-0.13736638066938506,44.90590798231107],[-0.13738859061899736,44.90588343168532],[-0.13699671060593774,44.90590896415716]],[[-0.13753370922985395,44.902780449434935],[-0.1385093876869341,44.902377694558865],[-0.14105222099780648,44.89959146706147],[-0.13857166573497526,44.902228412748265],[-0.13799070058201007,44.90217779264657],[-0.13753370922985395,44.902780449434935]],[[-0.13436480159575837,44.84438994976289],[-0.13485759204958941,44.844155418983235],[-0.13508066092494428,44.84393353995504],[-0.13485125786447308,44.84414631724671],[-0.13451037051284537,44.844285790009216],[-0.13443379085671694,44.84432516684082],[-0.13437784449142834,44.84437342157465],[-0.13436480159575837,44.84438994976289]],[[-0.13574429653569972,44.85507263834495],[-0.13536197379491904,44.854969246377834],[-0.1359951177533828,44.855186613596395],[-0.13574429653569972,44.85507263834495]],[[-0.13534944988703485,44.84388445107751],[-0.13552416153054805,44.843710366283666],[-0.13525545355998278,44.84389004038559],[-0.13534944988703485,44.84388445107751]],[[-0.13583034412323014,44.84377102271459],[-0.13582247732853234,44.84376169404247],[-0.13573752694946267,44.84375312247311],[-0.13583034412323014,44.84377102271459]],[[-0.1416309476214877,44.914535221077514],[-0.14139788376069815,44.91425932921516],[-0.14026274653083157,44.91422668738977],[-0.14102935201112876,44.91485215524172],[-0.1416309476214877,44.914535221077514]],[[-0.13668113576979685,44.84377913649116],[-0.13668989414507596,44.84375681329104],[-0.1366261740830249,44.84376071849179],[-0.13668113576979685,44.84377913649116]],[[-0.13723334666595538,44.84362444224107],[-0.13718060068195287,44.843633190049886],[-0.13701080899713597,44.8437007563071],[-0.13723334666595538,44.84362444224107]],[[-0.1377921751143692,44.8560587859285],[-0.13789274358638864,44.8561017814292],[-0.137743320023316,44.856030032383735],[-0.1377921751143692,44.8560587859285]],[[-0.13988561412577163,44.89209189889006],[-0.13989192846201629,44.892071129119735],[-0.1398863574007263,44.8920878906102],[-0.13988561412577163,44.89209189889006]],[[-0.14002056028696988,44.8916841154426],[-0.14004716184268698,44.891611323492576],[-0.14004718578227798,44.891611253234466],[-0.14002056028696988,44.8916841154426]],[[-0.1411682809628612,44.889179446986944],[-0.14024557585551062,44.8905362909184],[-0.14033745144276455,44.89071722117594],[-0.1411682809628612,44.889179446986944]],[[-0.14138611607969379,44.888681439491585],[-0.14128651419022317,44.888922332607294],[-0.14117456587254673,44.88916718151044],[-0.14129166823519443,44.888919303388604],[-0.14138611607969379,44.888681439491585]],[[-0.1430202068624783,44.85657106567049],[-0.14005148475763987,44.8561626455526],[-0.1395721486352285,44.85618114796402],[-0.1430202068624783,44.85657106567049]],[[-0.14282879046483882,44.885569022337116],[-0.142726567180777,44.88688591316774],[-0.14262522011861894,44.88705655914367],[-0.14221110018853894,44.88751998155666],[-0.1419275061040271,44.88790847231711],[-0.14240884041829627,44.88734363405887],[-0.14270627609771103,44.886958121696786],[-0.1427218500729312,44.88692389114083],[-0.1428544977717747,44.88618973835527],[-0.1428714882989995,44.88567849271942],[-0.14282879046483882,44.885569022337116]],[[-0.1428735837113076,44.884914922202924],[-0.14282467605393626,44.88498082254455],[-0.14281549071656222,44.885206755261905],[-0.1428735837113076,44.884914922202924]],[[-0.14301064724449614,44.88376422083719],[-0.14301092832890844,44.88375854604808],[-0.14300820084393084,44.883772888328814],[-0.14301064724449614,44.88376422083719]],[[-0.14576158897751795,44.88136350645909],[-0.14573828620513,44.88140223652737],[-0.14577218905022185,44.88135691138051],[-0.14576158897751795,44.88136350645909]],[[-0.14613898746659298,44.88112574411262],[-0.14616824534321396,44.88110959688174],[-0.1461892611711902,44.88107708279836],[-0.14613898746659298,44.88112574411262]],[[-0.1461815990974355,44.85755782801098],[-0.1453138414187475,44.85710618423463],[-0.14585912155475586,44.85743071794268],[-0.14608488257674235,44.857525865460126],[-0.1461815990974355,44.85755782801098]],[[-0.14677442843882788,44.87931985305399],[-0.14675300974416786,44.87937407318801],[-0.14678468467536165,44.87930677656758],[-0.14677442843882788,44.87931985305399]],[[-0.15353476424278792,44.892507786005275],[-0.15424864231145102,44.89562037585911],[-0.15532643707871696,44.89608011241293],[-0.15867428609945577,44.8927631113659],[-0.15647953980508872,44.88990932109141],[-0.15432496400724363,44.89045105023002],[-0.15400273588804453,44.890847707475636],[-0.15478537923036362,44.891064703578245],[-0.15353476424278792,44.892507786005275]],[[-0.15320074671873044,44.89234318715258],[-0.1534348913669602,44.892029994947286],[-0.15318230529562185,44.89205568570286],[-0.15320074671873044,44.89234318715258]],[[-0.1664417752250567,44.843681778694005],[-0.16647195702626058,44.84374803057896],[-0.16639031472481608,44.84356376235612],[-0.1664417752250567,44.843681778694005]],[[-0.16641998362076507,44.8433021098831],[-0.1664187972643817,44.84329858717721],[-0.16641693619484638,44.84330294757432],[-0.16641998362076507,44.8433021098831]]],[[[-0.15406350891124385,44.893572287335],[-0.15487272932862103,44.893612010370454],[-0.15412239450620643,44.893814713051825],[-0.15406350891124385,44.893572287335]]],[[[-0.15762522383250838,44.89230651127277],[-0.15729815742540537,44.89109667041258],[-0.15809487544163936,44.89211055200526],[-0.15762522383250838,44.89230651127277]]],[[[-0.1571231031030726,44.891932341139],[-0.15740099844148359,44.89213339574648],[-0.15699932119306773,44.89205736970064],[-0.1571231031030726,44.891932341139]]],[[[-0.1906465817466347,44.8571426706662],[-0.1925236088449966,44.855477562142575],[-0.19379681295912668,44.857001487714584],[-0.19553790747497005,44.857209515180735],[-0.19580541450347683,44.85811267030236],[-0.19724642879904175,44.85807538284318],[-0.19759202345767857,44.85859561652255],[-0.19610617471760122,44.85867275651186],[-0.1955810379380597,44.859433403385694],[-0.1944211886285105,44.85983795254146],[-0.1910556807468378,44.85755328324189],[-0.19092831989088818,44.857154311135545],[-0.19127040538248266,44.85723894110701],[-0.19075309469541715,44.8571109536588],[-0.1906465817466347,44.8571426706662]]],[[[-0.20731016648992956,44.90404295207783],[-0.20938715432784138,44.90423137526888],[-0.2094558996784818,44.90555237419209],[-0.2105238333028873,44.905602152454456],[-0.21078412909371444,44.90461405589638],[-0.21444590001665617,44.9059651927077],[-0.21404496487569602,44.90644969271425],[-0.21272139924265668,44.90618765639145],[-0.21492147226762126,44.907360200418175],[-0.21468861866505054,44.906921348831204],[-0.21539667420197428,44.90630666670433],[-0.2180076630852791,44.90777786171623],[-0.21531446130432264,44.9112423756567],[-0.21364210867035946,44.91078436277972],[-0.21190490272328935,44.90959867370487],[-0.21213623746070892,44.90924740379949],[-0.21333210193254715,44.90964308249826],[-0.2138312066325233,44.90886640235831],[-0.2108566796005666,44.90787464195025],[-0.21071325400052662,44.90857209131887],[-0.20979871298236635,44.90767409471008],[-0.21004436653808875,44.906808611529485],[-0.2098707911027565,44.90642111203039],[-0.20933294454076723,44.9059895340498],[-0.20926436563611306,44.90557548091423],[-0.20731016648992956,44.90404295207783]]],[[[-0.209645757555216,44.89767665161615],[-0.21037297135901317,44.89658044482035],[-0.21071184839537493,44.89401794358909],[-0.21547088094965947,44.89528457242452],[-0.2196366678455903,44.89545508450204],[-0.21981823614913878,44.89503594590555],[-0.22171825628270128,44.89490045133298],[-0.22456223618371665,44.895111558498456],[-0.22426050984911958,44.89581723019039],[-0.22532760926351203,44.895855351181105],[-0.22420400577825053,44.89691848115141],[-0.22454160013833838,44.89698220703505],[-0.22337602757486855,44.89873642763992],[-0.2211370544733372,44.89963464759029],[-0.21888371875483073,44.89960555784722],[-0.21853641759457837,44.90026765874017],[-0.21757786649976824,44.89996158275826],[-0.2171243511143354,44.90102684319016],[-0.21473930261198776,44.900005683785835],[-0.21530713279476382,44.89787743704349],[-0.21270705416519628,44.89787565563684],[-0.212384586458054,44.89899900717452],[-0.209645757555216,44.89767665161615]]],[[[-0.21486878986579,44.91125230381667],[-0.2162991202037636,44.91166225102431],[-0.2158396617246137,44.912679019366976],[-0.21697356925807174,44.91280198122477],[-0.2172203110534946,44.91192383135859],[-0.21882766779304919,44.91223589569928],[-0.2253220170284195,44.91299562510494],[-0.22516762596235948,44.913347393788335],[-0.22574215220445804,44.91355120877614],[-0.22520919883068005,44.9147184771469],[-0.22413290010066594,44.91514197631355],[-0.2260976602897376,44.9157276823544],[-0.2238850100576425,44.916832343108865],[-0.22287217382775068,44.916500754637234],[-0.22172998136852465,44.91755294834333],[-0.22286733344353882,44.91809792056034],[-0.22630091827362217,44.915779989684566],[-0.22754193885525284,44.916030485216424],[-0.2255743145060735,44.92013333509628],[-0.22452176033718932,44.91990626940031],[-0.22396474426645016,44.92109108074327],[-0.22479616634958957,44.92121085288699],[-0.22441664688155977,44.92214090752361],[-0.21261225047951637,44.910438130563676],[-0.21486878986579,44.91125230381667]]],[[[-0.21540037471394657,44.911296567413494],[-0.2181291165405737,44.9077995730349],[-0.21911777636837237,44.908369338909445],[-0.22059071746976175,44.9088595436788],[-0.22298094696394852,44.90927832801487],[-0.2259995713054638,44.90956319858076],[-0.22902731082279024,44.91046164536611],[-0.22816086344575057,44.91189850378469],[-0.2295507604090073,44.91223178378341],[-0.228717828887257,44.913537372538066],[-0.2279804143312381,44.91344950328122],[-0.22256283876577868,44.91242899755624],[-0.21777598994219033,44.91195468037793],[-0.21540037471394657,44.911296567413494]]],[[[-0.21535126835932797,44.9062047156965],[-0.2161255890586154,44.905105212064285],[-0.21802618232813745,44.90605649776626],[-0.21701254355513108,44.90706193553622],[-0.21535126835932797,44.9062047156965]]],[[[-0.21822977059045606,44.907670952964175],[-0.2208478437398293,44.90475226413536],[-0.22277388114692723,44.90577436997657],[-0.22318972937940929,44.90534554193819],[-0.22480737429931547,44.90607730937198],[-0.22419323016782594,44.90704670466173],[-0.226406464566082,44.90770907397855],[-0.22708169432172728,44.907821646312],[-0.22776056325948538,44.90678123780066],[-0.227048209067059,44.90653233065565],[-0.22761252285356248,44.90566303717252],[-0.22901872366583023,44.906255812996264],[-0.22681387124121316,44.90968579060894],[-0.22056005229311884,44.90873626138885],[-0.21822977059045606,44.907670952964175]]],[[[-0.2290698026900116,44.90325798681172],[-0.22737007303804083,44.90538957054358],[-0.2214984656751946,44.90289424834496],[-0.2223407807101512,44.90067932752828],[-0.2216226877178429,44.90045452476217],[-0.22215985241384056,44.90015175842144],[-0.22380602592091672,44.90067464286648],[-0.22395632967837972,44.90036913162949],[-0.22274170764268772,44.89996492517564],[-0.22339070092405244,44.89923223663553],[-0.22446655731848025,44.89971931153302],[-0.22688196377294909,44.89882328471879],[-0.22926489504652722,44.89911516844488],[-0.2278495675538338,44.90098465518331],[-0.23085153658887944,44.90284967867841],[-0.22963649244777007,44.90362023389278],[-0.2290698026900116,44.90325798681172]],[[-0.22908238587664814,44.90324544995437],[-0.22906979418556223,44.90325798099306],[-0.2290698026900116,44.90325798681172],[-0.22908238587664814,44.90324544995437]]],[[[-0.22463583172635557,44.922147791145704],[-0.22806804907967418,44.92082079453614],[-0.22821872492821887,44.92197731172095],[-0.22900902997461164,44.922320911636355],[-0.22897129462480215,44.92331304681046],[-0.229813641270431,44.923157086536996],[-0.23085007147176878,44.9237235708253],[-0.22715340219456076,44.92369757200694],[-0.22463583172635557,44.922147791145704]]],[[[-0.2254532008573588,44.9149655027138],[-0.2263522927574873,44.91513438787829],[-0.22603954491823114,44.91567422277062],[-0.22506643722929487,44.91540484830239],[-0.2254532008573588,44.9149655027138]]],[[[-0.22769268978295276,44.90992463634249],[-0.2300392647042157,44.90668407475148],[-0.23141348297812572,44.90726883124342],[-0.22938970949493276,44.910525178783615],[-0.22769268978295276,44.90992463634249]],[[-0.22930345094732293,44.907851582008014],[-0.22928705428219076,44.90787702533995],[-0.22930346864895365,44.90785158745499],[-0.22930345094732293,44.907851582008014]]],[[[-0.22823998687048264,44.89886626065799],[-0.2282704517697346,44.898847082574015],[-0.22826486994886586,44.89886905149968],[-0.22823998687048264,44.89886626065799]]],[[[-0.22845814137908468,44.901143218134074],[-0.2299441438805587,44.89923976823081],[-0.23302341879830685,44.89897533811179],[-0.23186153058444578,44.90099654487713],[-0.23266432900642114,44.90116565182731],[-0.23218379871182593,44.90206100950117],[-0.2310216426573278,44.901959665820996],[-0.2315582499113454,44.90093481523512],[-0.230308923438465,44.90067335275871],[-0.22951821770356073,44.901718112447476],[-0.22845814137908468,44.901143218134074]]],[[[-0.22848225395755598,44.89871404939131],[-0.23105264834835842,44.89560455235616],[-0.23844900980697878,44.89581862083514],[-0.23624519023698703,44.89665224126592],[-0.23567281761102124,44.898393365335956],[-0.22951915119094127,44.89908533618806],[-0.22848225395755598,44.89871404939131]]],[[[-0.22970249118311767,44.906378122992436],[-0.23079516269916905,44.90523212418054],[-0.23217168619564635,44.90561973160635],[-0.23280730911577413,44.90464722990722],[-0.23231113046006824,44.90420670610348],[-0.23365104038734047,44.902360711139025],[-0.2345427740990599,44.902466571057765],[-0.23385925622643114,44.90364980506733],[-0.2349044257365944,44.9042018370165],[-0.23386621722544654,44.90565510164676],[-0.23450548895952908,44.906102895732886],[-0.2326878710598804,44.90757965817461],[-0.22970249118311767,44.906378122992436]]],[[[-0.23289530671467845,44.90214401380156],[-0.23441266709182465,44.898702123598525],[-0.2359094330295169,44.89849298035256],[-0.2351508561747957,44.90037604546461],[-0.23555577185125406,44.900630343521954],[-0.23449668288853426,44.90234229964287],[-0.23289530671467845,44.90214401380156]]],[[[-0.23607735641611927,44.905491026230465],[-0.23724084322059724,44.904467249040906],[-0.23933435128165176,44.90514988296446],[-0.2378062382137134,44.9065057397728],[-0.23607735641611927,44.905491026230465]]],[[[-0.23597953730499413,44.90253644746273],[-0.23749580039595078,44.898564601610936],[-0.23954665567097713,44.89863760777856],[-0.24190944459495584,44.89815855208711],[-0.24306615716501248,44.89864029654169],[-0.24358600262647376,44.89669187555389],[-0.24467864364900324,44.89572433027001],[-0.24668872581093026,44.896660483968965],[-0.24578381807998265,44.898762194275896],[-0.24575601309397405,44.90098316003722],[-0.24686916628636246,44.90423489366147],[-0.24279696426098124,44.905365561793296],[-0.2435359858847745,44.90268714770629],[-0.24495977060364132,44.9029421051772],[-0.24445017121809992,44.9013482454359],[-0.2439564698606478,44.90190090203913],[-0.2427732685165527,44.90137677466869],[-0.24237712489549254,44.90192630437812],[-0.24280267879547004,44.902115725759444],[-0.24254839847245943,44.902750593174986],[-0.24195618378927253,44.9028497955588],[-0.24110975591645645,44.90119601099311],[-0.23960691274209692,44.90060945271054],[-0.2383590709664094,44.903042434494154],[-0.23597953730499413,44.90253644746273]],[[-0.24207458238330673,44.89952188146087],[-0.24208221328113563,44.899509133258015],[-0.24202019041951667,44.89950211335607],[-0.24207458238330673,44.89952188146087]]],[[[-0.23760335453992426,44.9035250263581],[-0.23865581049675544,44.90362292395338],[-0.23817885841326603,44.90454605025332],[-0.23730422689477623,44.90409576735793],[-0.23760335453992426,44.9035250263581]]],[[[-0.23751064424885987,44.89847252642087],[-0.23860726567157528,44.895825899373875],[-0.2392669210027212,44.89583540121192],[-0.24183088464538205,44.8980759615437],[-0.23751064424885987,44.89847252642087]]],[[[-0.23943855528158037,44.89583066399988],[-0.24036820204076656,44.89516789649957],[-0.23964241111919068,44.89606774412113],[-0.23943855528158037,44.89583066399988]]],[[[-0.24058301725950804,44.89675991811067],[-0.24168291898611843,44.89602900262223],[-0.24342897648447728,44.8967125024183],[-0.24285856709228645,44.89785879167715],[-0.24212281245367673,44.89809924686236],[-0.24140433066719197,44.897690936613365],[-0.24058301725950804,44.89675991811067]]]]}}]}