{"type":"FeatureCollection","features":[{"type":"Feature","properties":{"tier":"village","appellation":"Saint-Julien","source":"INAO d\u00e9limitation parcellaire des AOC viticoles, 2026-09-28 (data.gouv.fr, Licence Ouverte)"},"geometry":{"type":"MultiPolygon","coordinates":[[[[-0.7311075893585824,45.13193039087424],[-0.7264643558935009,45.13270236461001],[-0.7269484703043613,45.131426640568264],[-0.7290416401708897,45.13048064607628],[-0.729904024112618,45.13081271738173],[-0.7302209966597655,45.130187528679215],[-0.7307698799212072,45.13014806607163],[-0.7311075893585824,45.13193039087424]]],[[[-0.7288397901717282,45.128849627017146],[-0.7292544568464319,45.127555391934216],[-0.7302699180797599,45.12762336187861],[-0.7307574647735819,45.13008421099896],[-0.7290036882182531,45.13020211802249],[-0.7288397901717282,45.128849627017146]]],[[[-0.7319317908931771,45.15014480496497],[-0.7323083237142823,45.146195900356304],[-0.7352046886137741,45.14589536968372],[-0.7369222000292163,45.14620091045529],[-0.7356241895945022,45.144237672076386],[-0.7345617190256603,45.143720967442135],[-0.7362611932384499,45.14310695371763],[-0.7378984027058249,45.14337857001086],[-0.74177319978452,45.14294112207082],[-0.743033117452508,45.143386950023576],[-0.7428154311042889,45.14418119803007],[-0.7432743934365239,45.14505377959787],[-0.744717840454759,45.14480510331493],[-0.7446968774718391,45.14321615054713],[-0.7458385162852202,45.14337935832893],[-0.7462148503231322,45.142729228181025],[-0.747168809021427,45.14245883400109],[-0.7580810279823761,45.14244390965955],[-0.7580836879067208,45.14309095552795],[-0.7599233631461001,45.142014821487365],[-0.7617281983777175,45.14294668487238],[-0.7628772503119474,45.142062277185765],[-0.7676602799050547,45.14167276929758],[-0.7696983081800629,45.14245140580872],[-0.769929798289819,45.14709146940995],[-0.7705210012963453,45.149293068525424],[-0.7703494891051155,45.15107695217797],[-0.7724497871123744,45.15098977960248],[-0.7726246217464089,45.149934770882666],[-0.7735080307464094,45.149920923777735],[-0.7735788944993164,45.14947096141366],[-0.772508212401249,45.14923567805066],[-0.771454808448088,45.146025509577825],[-0.7706257276596483,45.14555271293209],[-0.7727863925778122,45.14276503446183],[-0.7747421353471459,45.14270343289428],[-0.775262210668113,45.14406565449774],[-0.7747405805222969,45.14882497225089],[-0.776600853070753,45.15149586750616],[-0.7753367109150501,45.151808476109395],[-0.7765450634736207,45.15238306175147],[-0.7770690778867795,45.15172258605222],[-0.7785092726823093,45.152701346653174],[-0.7779295242698753,45.15304641036325],[-0.7806654558264976,45.15410455651322],[-0.7818313904745212,45.15505002877183],[-0.7825428263355486,45.15497884377188],[-0.7841774788264627,45.15672041598324],[-0.7824054662180285,45.15691728183796],[-0.7823628994259983,45.158331199608135],[-0.7795615996397988,45.161713920320224],[-0.7805045104044728,45.16211492577049],[-0.7846136051373933,45.15751556503268],[-0.7852359072203162,45.15884084480465],[-0.7849548785379562,45.16363147808798],[-0.7844938327219304,45.163884744918384],[-0.7850016776115482,45.16464861593524],[-0.7791649842506461,45.16730604057311],[-0.7764097045463461,45.166818561426105],[-0.7753142036688504,45.16814876743634],[-0.7635614992700618,45.17191064667485],[-0.7637848377972114,45.17155254202043],[-0.7626748607109931,45.17120119913854],[-0.7624515123373853,45.171580034732344],[-0.7607858537486806,45.170594234541674],[-0.7621514848832341,45.170248546007066],[-0.7611533396102217,45.16994876557208],[-0.7619848034270817,45.168626444258344],[-0.7548648020667952,45.16866443321166],[-0.7549057470416931,45.16969357230676],[-0.7517750051790529,45.17142149412423],[-0.7491050159190504,45.17194070528726],[-0.7457735162943475,45.17376362651829],[-0.7411820022828088,45.174297659378205],[-0.7401608771510553,45.17401360694251],[-0.7374828548590588,45.16902095830534],[-0.7370408936478913,45.16708490781471],[-0.7392245258158696,45.16612688847141],[-0.7392152816012214,45.16573210460832],[-0.7406777491879013,45.16551377909223],[-0.7411838039613461,45.166659102427644],[-0.7433957188095274,45.16677004201555],[-0.7430759917170557,45.16611047215801],[-0.7442712300378488,45.166045745875046],[-0.7444674095533124,45.16517496297222],[-0.7457953863701131,45.16381311779773],[-0.7432771670133059,45.165068794379835],[-0.7421345611531207,45.165011675053016],[-0.7416507756735875,45.16247642486107],[-0.7411534083561218,45.16222457552386],[-0.7411180421448865,45.16289461806697],[-0.7392554940952445,45.1631025679989],[-0.739313646923332,45.16410191869041],[-0.7362439493376868,45.1638370122001],[-0.7365895729323839,45.16344963111641],[-0.7353468699426838,45.1617417808762],[-0.7349000586770253,45.16018259525668],[-0.7348760323639416,45.159834911063946],[-0.7358627995027707,45.15974696433343],[-0.7355480471027136,45.15753947424142],[-0.7375711358456501,45.15728293215218],[-0.7391319865016462,45.157595144478584],[-0.7392714327024682,45.15820478771914],[-0.7419304993942307,45.158061603595755],[-0.7423100812655075,45.15567884548679],[-0.7441127173612231,45.15575535395765],[-0.7440458789209362,45.15537422253775],[-0.74571749864677,45.155144382488714],[-0.752968571940668,45.15505256920051],[-0.7548122637059995,45.15696121092019],[-0.7563387861928653,45.15708549160545],[-0.7564944409351806,45.158194507122104],[-0.7554806690419333,45.158289406932575],[-0.7554888083021121,45.16044445343373],[-0.7578450938367948,45.16041276920358],[-0.7577033032371098,45.159095687006754],[-0.7568257741123885,45.15915355634826],[-0.7566930090000098,45.15869721705012],[-0.7581197045283123,45.158581270948666],[-0.7580273009060035,45.158207946859164],[-0.7592299949854051,45.15805220903636],[-0.7591638212769366,45.15754630227532],[-0.7616363162424669,45.158010100889115],[-0.762094086805708,45.15655047211852],[-0.7709163525368019,45.155016627349994],[-0.7682876338222342,45.15382319432568],[-0.7629987806232404,45.154503350477256],[-0.7624818401745135,45.153893485843774],[-0.7618936515785502,45.1539446999115],[-0.7619357342514926,45.1549265634438],[-0.7612341783087765,45.15495176061699],[-0.7612566170004584,45.155381257695396],[-0.7585308227335624,45.15550191708144],[-0.7585526319864956,45.15497808137208],[-0.7564676687339468,45.15474635540115],[-0.7461354295756504,45.15486235021369],[-0.7460903759265924,45.15426495725583],[-0.7445868731952208,45.15447085973744],[-0.7399666380096567,45.15355988785516],[-0.7399419281844053,45.155946688390486],[-0.7349226119827997,45.15614925096464],[-0.7338332650835147,45.155816869302534],[-0.7318819680034542,45.15317874641267],[-0.7307948608942524,45.15008198190425],[-0.7319317908931771,45.15014480496497]],[[-0.740815946801853,45.14992202008802],[-0.7417559968315419,45.14981827525418],[-0.7421829283341426,45.14854186811507],[-0.7427312493263631,45.1486719284866],[-0.7425116225000814,45.149431897030574],[-0.7432263538236069,45.14967265327148],[-0.743310408486531,45.15047606340195],[-0.7438728070745871,45.15049657424225],[-0.7440217245604209,45.149850662820164],[-0.746646173324755,45.15002527555573],[-0.746376267036255,45.149702980885394],[-0.747165457016859,45.14904276157163],[-0.750347704711467,45.14980519915216],[-0.7489591569650217,45.14904610898701],[-0.7491633875123729,45.14770909965611],[-0.748793488493316,45.14783655848971],[-0.7482776696856192,45.1471319490653],[-0.7464916071691602,45.14804454272548],[-0.7454848890312634,45.147541296551175],[-0.7458011877468427,45.14698125392891],[-0.745067470932741,45.14695848572911],[-0.7450958825678042,45.14547342992496],[-0.7440166181134508,45.145431793624304],[-0.7441096515148293,45.14595870542899],[-0.7435566718249038,45.14599250722514],[-0.7434088817413173,45.14548095486877],[-0.7432344251656603,45.146817489903604],[-0.7423641618738468,45.146690216142886],[-0.742115306657042,45.14744737868478],[-0.7413013057585235,45.14745837898212],[-0.7416641394774065,45.14812821872726],[-0.740815946801853,45.14992202008802]],[[-0.7644862638590821,45.16900755109704],[-0.765208025626492,45.167890827377995],[-0.7660590979320595,45.16817543471503],[-0.7666678674704821,45.16492610720511],[-0.7651380449631099,45.16424651538569],[-0.7641347427342029,45.166368828693905],[-0.7623437574392923,45.168263137603105],[-0.7644862638590821,45.16900755109704]]],[[[-0.7317374942919642,45.12798203560054],[-0.7303749513008103,45.127236026254614],[-0.731967811953713,45.1273716409382],[-0.7317374942919642,45.12798203560054]]],[[[-0.7323510612405203,45.13141299748239],[-0.7312832210116121,45.13192117682699],[-0.7306363740511399,45.12861256425139],[-0.7313700924528084,45.12853049469335],[-0.7314497316116446,45.128016638507724],[-0.7330426189508434,45.1282875397193],[-0.7333232522481477,45.13082868656743],[-0.7322749608382324,45.13093545348905],[-0.7323510612405203,45.13141299748239]]],[[[-0.745001534184469,45.149074896804414],[-0.7449065136899738,45.14969799659142],[-0.7446824532342307,45.14975329686467],[-0.745001534184469,45.149074896804414]]],[[[-0.7516611452558886,45.1076164733829],[-0.7530378265440751,45.1045503614652],[-0.7536366983984883,45.10439488406904],[-0.7567214481336997,45.10712858372816],[-0.7550333812345049,45.10891585112722],[-0.7519522863218664,45.109103023387604],[-0.7516611452558886,45.1076164733829]]],[[[-0.7550309597545334,45.108972632016695],[-0.7554949012928168,45.11334483928155],[-0.7524827651404002,45.11338528684924],[-0.7519641048088223,45.10915959503693],[-0.7550309597545334,45.108972632016695]]],[[[-0.7665946591160001,45.17104519997783],[-0.7700206755247693,45.16985800773684],[-0.770298288044755,45.17296400515931],[-0.7693168122704653,45.17315023867533],[-0.7693832432498292,45.17402626801523],[-0.7678187755587657,45.17347010796223],[-0.7678568942455257,45.1720129946433],[-0.766585848493857,45.17209296981762],[-0.7665946591160001,45.17104519997783]]],[[[-0.8106214226072418,45.15862329107754],[-0.8107133603998109,45.15664775400563],[-0.8136358835692086,45.15526416562089],[-0.8155309885731074,45.1552912878002],[-0.8145457360967605,45.15877218738622],[-0.8106214226072418,45.15862329107754]]],[[[-0.8151669109570502,45.153841572679006],[-0.8149472884376568,45.15499033762328],[-0.8136840102351627,45.1548496503223],[-0.8138914391659974,45.153708517512335],[-0.8151669109570502,45.153841572679006]]]]}}]}