{"type":"FeatureCollection","features":[{"type":"Feature","properties":{"tier":"village","appellation":"Sauternes","source":"INAO d\u00e9limitation parcellaire des AOC viticoles, 2026-09-28 (data.gouv.fr, Licence Ouverte)","note":"Sauternes appellation outside the Barsac commune (Barsac is its own page)"},"geometry":{"type":"MultiPolygon","coordinates":[[[[-0.26645360757289427,44.531407202866255],[-0.26670318915030294,44.530721433454566],[-0.2680009406149582,44.53075459307008],[-0.26833717482011815,44.53017069644762],[-0.26978206390286563,44.530425752777155],[-0.26873376514711667,44.53266927560484],[-0.26819606377829786,44.53281386763435],[-0.2685911441575153,44.53437271534206],[-0.2665046846716593,44.53376444266124],[-0.2674798996452074,44.5323886074639],[-0.26527741048428893,44.53229588725484],[-0.26585790327138065,44.53127541682371],[-0.26645360757289427,44.531407202866255]]],[[[-0.2687887394374015,44.5256036910467],[-0.268767060925937,44.52432480039573],[-0.2716807034591654,44.5248316697733],[-0.2717147011757777,44.52563653262921],[-0.2687887394374015,44.5256036910467]]],[[[-0.2771745157935887,44.52711433876054],[-0.27608437762690424,44.52684677434751],[-0.27687518360506275,44.52462052826068],[-0.27751370507580986,44.52424572666483],[-0.27986907175004416,44.52474854185942],[-0.27947400598803146,44.525493964469085],[-0.28048757335247926,44.52584586237773],[-0.2793724193376551,44.52840551178841],[-0.28205825328000206,44.52923755613882],[-0.2814805795208342,44.530482575846456],[-0.28081877529448146,44.53026791619357],[-0.28032026291673834,44.531095797521566],[-0.2813268525754859,44.531383035777054],[-0.2807236262695816,44.53251089686739],[-0.2772816476937052,44.53192804353898],[-0.2769266352033662,44.53236804304732],[-0.2753787309861976,44.531831346946646],[-0.2771745157935887,44.52711433876054]]],[[[-0.27964837232641704,44.54879898057335],[-0.2807366190255277,44.54921690636723],[-0.2799255066277155,44.55103015493902],[-0.2791804141572072,44.550927082439664],[-0.27889656619014835,44.55153083240034],[-0.27849470036766516,44.55132549203473],[-0.27964837232641704,44.54879898057335]]],[[[-0.284241599117339,44.523434683479],[-0.2846644501606969,44.52290341232243],[-0.28784175283797786,44.524116908597556],[-0.2877630989958445,44.52531783411194],[-0.28840527059358434,44.525595962285685],[-0.2882865751233817,44.526106677119294],[-0.2876749700278265,44.526573256025955],[-0.2845772112421749,44.52568368021162],[-0.2799668085701981,44.52396405253165],[-0.2795557747119004,44.523248516185426],[-0.28102413833829637,44.52295295841932],[-0.28231647009548577,44.52276589169571],[-0.284241599117339,44.523434683479]],[[-0.28045342544159635,44.5232948513745],[-0.28045475299116773,44.52329407307372],[-0.2802456239018857,44.523113694544136],[-0.28045342544159635,44.5232948513745]]],[[[-0.28785011230161484,44.52770944089547],[-0.29055464977769363,44.5282060529062],[-0.28955842844604823,44.5299529863],[-0.28979085640188135,44.53114775858509],[-0.2889849822321764,44.53279765736807],[-0.2879709132296352,44.53248439128768],[-0.28718100144214836,44.533056391337965],[-0.2842464926219534,44.53197840321644],[-0.2826998095777493,44.53446422578707],[-0.2818011274995312,44.53406677561607],[-0.2836723607069966,44.53141068524447],[-0.28785011230161484,44.52770944089547]]],[[[-0.28485235324212926,44.54676579157483],[-0.28557782645877666,44.54516744900258],[-0.28633888759739395,44.54530218480889],[-0.2865205798512446,44.54408172183342],[-0.28799270178547803,44.54426836545862],[-0.2882917764682045,44.543191725929674],[-0.2873575052473872,44.54288955762079],[-0.2876464180382934,44.542410288268655],[-0.2884303589479019,44.54261801171517],[-0.289020093468509,44.541601383206505],[-0.290245574813455,44.54189353862504],[-0.29096208968925946,44.540659659295564],[-0.29245473948685946,44.53980537187617],[-0.29529690204971604,44.54104545382509],[-0.29490845002152066,44.54180406791826],[-0.29230056811453686,44.54115612314315],[-0.2921357688382622,44.54256713632257],[-0.29468079550952075,44.543032931394784],[-0.2925164966154459,44.54491241870504],[-0.2937016353041551,44.54547241639951],[-0.2935438794964786,44.54619737955999],[-0.2949911859735831,44.545772837093],[-0.2953425174176721,44.54497919095513],[-0.2977020107310485,44.544875368123925],[-0.29742679503137254,44.54799394503446],[-0.29670344782634356,44.54798032616453],[-0.29675563526704135,44.548868703788806],[-0.2969673317505699,44.55055162039272],[-0.29755456175741607,44.55044120766766],[-0.29816808713807563,44.55188499669652],[-0.2954600529154312,44.552746354749544],[-0.2943910886568951,44.552542101870365],[-0.2944338606923656,44.550769745620194],[-0.2921660638334285,44.55018240548742],[-0.29264592314788285,44.54917371774493],[-0.2919940501096795,44.54886040122646],[-0.29231356171002537,44.54760365502478],[-0.29178223620491733,44.54745859248193],[-0.29131722057359805,44.54834956572877],[-0.290552452295338,44.548132746293106],[-0.2911427949779869,44.545994096643554],[-0.28777494201368353,44.54604526440238],[-0.28560553667883976,44.54762491210038],[-0.2840506378788549,44.547324682971016],[-0.28485235324212926,44.54676579157483]]],[[[-0.28721661643029467,44.571006311396054],[-0.28620711187203707,44.57077477107162],[-0.2876416641764018,44.56997112880551],[-0.29177495413867033,44.569573475602255],[-0.29187223861699596,44.56871467362653],[-0.29086641942528413,44.56760326235899],[-0.29476989653198116,44.56448286817186],[-0.2958440867715679,44.566327979027335],[-0.2964903593203963,44.56609403081354],[-0.2988681925353101,44.56444692342954],[-0.29749528242739903,44.56352108900342],[-0.29884772902574247,44.5630793542607],[-0.3053018788643555,44.567999428931586],[-0.3072698165208642,44.57099612350099],[-0.30296824297255154,44.57475448050342],[-0.30839451794848194,44.57114874969789],[-0.3132562792477373,44.573047264294246],[-0.3153860215374984,44.57383041280603],[-0.31443847727209434,44.5746360702578],[-0.3147569760196287,44.57484367647409],[-0.31595099923370096,44.5740532207183],[-0.3191425248978709,44.57531607831909],[-0.318448821317691,44.57623828552253],[-0.3168545980309083,44.5762478501937],[-0.31569329202560864,44.57671104877227],[-0.31442041597106934,44.57811182551599],[-0.3137877712598243,44.577806864269434],[-0.3111823635235456,44.58021313766345],[-0.3088720797345009,44.57986779955841],[-0.30843768551513695,44.58074201780331],[-0.30929245489358703,44.581062563849855],[-0.3084176652570241,44.58222414754535],[-0.3089713306565358,44.58238773791468],[-0.30760827187072587,44.58415724240779],[-0.3080222014276813,44.58431494999961],[-0.3073555334215707,44.58519999645101],[-0.2965603869546942,44.570252897408224],[-0.296145665121215,44.569469637639756],[-0.2962797014373508,44.56823981615342],[-0.2952329232493095,44.568807798779005],[-0.2987244933226619,44.57368058879066],[-0.29737854176610745,44.574269927121335],[-0.29810630131095595,44.57509122894863],[-0.2964678575610813,44.57538388832071],[-0.29358809068272784,44.573728893311156],[-0.2943518326389225,44.57325222361003],[-0.2925282298780897,44.57152398755073],[-0.2911662957855384,44.57237340140897],[-0.2931205027060817,44.57364215144034],[-0.29138211464202135,44.5743817513703],[-0.292162225283751,44.574468030384764],[-0.29169178385159955,44.57468110284014],[-0.2935202962505651,44.57661886192832],[-0.2925261544959453,44.57701532945352],[-0.2919718875319702,44.57734053039742],[-0.2913353908139133,44.57739323115738],[-0.29021905076694304,44.57525164139942],[-0.28771331584174736,44.57250601527058],[-0.2900047806516487,44.571672441840605],[-0.289301713787169,44.57136387751409],[-0.2897632463969464,44.57087776376434],[-0.28901956025601244,44.57060521500393],[-0.28721661643029467,44.571006311396054]],[[-0.2872671630179203,44.57095635834733],[-0.2872651858898584,44.570957038923396],[-0.2872775788830025,44.57097503276177],[-0.2872671630179203,44.57095635834733]],[[-0.2990707694427587,44.569775121437914],[-0.2987432653228315,44.569325554810014],[-0.29759190011388365,44.56961673599075],[-0.29853784365617575,44.57009635904279],[-0.2990707694427587,44.569775121437914]],[[-0.3049046524296537,44.568474712367006],[-0.3039660921584503,44.56761290377898],[-0.3023903730687622,44.568866349742756],[-0.3033684987029687,44.56972562762758],[-0.3049046524296537,44.568474712367006]],[[-0.30507981400347484,44.577199532741375],[-0.30620711443240817,44.57721923179059],[-0.3054277078709422,44.576552781280334],[-0.3045882048251348,44.576609590964196],[-0.30507981400347484,44.577199532741375]],[[-0.3057694040375713,44.57932414331376],[-0.30740009312645716,44.57825192290384],[-0.3068389209844332,44.57788662018711],[-0.3049624224716671,44.579163201142656],[-0.3057694040375713,44.57932414331376]]],[[[-0.2944710722709265,44.56118998648684],[-0.294330706138885,44.56211277763055],[-0.29309724583737634,44.56170415297938],[-0.29436333859675756,44.56220586153669],[-0.2947224624923981,44.56446742576461],[-0.29361138228740513,44.56467374083862],[-0.2908930816997493,44.563355866584345],[-0.29162832641648795,44.56265546603057],[-0.28995199779904635,44.5620796272766],[-0.29051448542455177,44.56143013707907],[-0.28637497643714227,44.55917055198563],[-0.28745560614638177,44.558094209098606],[-0.2944710722709265,44.56118998648684]]],[[[-0.29306603542189724,44.5562292712],[-0.29093614944146257,44.55879196505575],[-0.2931365057827929,44.55969957734805],[-0.29380881357829114,44.556389627056525],[-0.29507148217621326,44.55654977591086],[-0.29459398479986043,44.56040973549939],[-0.2875408522418966,44.55751682044934],[-0.2883956717757754,44.5566111244014],[-0.2890399059277355,44.556921719501304],[-0.28976948211005826,44.55655051629401],[-0.29040731470426573,44.55569448374593],[-0.29126968978887313,44.5559302110147],[-0.29306603542189724,44.5562292712]]],[[[-0.2928332444795731,44.52976096378334],[-0.2959829980415187,44.52901782703517],[-0.29483226726607026,44.528050015311784],[-0.2952961918328373,44.527672807962354],[-0.2943048771056912,44.52708549322058],[-0.2963907356970211,44.52545576008371],[-0.2971253528542437,44.52588877130614],[-0.29769287564944447,44.52518878710574],[-0.2984787376830239,44.52551986686599],[-0.299239183102551,44.52437642110852],[-0.2983381301077104,44.523897025312536],[-0.29879496408620176,44.52334770490601],[-0.29918859962906064,44.523547895445134],[-0.30018355078351705,44.52223648125618],[-0.30269760636895243,44.52327461808542],[-0.3025114481649721,44.523759043698405],[-0.30558132597732124,44.52404178967737],[-0.3057890125200091,44.52521708436653],[-0.30712125956467856,44.52549125546047],[-0.30676600325330866,44.52659707161194],[-0.3072188136742538,44.52680307509168],[-0.30648469263607425,44.52732891121757],[-0.30513259503718637,44.526990011166305],[-0.3053651355981332,44.526442443825275],[-0.3039476397548456,44.525973842539834],[-0.30340275021423696,44.52722649635006],[-0.30764132129758415,44.528784708970655],[-0.30788491789105077,44.53114121574057],[-0.30675333644638375,44.53242120989068],[-0.3054111771279332,44.53301307725602],[-0.30538146379314457,44.5335848972864],[-0.3039668444593671,44.53432225075607],[-0.30444586337852564,44.53472611233339],[-0.30214745566590795,44.536760206371234],[-0.3012952698621119,44.53616771806321],[-0.3020510390136459,44.53548871133316],[-0.3008477455352512,44.53430641710416],[-0.30131973382426963,44.53378213100741],[-0.29814723863429804,44.5318758524644],[-0.2972472787042566,44.53190657293267],[-0.3003673291888921,44.53405092585542],[-0.3000379850311953,44.53422004068933],[-0.30052282292618887,44.534775421365495],[-0.30033751741708903,44.53551669810633],[-0.30083729618513744,44.53547213093614],[-0.3004101065568615,44.53806374592535],[-0.2996105230827966,44.538845613399836],[-0.29881702468117016,44.538467567178685],[-0.29814670779005165,44.53979274595575],[-0.2962004082156589,44.53833074723226],[-0.29538606788235905,44.53910212990338],[-0.2931392014957372,44.53841226047585],[-0.295840536503044,44.53614496792207],[-0.295116954646336,44.53590374519325],[-0.29555591584878665,44.53494082212499],[-0.28981468950095873,44.53308176816775],[-0.29144764781505855,44.52949654484842],[-0.2928332444795731,44.52976096378334]]],[[[-0.2900764765780369,44.55560397270898],[-0.2908002546157261,44.55379236847361],[-0.2912449643475491,44.553704503541866],[-0.29052037480517195,44.555725369880825],[-0.2900764765780369,44.55560397270898]]],[[[-0.29373390508338804,44.58325159818688],[-0.2932509865071417,44.583474328807775],[-0.29384247705539146,44.5843043316564],[-0.2930371826684734,44.58476232172736],[-0.29183690225273073,44.58320542109719],[-0.29217288874191044,44.58268863846699],[-0.2905943580196006,44.57988336731288],[-0.290493101950521,44.578767065332386],[-0.2913851492192203,44.5788478263952],[-0.29373390508338804,44.58325159818688]]],[[[-0.2940006844886744,44.58219342633336],[-0.2934167741237979,44.58230772209657],[-0.29150928452194796,44.57871362111746],[-0.2932281786861941,44.5782988022817],[-0.2954435311390503,44.57594397410524],[-0.2965372108524085,44.57710465773691],[-0.2978859124214479,44.576490768136146],[-0.2989044944353746,44.57698908211046],[-0.30007894201804236,44.57625975919138],[-0.30739733673046726,44.58588336199254],[-0.30742771107638983,44.5879571742089],[-0.30840526719125705,44.588486608868934],[-0.30802736753351184,44.58966611804732],[-0.3086175336004622,44.59199261212238],[-0.3082008042200305,44.59309909450521],[-0.30715793907777217,44.59397151203272],[-0.30434845764530466,44.59475037712672],[-0.30284459368480293,44.593384504254836],[-0.30154976936486366,44.59405257576047],[-0.30247072199737035,44.59404471136586],[-0.3031742076642232,44.59514044870137],[-0.30242625545291,44.59546273527763],[-0.3008285985553644,44.59437902468667],[-0.2961302716925517,44.58861508612261],[-0.29879006864008933,44.587542799261094],[-0.2996450941995485,44.5885707902508],[-0.29939056408063824,44.58889977623404],[-0.29994899464021585,44.58911831532682],[-0.299169786927679,44.58600103093171],[-0.29849392021162574,44.58566632174691],[-0.2971906815056444,44.586031271374495],[-0.298937557155653,44.58459510279025],[-0.296881570022882,44.58303153843039],[-0.29526266600911266,44.584179678378185],[-0.2948744950981759,44.58384801333508],[-0.29511865259265907,44.58374022686499],[-0.2940006844886744,44.58219342633336]]],[[[-0.2927400988426402,44.57695102230889],[-0.29273352013614196,44.576941982965614],[-0.2927621588225449,44.57693178523794],[-0.2927400988426402,44.57695102230889]]],[[[-0.2948683096780843,44.58356884217711],[-0.29489650064775513,44.583556756140965],[-0.2948686925083383,44.58356892085731],[-0.2948683096780843,44.58356884217711]]],[[[-0.2966238525529284,44.58610835616441],[-0.2975201175979446,44.586635137513234],[-0.29750813859573433,44.58713281170928],[-0.295803788602483,44.58786060973539],[-0.29519492237309053,44.58697346662266],[-0.2966238525529284,44.58610835616441]]],[[[-0.2991818317079219,44.558513075468746],[-0.30353631518238766,44.55964515317455],[-0.29945240020090386,44.56259563204461],[-0.2971964485471273,44.5616565960332],[-0.29772809955389085,44.5603339315301],[-0.29578739693572015,44.559818925273824],[-0.29628516011602196,44.55872594258819],[-0.29862639025749643,44.559498862724325],[-0.2991818317079219,44.558513075468746]]],[[[-0.29646702871814135,44.56192037875925],[-0.29885997832601996,44.56303946020069],[-0.29623804617070665,44.56372249859739],[-0.29646702871814135,44.56192037875925]]],[[[-0.3003215696430122,44.57595633810224],[-0.2996524595807768,44.576295274577326],[-0.29893874874872106,44.57504903230108],[-0.29975597818819866,44.575139546416196],[-0.3003215696430122,44.57595633810224]]],[[[-0.3018433818663294,44.54376815723672],[-0.30124266537287636,44.54389482917443],[-0.30171955786613214,44.545935067580814],[-0.3005641422780999,44.5458694016666],[-0.3004807626184366,44.54625832494196],[-0.29971870933580647,44.54486931548923],[-0.29964825227948394,44.543267941955506],[-0.30169221028085474,44.54326168516917],[-0.3018433818663294,44.54376815723672]]],[[[-0.3031161098979222,44.560163519909054],[-0.30454279396928746,44.56086140763895],[-0.30435012798450606,44.563850253689544],[-0.3032411051061213,44.565331974894484],[-0.29990457876990717,44.56287947187893],[-0.3031161098979222,44.560163519909054]]],[[[-0.30362426051829705,44.54050376410405],[-0.30686082860868885,44.536357746621384],[-0.30952441633086925,44.53715666702839],[-0.3097496031470395,44.53669680683293],[-0.31044332299402366,44.53688676184992],[-0.3108761797857851,44.535661242281826],[-0.3126260218019029,44.535739403253224],[-0.3138074876343929,44.53362644687179],[-0.3107714272576716,44.53340111180086],[-0.31090861363194344,44.53280658347647],[-0.31027168769254665,44.53271884373166],[-0.31114954395195665,44.53143128928776],[-0.3142975376222232,44.53123793137282],[-0.3146594315663773,44.53176614008589],[-0.31608841557074846,44.53195830156387],[-0.3157390331913258,44.53314533941374],[-0.31673603989358523,44.53408742222159],[-0.3145540311441282,44.53745241618554],[-0.3186904606368797,44.537286486714564],[-0.31869135580174895,44.53768673139537],[-0.31813659986696063,44.53766867235695],[-0.3175251504927191,44.539008763777],[-0.3176334914615378,44.53908331885062],[-0.31726672493598573,44.53976836725491],[-0.31681164158793135,44.54143215960508],[-0.3165562519733383,44.54188487987354],[-0.3135809381982882,44.544260600251825],[-0.31148658989372985,44.543366581648144],[-0.3109044773110902,44.5439944659111],[-0.30979560723302113,44.54297569572135],[-0.30849708565436973,44.54407716782794],[-0.30723708008991885,44.54350077428296],[-0.3052702285684024,44.54481225138789],[-0.30450830782064797,44.54445124400041],[-0.3051316204622714,44.54316251488009],[-0.30383608468023277,44.542697460516315],[-0.30401561806596905,44.542206380982954],[-0.30160987595651007,44.54254622537101],[-0.30157651429441784,44.54203407511212],[-0.30065298109660443,44.54183078162459],[-0.3011341930803882,44.54109906753503],[-0.30047226952602824,44.5408320290674],[-0.3007155020385121,44.54041944848225],[-0.30362426051829705,44.54050376410405]],[[-0.3168069404515669,44.54143084125361],[-0.3166841825601639,44.54139614743662],[-0.31668396992914594,44.54139638809462],[-0.3168069404515669,44.54143084125361]]],[[[-0.30370156756941763,44.56575785233268],[-0.31044185530951046,44.56703313337294],[-0.30852073930690505,44.569389538910706],[-0.30370156756941763,44.56575785233268]]],[[[-0.3058674551026687,44.54523337545853],[-0.3053693823028266,44.54599774769687],[-0.3046788700928222,44.54594376956545],[-0.3058674551026687,44.54523337545853]]],[[[-0.30569819499103446,44.53327644106763],[-0.30549193828129884,44.53335389129932],[-0.305454266232657,44.53307324471441],[-0.30569819499103446,44.53327644106763]]],[[[-0.3086033941170644,44.52714631861716],[-0.3093193793546586,44.52624378306628],[-0.3083886690378272,44.52615551325967],[-0.30933595966109645,44.52566138201776],[-0.3096378178698642,44.52370537374022],[-0.3120768908005794,44.52463220636672],[-0.3103519977462901,44.52949917384555],[-0.30957310479421957,44.530555055977494],[-0.3088496948470424,44.5306340328136],[-0.3082304987281944,44.528617978225554],[-0.3097404941228978,44.5286385149572],[-0.3098902795491166,44.527716667761574],[-0.3086033941170644,44.52714631861716]]],[[[-0.3506871459479358,44.53761587840841],[-0.3505971461291026,44.536800105989386],[-0.35524290979031053,44.53582474046895],[-0.3560563882736663,44.53636170938684],[-0.35745795175456174,44.53618715536024],[-0.35741577838872113,44.537047494009826],[-0.358198862261847,44.53713647303856],[-0.3580455127658914,44.537855848948844],[-0.35867061401204686,44.53934183822508],[-0.35767159842446783,44.54157192090423],[-0.359528178835372,44.54136792694888],[-0.3593904848546224,44.541797151936734],[-0.36020048654439735,44.54196082530996],[-0.36007423130023336,44.54258085123636],[-0.3575008945128957,44.542107903364744],[-0.3571815146499837,44.54314367812801],[-0.360795596308323,44.54346954486267],[-0.3576128079505533,44.54922520551064],[-0.35666701954400104,44.54958885169482],[-0.3569944168390937,44.54973704506413],[-0.3566589198506772,44.55000748190566],[-0.3575300543693115,44.55023106823434],[-0.3542115261424096,44.554331508127824],[-0.35467075510866175,44.55500002331192],[-0.35448004705639746,44.55623299525959],[-0.35039568315691105,44.561803769571135],[-0.34921142343441425,44.56165233575056],[-0.34918490509526934,44.562326188218016],[-0.34977241932886455,44.562631540030495],[-0.34917740586202645,44.56313975723296],[-0.3480864400560488,44.56364056071019],[-0.34774592811754323,44.563255300618984],[-0.34534827973211085,44.56381703456409],[-0.34549346342530374,44.56443279908377],[-0.34130794454289737,44.566638618957136],[-0.34129259275437396,44.56801870451559],[-0.34024364700323384,44.56779302788674],[-0.3398313120900548,44.56867932093111],[-0.3392975827009598,44.56886980141458],[-0.3368465335948763,44.56791115420063],[-0.333708674295443,44.569049447440904],[-0.3318284081330922,44.56481664373345],[-0.33256304406731807,44.56438043886617],[-0.3327319056626066,44.56423892303102],[-0.3331624437816023,44.56289805770814],[-0.335083098972926,44.56061171266981],[-0.33560335391210444,44.55891601733787],[-0.3366171801490174,44.558230884659146],[-0.33522146233827577,44.55760960449092],[-0.3343863908679069,44.55831234564502],[-0.3318678069238804,44.556700773374374],[-0.32857045715798144,44.555598693601766],[-0.3317230954430193,44.556691130606914],[-0.3343462058242128,44.55834312276026],[-0.3335744593162168,44.560258376378044],[-0.33216094657003903,44.559561158699466],[-0.3309963365338297,44.55966388858905],[-0.33065397582400896,44.55944085962016],[-0.33121791829001795,44.55876505503551],[-0.3308326625214708,44.55847647333359],[-0.3298046980313723,44.55972382917542],[-0.3279299256958033,44.55880150914693],[-0.3283452306424155,44.558266393563095],[-0.32894326535944585,44.55857913850329],[-0.32957362721658456,44.557573496855184],[-0.32779186306325964,44.55727690828942],[-0.32522819964693056,44.5626930075742],[-0.3242346601229354,44.562862305166284],[-0.3236678401429239,44.56353263475177],[-0.32513490722585575,44.563762827364805],[-0.3269663330637622,44.565316414607594],[-0.32750419849809465,44.56494703112487],[-0.32829214450851846,44.5657525223426],[-0.3297131917988754,44.563962837836726],[-0.32874786977753095,44.56313984717343],[-0.3291641922354447,44.56287124325471],[-0.3300550329668271,44.563390240462475],[-0.33073346010429144,44.562866216140634],[-0.3313138194590472,44.56327130013316],[-0.3304224617267679,44.56385501313148],[-0.33109183856013874,44.56432844205624],[-0.33299475708754667,44.56319847359587],[-0.33264376535045526,44.564304170472006],[-0.3317766667231058,44.56481169089575],[-0.33359563709653145,44.568855387964874],[-0.3317426165019843,44.56955100566847],[-0.32829170842670935,44.56956889623088],[-0.32627932656414743,44.57022110851006],[-0.3253843936706722,44.56955178974563],[-0.32549768391931916,44.57002344191059],[-0.3241529038288518,44.57076515892017],[-0.32413184826633634,44.57141343387848],[-0.3226877702804236,44.57263763736394],[-0.3211070096016511,44.57284549551656],[-0.3200913399666071,44.573875629938165],[-0.32171050603242674,44.5744836052045],[-0.3203993265267814,44.57516912760258],[-0.3170616059743459,44.57389454259244],[-0.31644797465491264,44.57320724812354],[-0.3159658015711379,44.57351846980051],[-0.3125393347021745,44.57216818351166],[-0.31027579598084487,44.570458632978664],[-0.30983541137555515,44.569279544478455],[-0.31069212993476575,44.567559003267505],[-0.3103746896286104,44.567404769103945],[-0.31230841310932483,44.5637035830667],[-0.31581521107370125,44.562653323391125],[-0.3152650049693115,44.56223018140472],[-0.316257969903568,44.561120997242455],[-0.31026752862730755,44.556835126204966],[-0.30945201034159836,44.55386520513122],[-0.31054622343148186,44.55284081712193],[-0.3097657355246503,44.552328772702786],[-0.3110834657580928,44.55116786450681],[-0.31001105793398875,44.55123439868648],[-0.3099962543759062,44.55060028580764],[-0.3088480838289591,44.55058076268644],[-0.3089918350620946,44.55000000343921],[-0.3137268956603596,44.55001854503801],[-0.3148802561134935,44.548761428658814],[-0.3155370173114977,44.54915995654307],[-0.3163045203003262,44.54838094150239],[-0.31696939977915844,44.54717530488757],[-0.3145854632833672,44.54599987644073],[-0.3149660904264156,44.545496581574305],[-0.3145001454075887,44.54529697124017],[-0.31672521555128663,44.54205923169531],[-0.31722285774305703,44.540764454721774],[-0.3181663276986022,44.54107478305591],[-0.3188077062013541,44.53872859300698],[-0.319912901567994,44.538903842490164],[-0.32020289580081673,44.53809626639535],[-0.32450989726584184,44.53866190216833],[-0.32490866303666627,44.53784779066581],[-0.3257807571562282,44.53803721369406],[-0.32649989826525977,44.53635592922535],[-0.32938213671394284,44.537044690623176],[-0.3300675077308167,44.53567273161384],[-0.323600953708266,44.534490045905734],[-0.32487769786207726,44.52959756769916],[-0.3264855685820144,44.5301041298187],[-0.32688026025841954,44.52945322005431],[-0.32787553031524597,44.52977910736182],[-0.3286071251672366,44.528625886507925],[-0.32804424689200035,44.52951299027348],[-0.3282520016674856,44.52850541143152],[-0.32862107695144305,44.52851644127728],[-0.3289467425931411,44.52580488619784],[-0.332803129653314,44.52620824683762],[-0.333908283092613,44.525266345423695],[-0.33900027010903744,44.526532269811476],[-0.3387743847986236,44.52585630538505],[-0.33958338724420734,44.525862902451394],[-0.34032884788425644,44.52612388676333],[-0.34067273132561393,44.52692899743703],[-0.34301241072507044,44.5275087562781],[-0.34431694193061113,44.52715376407778],[-0.3463746672776357,44.52832442965774],[-0.3476450068657293,44.52661545760632],[-0.3491279394570852,44.52703916493243],[-0.3495119529656651,44.52625117280127],[-0.3511047110695024,44.52624604920696],[-0.3544256537408144,44.528285983931],[-0.35414275387701294,44.52858706308703],[-0.3586336035482776,44.52972008778201],[-0.35831558294318666,44.53007847251612],[-0.35892006376054414,44.53044445421353],[-0.3587788483790635,44.53082746178081],[-0.35941952173209496,44.530906077993826],[-0.35833074626921224,44.534328680038406],[-0.3552887137950417,44.534315002660875],[-0.35522344669740863,44.534956907659975],[-0.3542622800387889,44.534910445835244],[-0.3542087574296275,44.535345293938946],[-0.3527989933273893,44.53526704380585],[-0.35271891246342546,44.53596120673109],[-0.34981484376553496,44.535908853786935],[-0.34986196311036266,44.53670916871865],[-0.3468920221596424,44.536425999402034],[-0.3440457360426167,44.53494422821317],[-0.34448167096111254,44.53360811218395],[-0.3427338523091232,44.53259362500303],[-0.3427438567029678,44.53219461378021],[-0.3427624674532099,44.53175587651682],[-0.34418748636757546,44.53128974389357],[-0.3417863656034015,44.53120698340147],[-0.3409358378738478,44.533449918597725],[-0.34017187066453985,44.53295450512723],[-0.3401959731909893,44.534390024417945],[-0.33794745774828344,44.53487047789007],[-0.33805493988691815,44.53528845945631],[-0.34030432689633044,44.53434989165705],[-0.342053258990868,44.534674551549756],[-0.34256868123562384,44.53485869713782],[-0.3423595065694866,44.53531293914348],[-0.3501262639044261,44.53801026591526],[-0.34874686969893187,44.539381264678354],[-0.3421209421859551,44.53899198076804],[-0.34202813426129713,44.53968201317778],[-0.3431752328240192,44.5405373989492],[-0.3426140052478899,44.541698630666936],[-0.34319245307892216,44.540727509927],[-0.3450084606878303,44.54122601702038],[-0.3455967262340486,44.54116260766238],[-0.3456654562626861,44.54067364684032],[-0.34779612463792237,44.54039242981066],[-0.3500968386582744,44.538609720908944],[-0.3506871459479358,44.53761587840841]],[[-0.32674948533930503,44.55227360404368],[-0.32551988892297773,44.551826896106135],[-0.3237909005523934,44.551064987836384],[-0.3235564022495317,44.551005103272416],[-0.32282617572020533,44.54982574521906],[-0.32148467173454576,44.54936443422016],[-0.3233097202407294,44.54686778431922],[-0.327049303969118,44.54531128813378],[-0.3244505794390032,44.54394949050276],[-0.32472193506742497,44.54465475142813],[-0.32353283347558454,44.54582965459756],[-0.32256823890484065,44.54548342243929],[-0.32214871397311695,44.54602342618159],[-0.3192124160583444,44.544769477147725],[-0.317639563423477,44.546958059484155],[-0.3185317991329048,44.546770713780646],[-0.3197257507868328,44.54749340701406],[-0.3203762988324133,44.54895287656994],[-0.31999404968529266,44.55052155617665],[-0.3222848411569537,44.551454368053186],[-0.3231144477348009,44.550534836678615],[-0.3234944198785454,44.550987354374605],[-0.3238824274296389,44.551116248200856],[-0.3255109130647671,44.55182875239103],[-0.32669255747242026,44.55228071722902],[-0.3274637593482657,44.55347222141107],[-0.32674948533930503,44.55227360404368]],[[-0.32448261128659905,44.557734903233545],[-0.32448260577997035,44.557734909639805],[-0.3244867327999259,44.55773726595248],[-0.32448261128659905,44.557734903233545]],[[-0.32448260577997035,44.557734909639805],[-0.3228033636550373,44.55701455287999],[-0.32425855935203257,44.55593883268457],[-0.3212942378659902,44.553959158181456],[-0.31843241103490816,44.556596271188816],[-0.3184113153042186,44.55729802600906],[-0.3193680786787748,44.55760479239763],[-0.3214005295026855,44.56013675646456],[-0.3192345682092393,44.561496544100535],[-0.31927551606016336,44.56303059542065],[-0.32097605330747947,44.56371835990417],[-0.3224278557874727,44.56364475828875],[-0.3228884576218622,44.56105901953422],[-0.3218522431672145,44.560567544852525],[-0.32378838542929844,44.55919356698119],[-0.32341715714055175,44.5589719895478],[-0.32448260577997035,44.557734909639805]],[[-0.32751643017065474,44.55351263063523],[-0.32754904154756237,44.55359456570315],[-0.3288721106305152,44.55414448577026],[-0.32751643017065474,44.55351263063523]],[[-0.3305312146225209,44.53945586106321],[-0.3316952585388226,44.53970508480616],[-0.3366275157378639,44.538222514048755],[-0.33533675761731263,44.53786481431007],[-0.33447377182907423,44.538474136942675],[-0.33026035645950985,44.53728020643544],[-0.32754512701438704,44.54107230020035],[-0.33004052098895154,44.54176632113967],[-0.3305312146225209,44.53945586106321]],[[-0.33049455771005803,44.53102061974356],[-0.3300095412703571,44.53090217866754],[-0.32979478768297055,44.531880419996575],[-0.33141228832311675,44.53209360861456],[-0.33037824532837473,44.53171368840008],[-0.33049455771005803,44.53102061974356]],[[-0.3323330803994472,44.54450995934656],[-0.33195855659663054,44.545516011020865],[-0.33086647582328316,44.54482301676953],[-0.33007790931491016,44.54553881061892],[-0.33121494423165926,44.54707229299918],[-0.33240156271716587,44.54732128397979],[-0.33243737122073536,44.54881105705202],[-0.33317895447369256,44.5486882855953],[-0.332698532324089,44.54906636329205],[-0.3317967560790259,44.55140496144814],[-0.3324650620957203,44.54967492766725],[-0.33311296421910075,44.54975745780954],[-0.3332925765400205,44.549221466253705],[-0.3336991265740807,44.549629690987686],[-0.3339759005916018,44.550562427658946],[-0.33340565919945164,44.55266040196335],[-0.33373569378594625,44.55270878448626],[-0.33448817705485623,44.55115730490064],[-0.3342729201868353,44.549063804791686],[-0.3355730199865318,44.547300561330836],[-0.33614055712572133,44.54745119668514],[-0.3367537552809435,44.54655565015382],[-0.3357336110515871,44.545649683524765],[-0.3360382563129774,44.54521187794814],[-0.334362552443265,44.544978859885035],[-0.33472450164798356,44.544090218089096],[-0.3337838265920081,44.543807122720054],[-0.33401029659518294,44.543309126153865],[-0.3316726034547864,44.54284704106521],[-0.3323330803994472,44.54450995934656]],[[-0.3311932178979435,44.55211316462224],[-0.3311000779837739,44.55223238988419],[-0.33178406295483825,44.551404896266945],[-0.3311932178979435,44.55211316462224]],[[-0.33174301853878385,44.535942735181045],[-0.33185504655504083,44.5357299525129],[-0.3315078865512752,44.53562789685357],[-0.33174301853878385,44.535942735181045]],[[-0.3332899649962599,44.56654841271206],[-0.3335167347810415,44.56644059416707],[-0.3330442101509162,44.56579388398603],[-0.3332899649962599,44.56654841271206]],[[-0.3383787422698848,44.530856931059986],[-0.33377808492389166,44.53034316477924],[-0.3336049915624797,44.53111066685689],[-0.3383787422698848,44.530856931059986]],[[-0.33531556890648195,44.565182698729586],[-0.3361845402824013,44.564963877704706],[-0.3352041650620766,44.56414147580962],[-0.335961867024909,44.56376319940986],[-0.3354156496894911,44.563208263634735],[-0.3345674225158835,44.56360150714065],[-0.33531556890648195,44.565182698729586]],[[-0.33748850737842917,44.56110128582291],[-0.3379751307327103,44.56151551294945],[-0.33928581452455026,44.560640646545615],[-0.3382850557352313,44.56011503694112],[-0.3394092930090493,44.559245221579445],[-0.33880785292246696,44.55890185463613],[-0.34061167610972815,44.558227798651146],[-0.3390633916404934,44.55743497530455],[-0.33792334847317324,44.55776122499018],[-0.33634927350619687,44.55923974339692],[-0.3371782106741681,44.5596413638296],[-0.3363352646428385,44.560229592420676],[-0.3368445657301131,44.56056299067192],[-0.3360880726729091,44.56107534876605],[-0.3366950848792056,44.56163537159458],[-0.33748850737842917,44.56110128582291]],[[-0.33944134272907084,44.56153273268143],[-0.33780750997850384,44.56262671225776],[-0.3383834611076979,44.5630953183445],[-0.3399631885452371,44.5619240176994],[-0.33944134272907084,44.56153273268143]],[[-0.33918041509622804,44.53079590727381],[-0.33851924435716846,44.53153512157684],[-0.3391752406899377,44.53186045433075],[-0.3399708976697133,44.53092046884887],[-0.33918041509622804,44.53079590727381]],[[-0.34086837037205686,44.54934113111265],[-0.34028634298095684,44.55008427616749],[-0.34137239257429075,44.55169758372927],[-0.3417923025980062,44.55091957868286],[-0.34135036657386975,44.550695913894494],[-0.34223001448789575,44.549574953468614],[-0.34086837037205686,44.54934113111265]],[[-0.34254889795924126,44.54414294151251],[-0.34579828751718017,44.54453165019208],[-0.3473977089066518,44.545671086764514],[-0.3484061817450714,44.54527855100643],[-0.3487727676561956,44.54371153337066],[-0.3472762036552318,44.54348826787892],[-0.3469248206069954,44.54442765687615],[-0.3440744302570854,44.54290895199329],[-0.3411950535602695,44.54296332340111],[-0.34123201121536717,44.542244094797184],[-0.34040383980433236,44.54213558089385],[-0.3403199454115891,44.54308075038493],[-0.34254889795924126,44.54414294151251]],[[-0.34089982396031926,44.55981798925431],[-0.34069292830578823,44.559955776809915],[-0.34136248450360707,44.560467036466115],[-0.34089982396031926,44.55981798925431]],[[-0.35023487436767914,44.53930605228926],[-0.35010899146245944,44.53920386502549],[-0.3502338197374574,44.539306112382796],[-0.35023487436767914,44.53930605228926]],[[-0.35473838862579266,44.53427551263915],[-0.3547384153533243,44.53427596234734],[-0.3549943091601607,44.53430215041853],[-0.35473838862579266,44.53427551263915]],[[-0.35726571369442806,44.53958661981988],[-0.3572357993977756,44.53958769884143],[-0.35724546705747645,44.53966361946881],[-0.35726571369442806,44.53958661981988]]],[[[-0.3109750320907576,44.572148800874196],[-0.31094719476385485,44.57213755283714],[-0.3109559000189242,44.57212114522667],[-0.3109750320907576,44.572148800874196]]],[[[-0.3121320001242162,44.53061911867361],[-0.313119592503206,44.53051410334377],[-0.3131458126293603,44.53082263621392],[-0.3121320001242162,44.53061911867361]]],[[[-0.32529987865929993,44.57232181123821],[-0.32629201856082124,44.57236306997647],[-0.3268759417052126,44.573081618271544],[-0.32463843209863624,44.574485832760715],[-0.32363833856525215,44.57418289172958],[-0.32529987865929993,44.57232181123821]]],[[[-0.32683402525187516,44.51885198896397],[-0.3296964644955758,44.519290552459786],[-0.32935584951520896,44.51988929295667],[-0.3275742321105584,44.5198790821518],[-0.3272884951574494,44.52043498332051],[-0.3265530257836768,44.52027065448926],[-0.3268486779942918,44.519658502883935],[-0.32593783256294173,44.519505586749595],[-0.32683402525187516,44.51885198896397]]],[[[-0.32950123070439497,44.51993923643688],[-0.33366551849786885,44.520739262027774],[-0.3330982424998771,44.52191188143727],[-0.33610543879553123,44.522620454583446],[-0.3364713500380392,44.521387232629365],[-0.3389247822682054,44.52152491650379],[-0.3382638688883699,44.52462887430585],[-0.3340640953917032,44.52517270478014],[-0.3307676107146089,44.52481844098017],[-0.3324659600833457,44.52271118406598],[-0.3285659914226776,44.52137224941226],[-0.32950123070439497,44.51993923643688]]],[[[-0.33418345283097944,44.56157718237277],[-0.33374343113328114,44.56134796641799],[-0.3340755159697078,44.560991692925526],[-0.33418345283097944,44.56157718237277]]],[[[-0.34020914988936096,44.51857669751548],[-0.34097506523538285,44.51876353041911],[-0.3409430294873504,44.519313948473574],[-0.3428812068433812,44.51939046975059],[-0.34346779143268674,44.518098993924724],[-0.3440387604761603,44.518190078631015],[-0.3441282480333613,44.519439437900054],[-0.34542639870864755,44.519445484530614],[-0.34561372831760934,44.519999073128865],[-0.3454565861191218,44.52048417952298],[-0.3423553149103092,44.520597118361955],[-0.34222632955828264,44.52128391790584],[-0.3390091265231319,44.521526418006026],[-0.34020914988936096,44.51857669751548]]],[[[-0.35410276573413957,44.522508163363966],[-0.3541969330222818,44.52217254699023],[-0.3560156224204399,44.522715698191874],[-0.35617175698172704,44.522399368811946],[-0.3606619439169018,44.523293899145315],[-0.3604884113302062,44.52400947618693],[-0.36102383501680524,44.52410489261263],[-0.36018118200991045,44.52809082124938],[-0.35757170417740386,44.5277689499786],[-0.34985759327425936,44.52496949558983],[-0.3506024089319663,44.52463322426108],[-0.35104505351717447,44.5233376940664],[-0.34948602322444616,44.5230374255083],[-0.34975889569386087,44.52144025458399],[-0.35410276573413957,44.522508163363966]]],[[[-0.3531719811459872,44.51778494038054],[-0.35273618811933344,44.51859623463226],[-0.35174341137657994,44.51836258458764],[-0.3522710253760803,44.517322254327766],[-0.3531719811459872,44.51778494038054]]],[[[-0.3581307202009328,44.52120948489922],[-0.3577819589265986,44.521755409124665],[-0.35641364092470157,44.52158702166366],[-0.35676026945253997,44.52103044472604],[-0.3581307202009328,44.52120948489922]]]]}}]}